<?xml version="1.0" encoding="UTF-8"?>
<!-- track-length = 86517 filtered ascend = 372 plain-ascend = 21 cost=100186 energy=.4kwh time=4h 23m 5s -->
<gpx 
 xmlns="http://www.topografix.com/GPX/1/1" 
 xmlns:xsi="http://www.w3.org/2001/XMLSchema-instance" 
 xsi:schemaLocation="http://www.topografix.com/GPX/1/1 http://www.topografix.com/GPX/1/1/gpx.xsd" 
 creator="BRouter-1.7.10" version="1.1">
 <trk>
  <name>brouter_trekking_0</name>
  <trkseg>
   <trkpt lon="-4.142393" lat="42.288470"><ele>796.75</ele></trkpt>
   <trkpt lon="-4.142295" lat="42.288611"><ele>798.75</ele></trkpt>
   <trkpt lon="-4.142280" lat="42.288599"><ele>798.75</ele></trkpt>
   <trkpt lon="-4.142268" lat="42.288620"><ele>799.0</ele></trkpt>
   <trkpt lon="-4.142322" lat="42.288665"><ele>799.25</ele></trkpt>
   <trkpt lon="-4.142408" lat="42.288723"><ele>799.5</ele></trkpt>
   <trkpt lon="-4.142536" lat="42.288783"><ele>799.25</ele></trkpt>
   <trkpt lon="-4.142709" lat="42.288846"><ele>798.0</ele></trkpt>
   <trkpt lon="-4.143023" lat="42.288943"><ele>797.5</ele></trkpt>
   <trkpt lon="-4.143090" lat="42.288994"><ele>797.5</ele></trkpt>
   <trkpt lon="-4.143172" lat="42.289057"><ele>797.5</ele></trkpt>
   <trkpt lon="-4.143279" lat="42.289110"><ele>797.5</ele></trkpt>
   <trkpt lon="-4.143437" lat="42.289156"><ele>797.75</ele></trkpt>
   <trkpt lon="-4.143571" lat="42.289190"><ele>798.25</ele></trkpt>
   <trkpt lon="-4.143729" lat="42.289214"><ele>798.75</ele></trkpt>
   <trkpt lon="-4.143983" lat="42.289224"><ele>799.75</ele></trkpt>
   <trkpt lon="-4.144115" lat="42.289245"><ele>800.75</ele></trkpt>
   <trkpt lon="-4.144183" lat="42.289208"><ele>800.5</ele></trkpt>
   <trkpt lon="-4.144432" lat="42.289136"><ele>801.5</ele></trkpt>
   <trkpt lon="-4.144802" lat="42.289087"><ele>802.5</ele></trkpt>
   <trkpt lon="-4.144935" lat="42.289055"><ele>802.5</ele></trkpt>
   <trkpt lon="-4.145133" lat="42.288986"><ele>801.0</ele></trkpt>
   <trkpt lon="-4.145201" lat="42.288950"><ele>800.0</ele></trkpt>
   <trkpt lon="-4.145280" lat="42.288940"><ele>799.5</ele></trkpt>
   <trkpt lon="-4.145380" lat="42.288956"><ele>799.5</ele></trkpt>
   <trkpt lon="-4.145432" lat="42.288971"><ele>799.5</ele></trkpt>
   <trkpt lon="-4.145508" lat="42.289001"><ele>799.5</ele></trkpt>
   <trkpt lon="-4.145599" lat="42.289060"><ele>799.75</ele></trkpt>
   <trkpt lon="-4.145632" lat="42.289108"><ele>800.25</ele></trkpt>
   <trkpt lon="-4.145657" lat="42.289178"><ele>800.5</ele></trkpt>
   <trkpt lon="-4.145730" lat="42.289492"><ele>800.25</ele></trkpt>
   <trkpt lon="-4.145738" lat="42.289561"><ele>800.5</ele></trkpt>
   <trkpt lon="-4.145737" lat="42.289681"><ele>800.75</ele></trkpt>
   <trkpt lon="-4.145778" lat="42.289779"><ele>800.75</ele></trkpt>
   <trkpt lon="-4.145890" lat="42.289957"><ele>799.75</ele></trkpt>
   <trkpt lon="-4.146156" lat="42.289955"><ele>799.0</ele></trkpt>
   <trkpt lon="-4.147094" lat="42.289943"><ele>794.25</ele></trkpt>
   <trkpt lon="-4.147628" lat="42.289932"><ele>792.5</ele></trkpt>
   <trkpt lon="-4.147725" lat="42.289925"><ele>792.0</ele></trkpt>
   <trkpt lon="-4.148632" lat="42.291026"><ele>789.75</ele></trkpt>
   <trkpt lon="-4.151053" lat="42.294033"><ele>782.25</ele></trkpt>
   <trkpt lon="-4.152136" lat="42.295377"><ele>781.25</ele></trkpt>
   <trkpt lon="-4.154460" lat="42.297971"><ele>776.75</ele></trkpt>
   <trkpt lon="-4.154505" lat="42.298021"><ele>776.75</ele></trkpt>
   <trkpt lon="-4.154752" lat="42.298281"><ele>776.5</ele></trkpt>
   <trkpt lon="-4.157275" lat="42.300940"><ele>778.25</ele></trkpt>
   <trkpt lon="-4.157845" lat="42.301511"><ele>777.0</ele></trkpt>
   <trkpt lon="-4.158274" lat="42.301977"><ele>777.5</ele></trkpt>
   <trkpt lon="-4.158680" lat="42.302355"><ele>777.25</ele></trkpt>
   <trkpt lon="-4.158998" lat="42.302619"><ele>777.25</ele></trkpt>
   <trkpt lon="-4.159426" lat="42.302928"><ele>777.0</ele></trkpt>
   <trkpt lon="-4.159672" lat="42.303074"><ele>777.75</ele></trkpt>
   <trkpt lon="-4.159913" lat="42.303209"><ele>776.0</ele></trkpt>
   <trkpt lon="-4.161797" lat="42.304119"><ele>777.0</ele></trkpt>
   <trkpt lon="-4.169921" lat="42.307961"><ele>784.0</ele></trkpt>
   <trkpt lon="-4.170305" lat="42.308142"><ele>784.0</ele></trkpt>
   <trkpt lon="-4.171931" lat="42.308908"><ele>785.75</ele></trkpt>
   <trkpt lon="-4.172561" lat="42.309206"><ele>787.0</ele></trkpt>
   <trkpt lon="-4.172999" lat="42.309410"><ele>788.0</ele></trkpt>
   <trkpt lon="-4.173345" lat="42.309637"><ele>788.0</ele></trkpt>
   <trkpt lon="-4.173461" lat="42.309729"><ele>787.75</ele></trkpt>
   <trkpt lon="-4.173547" lat="42.309803"><ele>787.75</ele></trkpt>
   <trkpt lon="-4.173566" lat="42.309840"><ele>787.75</ele></trkpt>
   <trkpt lon="-4.173596" lat="42.309872"><ele>787.75</ele></trkpt>
   <trkpt lon="-4.173651" lat="42.309904"><ele>788.0</ele></trkpt>
   <trkpt lon="-4.173710" lat="42.309920"><ele>788.0</ele></trkpt>
   <trkpt lon="-4.173764" lat="42.309924"><ele>788.0</ele></trkpt>
   <trkpt lon="-4.173833" lat="42.309914"><ele>788.0</ele></trkpt>
   <trkpt lon="-4.173886" lat="42.309892"><ele>788.0</ele></trkpt>
   <trkpt lon="-4.173936" lat="42.309851"><ele>788.0</ele></trkpt>
   <trkpt lon="-4.173958" lat="42.309820"><ele>788.0</ele></trkpt>
   <trkpt lon="-4.173969" lat="42.309785"><ele>788.0</ele></trkpt>
   <trkpt lon="-4.173969" lat="42.309745"><ele>788.25</ele></trkpt>
   <trkpt lon="-4.173991" lat="42.309658"><ele>788.5</ele></trkpt>
   <trkpt lon="-4.174034" lat="42.309593"><ele>788.75</ele></trkpt>
   <trkpt lon="-4.174086" lat="42.309530"><ele>789.25</ele></trkpt>
   <trkpt lon="-4.174374" lat="42.309404"><ele>790.0</ele></trkpt>
   <trkpt lon="-4.175100" lat="42.309071"><ele>791.5</ele></trkpt>
   <trkpt lon="-4.179137" lat="42.307262"><ele>795.75</ele></trkpt>
   <trkpt lon="-4.184526" lat="42.304847"><ele>816.5</ele></trkpt>
   <trkpt lon="-4.185244" lat="42.304734"><ele>816.25</ele></trkpt>
   <trkpt lon="-4.189065" lat="42.303793"><ele>819.5</ele></trkpt>
   <trkpt lon="-4.215496" lat="42.297293"><ele>825.75</ele></trkpt>
   <trkpt lon="-4.218872" lat="42.296214"><ele>821.25</ele></trkpt>
   <trkpt lon="-4.219101" lat="42.296112"><ele>820.25</ele></trkpt>
   <trkpt lon="-4.225589" lat="42.291506"><ele>819.75</ele></trkpt>
   <trkpt lon="-4.229595" lat="42.289109"><ele>810.25</ele></trkpt>
   <trkpt lon="-4.229664" lat="42.289067"><ele>809.75</ele></trkpt>
   <trkpt lon="-4.233831" lat="42.286558"><ele>800.5</ele></trkpt>
   <trkpt lon="-4.235553" lat="42.285517"><ele>797.0</ele></trkpt>
   <trkpt lon="-4.235711" lat="42.285413"><ele>796.25</ele></trkpt>
   <trkpt lon="-4.236008" lat="42.285122"><ele>795.5</ele></trkpt>
   <trkpt lon="-4.237297" lat="42.283814"><ele>790.5</ele></trkpt>
   <trkpt lon="-4.237607" lat="42.283513"><ele>789.25</ele></trkpt>
   <trkpt lon="-4.237853" lat="42.283351"><ele>788.25</ele></trkpt>
   <trkpt lon="-4.239600" lat="42.282488"><ele>783.25</ele></trkpt>
   <trkpt lon="-4.242441" lat="42.281083"><ele>775.25</ele></trkpt>
   <trkpt lon="-4.242790" lat="42.280752"><ele>772.25</ele></trkpt>
   <trkpt lon="-4.244420" lat="42.278882"><ele>770.0</ele></trkpt>
   <trkpt lon="-4.244525" lat="42.278797"><ele>769.5</ele></trkpt>
   <trkpt lon="-4.244679" lat="42.278708"><ele>769.25</ele></trkpt>
   <trkpt lon="-4.244718" lat="42.278690"><ele>769.25</ele></trkpt>
   <trkpt lon="-4.245753" lat="42.278233"><ele>769.25</ele></trkpt>
   <trkpt lon="-4.246688" lat="42.277826"><ele>769.5</ele></trkpt>
   <trkpt lon="-4.246748" lat="42.277796"><ele>769.5</ele></trkpt>
   <trkpt lon="-4.246954" lat="42.277692"><ele>769.0</ele></trkpt>
   <trkpt lon="-4.247261" lat="42.277526"><ele>769.0</ele></trkpt>
   <trkpt lon="-4.247323" lat="42.277543"><ele>769.25</ele></trkpt>
   <trkpt lon="-4.247369" lat="42.277543"><ele>769.25</ele></trkpt>
   <trkpt lon="-4.247856" lat="42.277502"><ele>769.5</ele></trkpt>
   <trkpt lon="-4.248033" lat="42.277517"><ele>768.75</ele></trkpt>
   <trkpt lon="-4.248199" lat="42.277554"><ele>768.5</ele></trkpt>
   <trkpt lon="-4.248414" lat="42.277633"><ele>768.5</ele></trkpt>
   <trkpt lon="-4.248581" lat="42.277719"><ele>768.75</ele></trkpt>
   <trkpt lon="-4.248704" lat="42.277798"><ele>768.75</ele></trkpt>
   <trkpt lon="-4.248825" lat="42.277894"><ele>768.75</ele></trkpt>
   <trkpt lon="-4.249138" lat="42.278196"><ele>767.75</ele></trkpt>
   <trkpt lon="-4.249584" lat="42.278661"><ele>768.0</ele></trkpt>
   <trkpt lon="-4.249779" lat="42.278919"><ele>768.0</ele></trkpt>
   <trkpt lon="-4.250020" lat="42.279340"><ele>768.5</ele></trkpt>
   <trkpt lon="-4.250074" lat="42.279471"><ele>768.5</ele></trkpt>
   <trkpt lon="-4.250112" lat="42.279602"><ele>768.25</ele></trkpt>
   <trkpt lon="-4.250123" lat="42.279737"><ele>768.0</ele></trkpt>
   <trkpt lon="-4.250066" lat="42.280132"><ele>768.75</ele></trkpt>
   <trkpt lon="-4.250059" lat="42.280265"><ele>768.75</ele></trkpt>
   <trkpt lon="-4.250065" lat="42.280399"><ele>768.75</ele></trkpt>
   <trkpt lon="-4.250102" lat="42.280670"><ele>769.0</ele></trkpt>
   <trkpt lon="-4.250154" lat="42.280937"><ele>768.75</ele></trkpt>
   <trkpt lon="-4.250320" lat="42.281423"><ele>769.0</ele></trkpt>
   <trkpt lon="-4.250480" lat="42.281872"><ele>768.25</ele></trkpt>
   <trkpt lon="-4.250574" lat="42.282019"><ele>768.0</ele></trkpt>
   <trkpt lon="-4.250622" lat="42.282060"><ele>768.0</ele></trkpt>
   <trkpt lon="-4.251056" lat="42.282376"><ele>769.0</ele></trkpt>
   <trkpt lon="-4.251208" lat="42.282537"><ele>769.0</ele></trkpt>
   <trkpt lon="-4.251339" lat="42.282701"><ele>769.0</ele></trkpt>
   <trkpt lon="-4.251466" lat="42.282811"><ele>769.0</ele></trkpt>
   <trkpt lon="-4.252484" lat="42.283601"><ele>769.0</ele></trkpt>
   <trkpt lon="-4.252621" lat="42.283756"><ele>769.0</ele></trkpt>
   <trkpt lon="-4.253202" lat="42.284614"><ele>770.0</ele></trkpt>
   <trkpt lon="-4.253509" lat="42.284902"><ele>769.75</ele></trkpt>
   <trkpt lon="-4.253667" lat="42.285016"><ele>769.75</ele></trkpt>
   <trkpt lon="-4.253826" lat="42.285096"><ele>769.25</ele></trkpt>
   <trkpt lon="-4.254087" lat="42.285216"><ele>769.75</ele></trkpt>
   <trkpt lon="-4.254211" lat="42.285294"><ele>770.0</ele></trkpt>
   <trkpt lon="-4.254543" lat="42.285558"><ele>769.75</ele></trkpt>
   <trkpt lon="-4.254715" lat="42.285708"><ele>769.25</ele></trkpt>
   <trkpt lon="-4.254861" lat="42.285852"><ele>769.0</ele></trkpt>
   <trkpt lon="-4.255184" lat="42.286100"><ele>769.0</ele></trkpt>
   <trkpt lon="-4.255609" lat="42.286361"><ele>770.0</ele></trkpt>
   <trkpt lon="-4.256060" lat="42.286591"><ele>770.0</ele></trkpt>
   <trkpt lon="-4.256074" lat="42.286669"><ele>770.0</ele></trkpt>
   <trkpt lon="-4.256090" lat="42.286724"><ele>770.0</ele></trkpt>
   <trkpt lon="-4.256114" lat="42.286760"><ele>770.25</ele></trkpt>
   <trkpt lon="-4.256296" lat="42.286906"><ele>770.75</ele></trkpt>
   <trkpt lon="-4.256341" lat="42.286961"><ele>771.0</ele></trkpt>
   <trkpt lon="-4.256510" lat="42.287122"><ele>771.0</ele></trkpt>
   <trkpt lon="-4.256578" lat="42.287151"><ele>771.0</ele></trkpt>
   <trkpt lon="-4.256934" lat="42.287031"><ele>771.0</ele></trkpt>
   <trkpt lon="-4.257059" lat="42.287025"><ele>771.0</ele></trkpt>
   <trkpt lon="-4.257153" lat="42.287034"><ele>771.0</ele></trkpt>
   <trkpt lon="-4.257191" lat="42.287048"><ele>771.25</ele></trkpt>
   <trkpt lon="-4.257252" lat="42.287049"><ele>771.25</ele></trkpt>
   <trkpt lon="-4.257427" lat="42.287073"><ele>771.0</ele></trkpt>
   <trkpt lon="-4.257499" lat="42.287094"><ele>771.0</ele></trkpt>
   <trkpt lon="-4.257826" lat="42.287226"><ele>771.0</ele></trkpt>
   <trkpt lon="-4.257961" lat="42.287269"><ele>771.5</ele></trkpt>
   <trkpt lon="-4.258488" lat="42.287287"><ele>771.5</ele></trkpt>
   <trkpt lon="-4.258994" lat="42.287266"><ele>771.75</ele></trkpt>
   <trkpt lon="-4.259248" lat="42.287268"><ele>772.0</ele></trkpt>
   <trkpt lon="-4.259527" lat="42.287253"><ele>771.5</ele></trkpt>
   <trkpt lon="-4.259754" lat="42.287228"><ele>771.0</ele></trkpt>
   <trkpt lon="-4.259956" lat="42.287206"><ele>771.0</ele></trkpt>
   <trkpt lon="-4.261254" lat="42.287084"><ele>771.5</ele></trkpt>
   <trkpt lon="-4.261435" lat="42.287064"><ele>771.25</ele></trkpt>
   <trkpt lon="-4.261582" lat="42.287041"><ele>771.0</ele></trkpt>
   <trkpt lon="-4.261869" lat="42.286929"><ele>771.0</ele></trkpt>
   <trkpt lon="-4.262186" lat="42.286756"><ele>771.0</ele></trkpt>
   <trkpt lon="-4.264060" lat="42.285624"><ele>771.0</ele></trkpt>
   <trkpt lon="-4.264107" lat="42.285597"><ele>771.0</ele></trkpt>
   <trkpt lon="-4.264191" lat="42.285556"><ele>771.0</ele></trkpt>
   <trkpt lon="-4.265961" lat="42.285042"><ele>772.0</ele></trkpt>
   <trkpt lon="-4.267881" lat="42.284457"><ele>772.75</ele></trkpt>
   <trkpt lon="-4.268095" lat="42.284389"><ele>773.25</ele></trkpt>
   <trkpt lon="-4.269224" lat="42.284127"><ele>777.75</ele></trkpt>
   <trkpt lon="-4.270925" lat="42.283603"><ele>778.0</ele></trkpt>
   <trkpt lon="-4.273725" lat="42.282718"><ele>779.0</ele></trkpt>
   <trkpt lon="-4.274360" lat="42.282532"><ele>779.0</ele></trkpt>
   <trkpt lon="-4.275407" lat="42.282308"><ele>780.0</ele></trkpt>
   <trkpt lon="-4.275689" lat="42.282253"><ele>780.0</ele></trkpt>
   <trkpt lon="-4.275977" lat="42.282212"><ele>780.0</ele></trkpt>
   <trkpt lon="-4.276388" lat="42.282181"><ele>780.0</ele></trkpt>
   <trkpt lon="-4.276575" lat="42.282160"><ele>780.5</ele></trkpt>
   <trkpt lon="-4.276828" lat="42.282110"><ele>780.75</ele></trkpt>
   <trkpt lon="-4.277149" lat="42.282044"><ele>781.0</ele></trkpt>
   <trkpt lon="-4.279277" lat="42.281642"><ele>781.75</ele></trkpt>
   <trkpt lon="-4.280654" lat="42.281391"><ele>782.25</ele></trkpt>
   <trkpt lon="-4.281560" lat="42.281262"><ele>784.0</ele></trkpt>
   <trkpt lon="-4.282181" lat="42.281191"><ele>784.0</ele></trkpt>
   <trkpt lon="-4.282605" lat="42.281106"><ele>784.25</ele></trkpt>
   <trkpt lon="-4.283171" lat="42.280956"><ele>785.5</ele></trkpt>
   <trkpt lon="-4.283187" lat="42.280952"><ele>785.75</ele></trkpt>
   <trkpt lon="-4.283265" lat="42.280933"><ele>785.75</ele></trkpt>
   <trkpt lon="-4.283295" lat="42.280926"><ele>785.75</ele></trkpt>
   <trkpt lon="-4.283381" lat="42.280905"><ele>786.0</ele></trkpt>
   <trkpt lon="-4.283654" lat="42.280864"><ele>786.0</ele></trkpt>
   <trkpt lon="-4.284574" lat="42.280785"><ele>788.25</ele></trkpt>
   <trkpt lon="-4.284968" lat="42.280772"><ele>789.5</ele></trkpt>
   <trkpt lon="-4.285298" lat="42.280777"><ele>790.0</ele></trkpt>
   <trkpt lon="-4.285823" lat="42.280813"><ele>791.0</ele></trkpt>
   <trkpt lon="-4.285961" lat="42.280835"><ele>791.75</ele></trkpt>
   <trkpt lon="-4.286331" lat="42.280921"><ele>793.75</ele></trkpt>
   <trkpt lon="-4.286423" lat="42.280933"><ele>794.0</ele></trkpt>
   <trkpt lon="-4.286609" lat="42.280922"><ele>794.0</ele></trkpt>
   <trkpt lon="-4.286685" lat="42.280898"><ele>794.0</ele></trkpt>
   <trkpt lon="-4.288133" lat="42.280331"><ele>797.25</ele></trkpt>
   <trkpt lon="-4.289176" lat="42.279954"><ele>797.0</ele></trkpt>
   <trkpt lon="-4.291130" lat="42.279276"><ele>799.5</ele></trkpt>
   <trkpt lon="-4.291435" lat="42.279181"><ele>799.75</ele></trkpt>
   <trkpt lon="-4.291707" lat="42.279123"><ele>800.0</ele></trkpt>
   <trkpt lon="-4.291908" lat="42.279090"><ele>800.0</ele></trkpt>
   <trkpt lon="-4.292120" lat="42.279064"><ele>800.75</ele></trkpt>
   <trkpt lon="-4.293613" lat="42.279032"><ele>803.5</ele></trkpt>
   <trkpt lon="-4.294170" lat="42.279012"><ele>804.25</ele></trkpt>
   <trkpt lon="-4.295174" lat="42.278941"><ele>806.0</ele></trkpt>
   <trkpt lon="-4.296464" lat="42.278782"><ele>808.25</ele></trkpt>
   <trkpt lon="-4.296566" lat="42.278765"><ele>808.25</ele></trkpt>
   <trkpt lon="-4.296656" lat="42.278744"><ele>808.5</ele></trkpt>
   <trkpt lon="-4.296831" lat="42.278667"><ele>808.0</ele></trkpt>
   <trkpt lon="-4.297019" lat="42.278569"><ele>808.5</ele></trkpt>
   <trkpt lon="-4.297264" lat="42.278430"><ele>809.5</ele></trkpt>
   <trkpt lon="-4.297611" lat="42.278165"><ele>809.5</ele></trkpt>
   <trkpt lon="-4.297686" lat="42.278117"><ele>809.5</ele></trkpt>
   <trkpt lon="-4.297766" lat="42.278082"><ele>809.0</ele></trkpt>
   <trkpt lon="-4.297973" lat="42.278025"><ele>809.0</ele></trkpt>
   <trkpt lon="-4.298318" lat="42.277916"><ele>809.5</ele></trkpt>
   <trkpt lon="-4.299759" lat="42.277507"><ele>811.0</ele></trkpt>
   <trkpt lon="-4.301667" lat="42.276899"><ele>818.25</ele></trkpt>
   <trkpt lon="-4.301847" lat="42.276831"><ele>819.0</ele></trkpt>
   <trkpt lon="-4.302022" lat="42.276753"><ele>820.0</ele></trkpt>
   <trkpt lon="-4.302482" lat="42.276534"><ele>823.25</ele></trkpt>
   <trkpt lon="-4.302868" lat="42.276380"><ele>825.0</ele></trkpt>
   <trkpt lon="-4.304159" lat="42.275966"><ele>829.75</ele></trkpt>
   <trkpt lon="-4.304690" lat="42.275825"><ele>825.0</ele></trkpt>
   <trkpt lon="-4.307806" lat="42.275070"><ele>816.75</ele></trkpt>
   <trkpt lon="-4.308042" lat="42.275006"><ele>816.75</ele></trkpt>
   <trkpt lon="-4.308656" lat="42.274786"><ele>816.0</ele></trkpt>
   <trkpt lon="-4.308893" lat="42.274713"><ele>815.0</ele></trkpt>
   <trkpt lon="-4.309592" lat="42.274544"><ele>811.75</ele></trkpt>
   <trkpt lon="-4.309782" lat="42.274479"><ele>811.0</ele></trkpt>
   <trkpt lon="-4.310934" lat="42.273985"><ele>809.25</ele></trkpt>
   <trkpt lon="-4.311938" lat="42.273565"><ele>808.0</ele></trkpt>
   <trkpt lon="-4.312478" lat="42.273348"><ele>808.0</ele></trkpt>
   <trkpt lon="-4.313854" lat="42.272710"><ele>807.75</ele></trkpt>
   <trkpt lon="-4.314211" lat="42.272557"><ele>808.25</ele></trkpt>
   <trkpt lon="-4.314554" lat="42.272425"><ele>808.5</ele></trkpt>
   <trkpt lon="-4.315752" lat="42.272011"><ele>806.25</ele></trkpt>
   <trkpt lon="-4.316078" lat="42.271911"><ele>805.0</ele></trkpt>
   <trkpt lon="-4.316393" lat="42.271829"><ele>804.75</ele></trkpt>
   <trkpt lon="-4.318266" lat="42.271449"><ele>802.0</ele></trkpt>
   <trkpt lon="-4.322672" lat="42.270534"><ele>801.0</ele></trkpt>
   <trkpt lon="-4.324066" lat="42.270215"><ele>802.0</ele></trkpt>
   <trkpt lon="-4.324797" lat="42.270038"><ele>801.5</ele></trkpt>
   <trkpt lon="-4.325243" lat="42.269911"><ele>801.25</ele></trkpt>
   <trkpt lon="-4.326183" lat="42.269599"><ele>799.0</ele></trkpt>
   <trkpt lon="-4.327818" lat="42.268996"><ele>796.75</ele></trkpt>
   <trkpt lon="-4.330258" lat="42.268079"><ele>793.0</ele></trkpt>
   <trkpt lon="-4.333057" lat="42.266804"><ele>790.25</ele></trkpt>
   <trkpt lon="-4.333371" lat="42.266664"><ele>789.0</ele></trkpt>
   <trkpt lon="-4.333759" lat="42.266511"><ele>789.25</ele></trkpt>
   <trkpt lon="-4.334387" lat="42.266212"><ele>788.25</ele></trkpt>
   <trkpt lon="-4.336109" lat="42.265459"><ele>786.5</ele></trkpt>
   <trkpt lon="-4.336575" lat="42.265242"><ele>786.5</ele></trkpt>
   <trkpt lon="-4.338409" lat="42.264317"><ele>788.75</ele></trkpt>
   <trkpt lon="-4.339234" lat="42.263909"><ele>789.25</ele></trkpt>
   <trkpt lon="-4.340112" lat="42.263428"><ele>790.0</ele></trkpt>
   <trkpt lon="-4.340664" lat="42.263152"><ele>789.5</ele></trkpt>
   <trkpt lon="-4.341303" lat="42.262874"><ele>789.5</ele></trkpt>
   <trkpt lon="-4.341731" lat="42.262720"><ele>788.5</ele></trkpt>
   <trkpt lon="-4.342966" lat="42.262334"><ele>785.75</ele></trkpt>
   <trkpt lon="-4.343303" lat="42.262203"><ele>784.0</ele></trkpt>
   <trkpt lon="-4.343519" lat="42.262109"><ele>785.25</ele></trkpt>
   <trkpt lon="-4.343758" lat="42.261983"><ele>784.75</ele></trkpt>
   <trkpt lon="-4.344662" lat="42.261480"><ele>783.25</ele></trkpt>
   <trkpt lon="-4.344828" lat="42.261385"><ele>782.5</ele></trkpt>
   <trkpt lon="-4.344875" lat="42.261345"><ele>782.25</ele></trkpt>
   <trkpt lon="-4.344953" lat="42.261252"><ele>782.0</ele></trkpt>
   <trkpt lon="-4.344985" lat="42.261203"><ele>782.0</ele></trkpt>
   <trkpt lon="-4.345042" lat="42.261130"><ele>782.0</ele></trkpt>
   <trkpt lon="-4.345109" lat="42.261069"><ele>782.0</ele></trkpt>
   <trkpt lon="-4.345246" lat="42.261006"><ele>782.0</ele></trkpt>
   <trkpt lon="-4.345499" lat="42.260861"><ele>782.0</ele></trkpt>
   <trkpt lon="-4.345549" lat="42.260820"><ele>782.0</ele></trkpt>
   <trkpt lon="-4.345657" lat="42.260703"><ele>782.0</ele></trkpt>
   <trkpt lon="-4.345772" lat="42.260708"><ele>782.0</ele></trkpt>
   <trkpt lon="-4.345944" lat="42.260684"><ele>782.0</ele></trkpt>
   <trkpt lon="-4.346124" lat="42.260650"><ele>782.5</ele></trkpt>
   <trkpt lon="-4.346599" lat="42.260374"><ele>783.25</ele></trkpt>
   <trkpt lon="-4.346768" lat="42.260269"><ele>783.25</ele></trkpt>
   <trkpt lon="-4.347054" lat="42.260260"><ele>783.75</ele></trkpt>
   <trkpt lon="-4.347156" lat="42.260260"><ele>783.75</ele></trkpt>
   <trkpt lon="-4.347465" lat="42.260206"><ele>784.75</ele></trkpt>
   <trkpt lon="-4.347580" lat="42.260154"><ele>785.25</ele></trkpt>
   <trkpt lon="-4.347823" lat="42.260064"><ele>786.0</ele></trkpt>
   <trkpt lon="-4.347985" lat="42.259995"><ele>785.75</ele></trkpt>
   <trkpt lon="-4.348334" lat="42.260443"><ele>786.25</ele></trkpt>
   <trkpt lon="-4.348625" lat="42.260753"><ele>785.25</ele></trkpt>
   <trkpt lon="-4.348632" lat="42.260802"><ele>785.25</ele></trkpt>
   <trkpt lon="-4.348640" lat="42.260852"><ele>785.25</ele></trkpt>
   <trkpt lon="-4.348699" lat="42.260937"><ele>786.25</ele></trkpt>
   <trkpt lon="-4.348950" lat="42.261217"><ele>786.25</ele></trkpt>
   <trkpt lon="-4.349046" lat="42.261266"><ele>786.75</ele></trkpt>
   <trkpt lon="-4.349301" lat="42.261353"><ele>786.5</ele></trkpt>
   <trkpt lon="-4.349545" lat="42.261476"><ele>787.0</ele></trkpt>
   <trkpt lon="-4.349748" lat="42.261589"><ele>788.0</ele></trkpt>
   <trkpt lon="-4.350415" lat="42.262195"><ele>787.5</ele></trkpt>
   <trkpt lon="-4.350551" lat="42.262293"><ele>787.25</ele></trkpt>
   <trkpt lon="-4.350694" lat="42.262410"><ele>787.25</ele></trkpt>
   <trkpt lon="-4.350815" lat="42.262586"><ele>787.0</ele></trkpt>
   <trkpt lon="-4.350910" lat="42.262772"><ele>787.0</ele></trkpt>
   <trkpt lon="-4.350988" lat="42.262902"><ele>787.25</ele></trkpt>
   <trkpt lon="-4.351081" lat="42.262975"><ele>787.5</ele></trkpt>
   <trkpt lon="-4.351194" lat="42.263024"><ele>787.75</ele></trkpt>
   <trkpt lon="-4.353788" lat="42.261887"><ele>787.75</ele></trkpt>
   <trkpt lon="-4.357922" lat="42.259505"><ele>789.75</ele></trkpt>
   <trkpt lon="-4.358052" lat="42.259454"><ele>789.75</ele></trkpt>
   <trkpt lon="-4.358202" lat="42.259414"><ele>789.5</ele></trkpt>
   <trkpt lon="-4.358412" lat="42.259376"><ele>789.75</ele></trkpt>
   <trkpt lon="-4.358629" lat="42.259329"><ele>791.0</ele></trkpt>
   <trkpt lon="-4.360108" lat="42.259025"><ele>792.5</ele></trkpt>
   <trkpt lon="-4.360165" lat="42.259018"><ele>792.5</ele></trkpt>
   <trkpt lon="-4.360421" lat="42.258985"><ele>792.75</ele></trkpt>
   <trkpt lon="-4.361193" lat="42.258922"><ele>792.75</ele></trkpt>
   <trkpt lon="-4.361892" lat="42.258850"><ele>792.0</ele></trkpt>
   <trkpt lon="-4.362664" lat="42.258758"><ele>790.5</ele></trkpt>
   <trkpt lon="-4.363370" lat="42.258660"><ele>791.5</ele></trkpt>
   <trkpt lon="-4.363758" lat="42.258544"><ele>792.25</ele></trkpt>
   <trkpt lon="-4.363990" lat="42.258426"><ele>792.25</ele></trkpt>
   <trkpt lon="-4.364137" lat="42.258375"><ele>792.75</ele></trkpt>
   <trkpt lon="-4.364331" lat="42.258333"><ele>793.5</ele></trkpt>
   <trkpt lon="-4.364551" lat="42.258309"><ele>793.25</ele></trkpt>
   <trkpt lon="-4.364858" lat="42.258306"><ele>793.0</ele></trkpt>
   <trkpt lon="-4.369247" lat="42.258329"><ele>792.75</ele></trkpt>
   <trkpt lon="-4.372606" lat="42.258335"><ele>792.75</ele></trkpt>
   <trkpt lon="-4.372765" lat="42.258337"><ele>792.75</ele></trkpt>
   <trkpt lon="-4.374229" lat="42.258336"><ele>793.0</ele></trkpt>
   <trkpt lon="-4.375322" lat="42.258288"><ele>793.5</ele></trkpt>
   <trkpt lon="-4.375780" lat="42.258269"><ele>793.75</ele></trkpt>
   <trkpt lon="-4.376116" lat="42.258274"><ele>793.75</ele></trkpt>
   <trkpt lon="-4.376519" lat="42.258295"><ele>793.75</ele></trkpt>
   <trkpt lon="-4.377350" lat="42.258321"><ele>793.75</ele></trkpt>
   <trkpt lon="-4.379404" lat="42.258325"><ele>793.75</ele></trkpt>
   <trkpt lon="-4.380185" lat="42.258320"><ele>793.5</ele></trkpt>
   <trkpt lon="-4.380342" lat="42.258327"><ele>793.75</ele></trkpt>
   <trkpt lon="-4.380491" lat="42.258340"><ele>794.0</ele></trkpt>
   <trkpt lon="-4.380664" lat="42.258369"><ele>793.75</ele></trkpt>
   <trkpt lon="-4.380882" lat="42.258416"><ele>793.5</ele></trkpt>
   <trkpt lon="-4.381861" lat="42.258664"><ele>792.25</ele></trkpt>
   <trkpt lon="-4.385222" lat="42.259527"><ele>793.0</ele></trkpt>
   <trkpt lon="-4.385419" lat="42.259583"><ele>792.5</ele></trkpt>
   <trkpt lon="-4.385592" lat="42.259649"><ele>792.5</ele></trkpt>
   <trkpt lon="-4.385729" lat="42.259718"><ele>792.75</ele></trkpt>
   <trkpt lon="-4.385862" lat="42.259809"><ele>792.75</ele></trkpt>
   <trkpt lon="-4.386035" lat="42.259960"><ele>793.5</ele></trkpt>
   <trkpt lon="-4.386375" lat="42.260339"><ele>793.75</ele></trkpt>
   <trkpt lon="-4.388552" lat="42.262858"><ele>792.0</ele></trkpt>
   <trkpt lon="-4.388630" lat="42.262920"><ele>791.75</ele></trkpt>
   <trkpt lon="-4.388716" lat="42.262975"><ele>792.0</ele></trkpt>
   <trkpt lon="-4.388880" lat="42.263053"><ele>792.75</ele></trkpt>
   <trkpt lon="-4.389034" lat="42.263103"><ele>791.75</ele></trkpt>
   <trkpt lon="-4.389261" lat="42.263164"><ele>791.0</ele></trkpt>
   <trkpt lon="-4.391771" lat="42.263603"><ele>792.5</ele></trkpt>
   <trkpt lon="-4.392989" lat="42.263831"><ele>792.5</ele></trkpt>
   <trkpt lon="-4.393997" lat="42.263999"><ele>793.0</ele></trkpt>
   <trkpt lon="-4.395152" lat="42.264204"><ele>793.5</ele></trkpt>
   <trkpt lon="-4.396974" lat="42.264545"><ele>792.5</ele></trkpt>
   <trkpt lon="-4.397321" lat="42.264593"><ele>792.5</ele></trkpt>
   <trkpt lon="-4.397475" lat="42.264604"><ele>792.5</ele></trkpt>
   <trkpt lon="-4.397627" lat="42.264598"><ele>792.5</ele></trkpt>
   <trkpt lon="-4.397756" lat="42.264577"><ele>792.25</ele></trkpt>
   <trkpt lon="-4.397884" lat="42.264542"><ele>792.75</ele></trkpt>
   <trkpt lon="-4.397976" lat="42.264508"><ele>793.25</ele></trkpt>
   <trkpt lon="-4.398063" lat="42.264463"><ele>793.75</ele></trkpt>
   <trkpt lon="-4.398341" lat="42.264248"><ele>792.25</ele></trkpt>
   <trkpt lon="-4.398397" lat="42.264204"><ele>792.25</ele></trkpt>
   <trkpt lon="-4.398750" lat="42.263912"><ele>792.75</ele></trkpt>
   <trkpt lon="-4.398810" lat="42.263861"><ele>792.75</ele></trkpt>
   <trkpt lon="-4.398983" lat="42.263786"><ele>792.75</ele></trkpt>
   <trkpt lon="-4.399016" lat="42.263761"><ele>792.75</ele></trkpt>
   <trkpt lon="-4.399047" lat="42.263783"><ele>792.5</ele></trkpt>
   <trkpt lon="-4.399066" lat="42.263815"><ele>792.25</ele></trkpt>
   <trkpt lon="-4.399107" lat="42.263826"><ele>792.25</ele></trkpt>
   <trkpt lon="-4.399200" lat="42.263872"><ele>792.25</ele></trkpt>
   <trkpt lon="-4.399213" lat="42.263903"><ele>791.75</ele></trkpt>
   <trkpt lon="-4.399208" lat="42.263957"><ele>791.25</ele></trkpt>
   <trkpt lon="-4.399139" lat="42.264057"><ele>790.75</ele></trkpt>
   <trkpt lon="-4.399109" lat="42.264123"><ele>790.0</ele></trkpt>
   <trkpt lon="-4.399089" lat="42.264264"><ele>789.75</ele></trkpt>
   <trkpt lon="-4.399142" lat="42.264292"><ele>789.5</ele></trkpt>
   <trkpt lon="-4.399312" lat="42.264413"><ele>788.75</ele></trkpt>
   <trkpt lon="-4.399760" lat="42.264759"><ele>788.25</ele></trkpt>
   <trkpt lon="-4.399940" lat="42.264861"><ele>788.25</ele></trkpt>
   <trkpt lon="-4.399999" lat="42.264814"><ele>788.0</ele></trkpt>
   <trkpt lon="-4.400524" lat="42.265240"><ele>787.5</ele></trkpt>
   <trkpt lon="-4.400658" lat="42.265379"><ele>787.75</ele></trkpt>
   <trkpt lon="-4.400863" lat="42.265641"><ele>785.75</ele></trkpt>
   <trkpt lon="-4.401053" lat="42.265890"><ele>785.0</ele></trkpt>
   <trkpt lon="-4.401102" lat="42.265955"><ele>785.0</ele></trkpt>
   <trkpt lon="-4.401154" lat="42.266005"><ele>784.75</ele></trkpt>
   <trkpt lon="-4.401224" lat="42.266065"><ele>784.25</ele></trkpt>
   <trkpt lon="-4.401305" lat="42.266119"><ele>783.5</ele></trkpt>
   <trkpt lon="-4.401413" lat="42.266174"><ele>783.75</ele></trkpt>
   <trkpt lon="-4.401677" lat="42.266257"><ele>786.25</ele></trkpt>
   <trkpt lon="-4.401907" lat="42.266304"><ele>785.25</ele></trkpt>
   <trkpt lon="-4.402035" lat="42.266323"><ele>784.5</ele></trkpt>
   <trkpt lon="-4.402166" lat="42.266327"><ele>783.5</ele></trkpt>
   <trkpt lon="-4.402451" lat="42.266310"><ele>782.25</ele></trkpt>
   <trkpt lon="-4.403193" lat="42.266246"><ele>781.5</ele></trkpt>
   <trkpt lon="-4.403357" lat="42.266232"><ele>781.25</ele></trkpt>
   <trkpt lon="-4.404019" lat="42.266171"><ele>781.0</ele></trkpt>
   <trkpt lon="-4.405284" lat="42.266082"><ele>780.75</ele></trkpt>
   <trkpt lon="-4.405396" lat="42.266075"><ele>780.5</ele></trkpt>
   <trkpt lon="-4.406007" lat="42.266039"><ele>780.0</ele></trkpt>
   <trkpt lon="-4.406070" lat="42.266039"><ele>780.0</ele></trkpt>
   <trkpt lon="-4.405994" lat="42.266174"><ele>780.0</ele></trkpt>
   <trkpt lon="-4.405688" lat="42.266728"><ele>781.0</ele></trkpt>
   <trkpt lon="-4.405377" lat="42.267279"><ele>781.5</ele></trkpt>
   <trkpt lon="-4.405471" lat="42.267303"><ele>781.25</ele></trkpt>
   <trkpt lon="-4.405270" lat="42.267602"><ele>781.0</ele></trkpt>
   <trkpt lon="-4.405471" lat="42.267303"><ele>781.25</ele></trkpt>
   <trkpt lon="-4.405377" lat="42.267279"><ele>781.5</ele></trkpt>
   <trkpt lon="-4.405688" lat="42.266728"><ele>781.0</ele></trkpt>
   <trkpt lon="-4.405994" lat="42.266174"><ele>780.0</ele></trkpt>
   <trkpt lon="-4.406070" lat="42.266039"><ele>780.0</ele></trkpt>
   <trkpt lon="-4.406167" lat="42.266038"><ele>780.0</ele></trkpt>
   <trkpt lon="-4.406250" lat="42.266031"><ele>780.0</ele></trkpt>
   <trkpt lon="-4.406305" lat="42.266026"><ele>780.0</ele></trkpt>
   <trkpt lon="-4.406369" lat="42.266013"><ele>780.0</ele></trkpt>
   <trkpt lon="-4.406441" lat="42.265996"><ele>780.0</ele></trkpt>
   <trkpt lon="-4.406526" lat="42.265945"><ele>780.0</ele></trkpt>
   <trkpt lon="-4.406874" lat="42.265674"><ele>780.0</ele></trkpt>
   <trkpt lon="-4.406975" lat="42.265610"><ele>780.0</ele></trkpt>
   <trkpt lon="-4.407190" lat="42.265485"><ele>780.5</ele></trkpt>
   <trkpt lon="-4.407362" lat="42.265408"><ele>780.25</ele></trkpt>
   <trkpt lon="-4.407568" lat="42.265335"><ele>780.0</ele></trkpt>
   <trkpt lon="-4.407762" lat="42.265285"><ele>780.0</ele></trkpt>
   <trkpt lon="-4.408024" lat="42.265256"><ele>780.0</ele></trkpt>
   <trkpt lon="-4.408424" lat="42.265237"><ele>780.5</ele></trkpt>
   <trkpt lon="-4.409305" lat="42.265204"><ele>782.5</ele></trkpt>
   <trkpt lon="-4.410017" lat="42.265170"><ele>783.0</ele></trkpt>
   <trkpt lon="-4.411398" lat="42.265112"><ele>782.0</ele></trkpt>
   <trkpt lon="-4.411556" lat="42.265104"><ele>782.0</ele></trkpt>
   <trkpt lon="-4.412367" lat="42.265056"><ele>784.5</ele></trkpt>
   <trkpt lon="-4.412953" lat="42.265012"><ele>786.75</ele></trkpt>
   <trkpt lon="-4.413416" lat="42.264973"><ele>785.5</ele></trkpt>
   <trkpt lon="-4.413511" lat="42.264966"><ele>786.5</ele></trkpt>
   <trkpt lon="-4.413771" lat="42.264980"><ele>787.5</ele></trkpt>
   <trkpt lon="-4.413984" lat="42.265003"><ele>788.25</ele></trkpt>
   <trkpt lon="-4.414039" lat="42.265018"><ele>788.25</ele></trkpt>
   <trkpt lon="-4.414063" lat="42.265025"><ele>788.25</ele></trkpt>
   <trkpt lon="-4.414163" lat="42.265099"><ele>788.25</ele></trkpt>
   <trkpt lon="-4.414237" lat="42.265163"><ele>788.0</ele></trkpt>
   <trkpt lon="-4.414331" lat="42.265210"><ele>788.25</ele></trkpt>
   <trkpt lon="-4.414437" lat="42.265239"><ele>788.75</ele></trkpt>
   <trkpt lon="-4.414550" lat="42.265247"><ele>789.0</ele></trkpt>
   <trkpt lon="-4.414662" lat="42.265233"><ele>789.0</ele></trkpt>
   <trkpt lon="-4.414765" lat="42.265198"><ele>788.75</ele></trkpt>
   <trkpt lon="-4.414854" lat="42.265146"><ele>788.25</ele></trkpt>
   <trkpt lon="-4.414967" lat="42.265092"><ele>787.75</ele></trkpt>
   <trkpt lon="-4.415049" lat="42.265070"><ele>787.75</ele></trkpt>
   <trkpt lon="-4.415127" lat="42.265063"><ele>787.75</ele></trkpt>
   <trkpt lon="-4.415311" lat="42.265062"><ele>787.75</ele></trkpt>
   <trkpt lon="-4.415629" lat="42.265068"><ele>787.5</ele></trkpt>
   <trkpt lon="-4.415930" lat="42.265097"><ele>785.25</ele></trkpt>
   <trkpt lon="-4.416866" lat="42.265190"><ele>785.75</ele></trkpt>
   <trkpt lon="-4.417206" lat="42.265228"><ele>787.5</ele></trkpt>
   <trkpt lon="-4.417487" lat="42.265290"><ele>787.5</ele></trkpt>
   <trkpt lon="-4.417619" lat="42.265326"><ele>787.0</ele></trkpt>
   <trkpt lon="-4.417726" lat="42.265378"><ele>787.0</ele></trkpt>
   <trkpt lon="-4.417848" lat="42.265471"><ele>787.25</ele></trkpt>
   <trkpt lon="-4.417903" lat="42.265535"><ele>787.25</ele></trkpt>
   <trkpt lon="-4.417977" lat="42.265588"><ele>786.75</ele></trkpt>
   <trkpt lon="-4.418066" lat="42.265626"><ele>786.25</ele></trkpt>
   <trkpt lon="-4.418164" lat="42.265649"><ele>785.75</ele></trkpt>
   <trkpt lon="-4.418266" lat="42.265654"><ele>785.75</ele></trkpt>
   <trkpt lon="-4.418368" lat="42.265641"><ele>786.0</ele></trkpt>
   <trkpt lon="-4.418462" lat="42.265611"><ele>786.25</ele></trkpt>
   <trkpt lon="-4.418545" lat="42.265566"><ele>787.0</ele></trkpt>
   <trkpt lon="-4.418611" lat="42.265507"><ele>787.0</ele></trkpt>
   <trkpt lon="-4.418746" lat="42.265453"><ele>785.5</ele></trkpt>
   <trkpt lon="-4.418886" lat="42.265428"><ele>784.25</ele></trkpt>
   <trkpt lon="-4.419303" lat="42.265432"><ele>782.0</ele></trkpt>
   <trkpt lon="-4.421259" lat="42.265627"><ele>780.0</ele></trkpt>
   <trkpt lon="-4.421242" lat="42.265713"><ele>780.0</ele></trkpt>
   <trkpt lon="-4.423486" lat="42.265928"><ele>779.5</ele></trkpt>
   <trkpt lon="-4.426307" lat="42.266203"><ele>780.25</ele></trkpt>
   <trkpt lon="-4.428415" lat="42.266415"><ele>778.75</ele></trkpt>
   <trkpt lon="-4.430416" lat="42.266610"><ele>779.0</ele></trkpt>
   <trkpt lon="-4.430988" lat="42.266663"><ele>778.75</ele></trkpt>
   <trkpt lon="-4.434557" lat="42.267011"><ele>778.75</ele></trkpt>
   <trkpt lon="-4.436325" lat="42.267185"><ele>779.75</ele></trkpt>
   <trkpt lon="-4.438299" lat="42.267371"><ele>781.0</ele></trkpt>
   <trkpt lon="-4.439912" lat="42.267524"><ele>781.0</ele></trkpt>
   <trkpt lon="-4.440032" lat="42.267545"><ele>781.0</ele></trkpt>
   <trkpt lon="-4.440176" lat="42.267541"><ele>781.0</ele></trkpt>
   <trkpt lon="-4.440396" lat="42.267549"><ele>781.0</ele></trkpt>
   <trkpt lon="-4.440732" lat="42.267580"><ele>780.75</ele></trkpt>
   <trkpt lon="-4.441765" lat="42.267689"><ele>780.25</ele></trkpt>
   <trkpt lon="-4.442238" lat="42.267724"><ele>779.5</ele></trkpt>
   <trkpt lon="-4.442220" lat="42.267674"><ele>779.25</ele></trkpt>
   <trkpt lon="-4.443624" lat="42.267802"><ele>776.0</ele></trkpt>
   <trkpt lon="-4.443940" lat="42.267836"><ele>776.0</ele></trkpt>
   <trkpt lon="-4.444257" lat="42.267893"><ele>775.5</ele></trkpt>
   <trkpt lon="-4.444755" lat="42.268023"><ele>775.0</ele></trkpt>
   <trkpt lon="-4.445843" lat="42.268385"><ele>776.0</ele></trkpt>
   <trkpt lon="-4.445985" lat="42.268405"><ele>775.75</ele></trkpt>
   <trkpt lon="-4.446061" lat="42.268416"><ele>776.0</ele></trkpt>
   <trkpt lon="-4.446173" lat="42.268432"><ele>775.75</ele></trkpt>
   <trkpt lon="-4.446543" lat="42.268534"><ele>775.5</ele></trkpt>
   <trkpt lon="-4.447216" lat="42.268720"><ele>775.0</ele></trkpt>
   <trkpt lon="-4.447512" lat="42.268790"><ele>775.0</ele></trkpt>
   <trkpt lon="-4.447459" lat="42.268830"><ele>774.75</ele></trkpt>
   <trkpt lon="-4.447440" lat="42.268876"><ele>775.0</ele></trkpt>
   <trkpt lon="-4.447422" lat="42.268964"><ele>775.0</ele></trkpt>
   <trkpt lon="-4.447798" lat="42.269059"><ele>775.75</ele></trkpt>
   <trkpt lon="-4.448032" lat="42.269135"><ele>775.75</ele></trkpt>
   <trkpt lon="-4.448217" lat="42.269210"><ele>775.5</ele></trkpt>
   <trkpt lon="-4.448421" lat="42.269323"><ele>775.25</ele></trkpt>
   <trkpt lon="-4.448529" lat="42.269425"><ele>775.25</ele></trkpt>
   <trkpt lon="-4.448601" lat="42.269509"><ele>775.25</ele></trkpt>
   <trkpt lon="-4.448900" lat="42.269665"><ele>775.5</ele></trkpt>
   <trkpt lon="-4.449039" lat="42.269724"><ele>776.0</ele></trkpt>
   <trkpt lon="-4.449530" lat="42.270180"><ele>775.5</ele></trkpt>
   <trkpt lon="-4.449520" lat="42.270241"><ele>775.5</ele></trkpt>
   <trkpt lon="-4.449526" lat="42.270854"><ele>775.5</ele></trkpt>
   <trkpt lon="-4.449441" lat="42.271725"><ele>776.0</ele></trkpt>
   <trkpt lon="-4.449980" lat="42.272063"><ele>776.0</ele></trkpt>
   <trkpt lon="-4.452127" lat="42.273449"><ele>776.0</ele></trkpt>
   <trkpt lon="-4.461457" lat="42.279480"><ele>779.0</ele></trkpt>
   <trkpt lon="-4.462914" lat="42.280388"><ele>779.0</ele></trkpt>
   <trkpt lon="-4.463922" lat="42.281032"><ele>779.0</ele></trkpt>
   <trkpt lon="-4.466551" lat="42.282697"><ele>779.5</ele></trkpt>
   <trkpt lon="-4.470522" lat="42.285219"><ele>780.75</ele></trkpt>
   <trkpt lon="-4.472909" lat="42.286715"><ele>781.5</ele></trkpt>
   <trkpt lon="-4.473097" lat="42.286870"><ele>781.5</ele></trkpt>
   <trkpt lon="-4.473354" lat="42.287114"><ele>781.5</ele></trkpt>
   <trkpt lon="-4.474851" lat="42.287973"><ele>782.0</ele></trkpt>
   <trkpt lon="-4.475312" lat="42.288227"><ele>782.5</ele></trkpt>
   <trkpt lon="-4.475627" lat="42.288433"><ele>782.25</ele></trkpt>
   <trkpt lon="-4.475898" lat="42.288624"><ele>782.75</ele></trkpt>
   <trkpt lon="-4.477008" lat="42.289524"><ele>782.75</ele></trkpt>
   <trkpt lon="-4.477646" lat="42.290095"><ele>783.0</ele></trkpt>
   <trkpt lon="-4.478397" lat="42.290825"><ele>783.0</ele></trkpt>
   <trkpt lon="-4.478912" lat="42.291397"><ele>782.75</ele></trkpt>
   <trkpt lon="-4.479616" lat="42.292230"><ele>783.0</ele></trkpt>
   <trkpt lon="-4.479887" lat="42.292523"><ele>782.25</ele></trkpt>
   <trkpt lon="-4.480034" lat="42.292682"><ele>782.5</ele></trkpt>
   <trkpt lon="-4.480262" lat="42.292903"><ele>783.0</ele></trkpt>
   <trkpt lon="-4.480447" lat="42.293041"><ele>782.75</ele></trkpt>
   <trkpt lon="-4.480698" lat="42.293209"><ele>782.5</ele></trkpt>
   <trkpt lon="-4.480925" lat="42.293373"><ele>783.0</ele></trkpt>
   <trkpt lon="-4.481213" lat="42.293547"><ele>782.5</ele></trkpt>
   <trkpt lon="-4.481357" lat="42.293627"><ele>782.0</ele></trkpt>
   <trkpt lon="-4.481461" lat="42.293645"><ele>782.25</ele></trkpt>
   <trkpt lon="-4.481786" lat="42.293652"><ele>783.0</ele></trkpt>
   <trkpt lon="-4.482163" lat="42.293671"><ele>783.0</ele></trkpt>
   <trkpt lon="-4.482417" lat="42.293728"><ele>782.0</ele></trkpt>
   <trkpt lon="-4.483165" lat="42.293921"><ele>783.25</ele></trkpt>
   <trkpt lon="-4.483195" lat="42.293867"><ele>782.75</ele></trkpt>
   <trkpt lon="-4.483314" lat="42.293651"><ele>783.5</ele></trkpt>
   <trkpt lon="-4.483339" lat="42.293606"><ele>783.75</ele></trkpt>
   <trkpt lon="-4.483403" lat="42.293632"><ele>783.5</ele></trkpt>
   <trkpt lon="-4.483567" lat="42.293684"><ele>782.5</ele></trkpt>
   <trkpt lon="-4.484047" lat="42.293806"><ele>781.75</ele></trkpt>
   <trkpt lon="-4.484852" lat="42.293996"><ele>782.0</ele></trkpt>
   <trkpt lon="-4.485105" lat="42.294047"><ele>781.75</ele></trkpt>
   <trkpt lon="-4.485781" lat="42.294139"><ele>782.0</ele></trkpt>
   <trkpt lon="-4.486115" lat="42.294194"><ele>782.75</ele></trkpt>
   <trkpt lon="-4.486539" lat="42.294291"><ele>782.0</ele></trkpt>
   <trkpt lon="-4.486933" lat="42.294398"><ele>782.0</ele></trkpt>
   <trkpt lon="-4.487319" lat="42.294534"><ele>782.5</ele></trkpt>
   <trkpt lon="-4.487697" lat="42.294697"><ele>783.0</ele></trkpt>
   <trkpt lon="-4.488277" lat="42.294984"><ele>783.5</ele></trkpt>
   <trkpt lon="-4.489141" lat="42.295446"><ele>782.25</ele></trkpt>
   <trkpt lon="-4.489615" lat="42.295730"><ele>782.75</ele></trkpt>
   <trkpt lon="-4.491931" lat="42.297051"><ele>783.25</ele></trkpt>
   <trkpt lon="-4.492523" lat="42.297333"><ele>784.0</ele></trkpt>
   <trkpt lon="-4.492620" lat="42.297411"><ele>784.0</ele></trkpt>
   <trkpt lon="-4.492699" lat="42.297491"><ele>784.25</ele></trkpt>
   <trkpt lon="-4.493569" lat="42.298027"><ele>783.5</ele></trkpt>
   <trkpt lon="-4.494662" lat="42.298660"><ele>784.5</ele></trkpt>
   <trkpt lon="-4.494980" lat="42.298812"><ele>784.0</ele></trkpt>
   <trkpt lon="-4.496367" lat="42.299578"><ele>784.25</ele></trkpt>
   <trkpt lon="-4.496646" lat="42.299726"><ele>785.75</ele></trkpt>
   <trkpt lon="-4.496842" lat="42.299831"><ele>785.75</ele></trkpt>
   <trkpt lon="-4.496936" lat="42.299763"><ele>785.75</ele></trkpt>
   <trkpt lon="-4.497121" lat="42.299660"><ele>784.5</ele></trkpt>
   <trkpt lon="-4.497251" lat="42.299600"><ele>784.0</ele></trkpt>
   <trkpt lon="-4.497343" lat="42.299557"><ele>784.25</ele></trkpt>
   <trkpt lon="-4.497823" lat="42.299364"><ele>785.0</ele></trkpt>
   <trkpt lon="-4.498413" lat="42.299063"><ele>786.5</ele></trkpt>
   <trkpt lon="-4.498627" lat="42.298856"><ele>787.25</ele></trkpt>
   <trkpt lon="-4.498804" lat="42.298620"><ele>788.25</ele></trkpt>
   <trkpt lon="-4.498852" lat="42.298555"><ele>788.25</ele></trkpt>
   <trkpt lon="-4.498990" lat="42.298401"><ele>789.0</ele></trkpt>
   <trkpt lon="-4.499184" lat="42.298144"><ele>789.25</ele></trkpt>
   <trkpt lon="-4.499779" lat="42.298504"><ele>789.5</ele></trkpt>
   <trkpt lon="-4.500138" lat="42.298218"><ele>789.5</ele></trkpt>
   <trkpt lon="-4.500176" lat="42.298237"><ele>789.5</ele></trkpt>
   <trkpt lon="-4.500588" lat="42.298448"><ele>789.0</ele></trkpt>
   <trkpt lon="-4.500753" lat="42.298525"><ele>789.0</ele></trkpt>
   <trkpt lon="-4.500919" lat="42.298607"><ele>789.0</ele></trkpt>
   <trkpt lon="-4.501117" lat="42.298705"><ele>789.0</ele></trkpt>
   <trkpt lon="-4.501072" lat="42.298761"><ele>788.75</ele></trkpt>
   <trkpt lon="-4.501727" lat="42.299075"><ele>789.0</ele></trkpt>
   <trkpt lon="-4.502627" lat="42.299473"><ele>789.25</ele></trkpt>
   <trkpt lon="-4.506033" lat="42.300920"><ele>788.5</ele></trkpt>
   <trkpt lon="-4.508890" lat="42.302127"><ele>789.0</ele></trkpt>
   <trkpt lon="-4.512226" lat="42.303518"><ele>792.5</ele></trkpt>
   <trkpt lon="-4.512661" lat="42.303711"><ele>793.25</ele></trkpt>
   <trkpt lon="-4.514264" lat="42.304376"><ele>796.0</ele></trkpt>
   <trkpt lon="-4.517450" lat="42.305721"><ele>797.25</ele></trkpt>
   <trkpt lon="-4.519910" lat="42.306776"><ele>798.75</ele></trkpt>
   <trkpt lon="-4.520853" lat="42.307151"><ele>799.5</ele></trkpt>
   <trkpt lon="-4.524707" lat="42.308762"><ele>801.0</ele></trkpt>
   <trkpt lon="-4.525209" lat="42.308984"><ele>799.25</ele></trkpt>
   <trkpt lon="-4.528438" lat="42.310341"><ele>801.0</ele></trkpt>
   <trkpt lon="-4.529405" lat="42.310738"><ele>803.5</ele></trkpt>
   <trkpt lon="-4.531348" lat="42.311566"><ele>803.5</ele></trkpt>
   <trkpt lon="-4.532276" lat="42.311939"><ele>803.5</ele></trkpt>
   <trkpt lon="-4.532828" lat="42.312118"><ele>803.0</ele></trkpt>
   <trkpt lon="-4.533576" lat="42.312340"><ele>801.5</ele></trkpt>
   <trkpt lon="-4.534276" lat="42.312559"><ele>800.5</ele></trkpt>
   <trkpt lon="-4.535344" lat="42.312881"><ele>800.5</ele></trkpt>
   <trkpt lon="-4.541879" lat="42.314850"><ele>800.75</ele></trkpt>
   <trkpt lon="-4.542014" lat="42.314903"><ele>801.0</ele></trkpt>
   <trkpt lon="-4.542145" lat="42.314976"><ele>801.0</ele></trkpt>
   <trkpt lon="-4.542238" lat="42.315056"><ele>800.75</ele></trkpt>
   <trkpt lon="-4.542288" lat="42.315132"><ele>800.5</ele></trkpt>
   <trkpt lon="-4.542303" lat="42.315174"><ele>800.5</ele></trkpt>
   <trkpt lon="-4.542325" lat="42.315313"><ele>800.25</ele></trkpt>
   <trkpt lon="-4.542414" lat="42.315210"><ele>800.75</ele></trkpt>
   <trkpt lon="-4.542479" lat="42.315155"><ele>800.75</ele></trkpt>
   <trkpt lon="-4.542557" lat="42.315106"><ele>801.0</ele></trkpt>
   <trkpt lon="-4.542620" lat="42.315093"><ele>801.0</ele></trkpt>
   <trkpt lon="-4.542729" lat="42.315078"><ele>801.0</ele></trkpt>
   <trkpt lon="-4.542809" lat="42.315078"><ele>801.0</ele></trkpt>
   <trkpt lon="-4.542980" lat="42.315100"><ele>801.0</ele></trkpt>
   <trkpt lon="-4.543226" lat="42.315175"><ele>801.0</ele></trkpt>
   <trkpt lon="-4.543325" lat="42.315205"><ele>801.0</ele></trkpt>
   <trkpt lon="-4.544705" lat="42.315612"><ele>801.0</ele></trkpt>
   <trkpt lon="-4.545358" lat="42.315818"><ele>801.75</ele></trkpt>
   <trkpt lon="-4.545992" lat="42.316012"><ele>802.25</ele></trkpt>
   <trkpt lon="-4.546272" lat="42.316099"><ele>802.75</ele></trkpt>
   <trkpt lon="-4.546357" lat="42.316126"><ele>803.0</ele></trkpt>
   <trkpt lon="-4.546349" lat="42.316183"><ele>803.0</ele></trkpt>
   <trkpt lon="-4.546448" lat="42.316218"><ele>803.25</ele></trkpt>
   <trkpt lon="-4.547580" lat="42.316584"><ele>807.5</ele></trkpt>
   <trkpt lon="-4.548297" lat="42.316804"><ele>807.5</ele></trkpt>
   <trkpt lon="-4.552292" lat="42.318045"><ele>813.25</ele></trkpt>
   <trkpt lon="-4.555830" lat="42.319128"><ele>815.75</ele></trkpt>
   <trkpt lon="-4.557908" lat="42.319752"><ele>819.0</ele></trkpt>
   <trkpt lon="-4.559195" lat="42.320153"><ele>823.0</ele></trkpt>
   <trkpt lon="-4.563232" lat="42.321385"><ele>825.75</ele></trkpt>
   <trkpt lon="-4.565978" lat="42.322224"><ele>833.5</ele></trkpt>
   <trkpt lon="-4.566756" lat="42.322496"><ele>836.25</ele></trkpt>
   <trkpt lon="-4.568062" lat="42.323054"><ele>841.75</ele></trkpt>
   <trkpt lon="-4.569447" lat="42.323623"><ele>844.0</ele></trkpt>
   <trkpt lon="-4.570517" lat="42.324088"><ele>847.75</ele></trkpt>
   <trkpt lon="-4.571102" lat="42.324368"><ele>848.25</ele></trkpt>
   <trkpt lon="-4.571617" lat="42.324627"><ele>845.25</ele></trkpt>
   <trkpt lon="-4.572116" lat="42.324896"><ele>843.75</ele></trkpt>
   <trkpt lon="-4.573014" lat="42.325363"><ele>845.25</ele></trkpt>
   <trkpt lon="-4.573488" lat="42.325617"><ele>844.75</ele></trkpt>
   <trkpt lon="-4.576871" lat="42.327351"><ele>850.0</ele></trkpt>
   <trkpt lon="-4.577959" lat="42.327917"><ele>849.25</ele></trkpt>
   <trkpt lon="-4.590947" lat="42.334605"><ele>825.0</ele></trkpt>
   <trkpt lon="-4.591927" lat="42.335099"><ele>824.5</ele></trkpt>
   <trkpt lon="-4.595145" lat="42.336753"><ele>824.0</ele></trkpt>
   <trkpt lon="-4.595847" lat="42.337180"><ele>824.0</ele></trkpt>
   <trkpt lon="-4.596017" lat="42.337302"><ele>824.25</ele></trkpt>
   <trkpt lon="-4.596068" lat="42.337281"><ele>824.0</ele></trkpt>
   <trkpt lon="-4.596305" lat="42.337442"><ele>824.75</ele></trkpt>
   <trkpt lon="-4.596360" lat="42.337419"><ele>824.5</ele></trkpt>
   <trkpt lon="-4.596655" lat="42.337409"><ele>824.25</ele></trkpt>
   <trkpt lon="-4.597462" lat="42.337408"><ele>825.0</ele></trkpt>
   <trkpt lon="-4.597504" lat="42.337408"><ele>825.0</ele></trkpt>
   <trkpt lon="-4.597738" lat="42.337411"><ele>825.5</ele></trkpt>
   <trkpt lon="-4.598452" lat="42.337418"><ele>825.75</ele></trkpt>
   <trkpt lon="-4.599268" lat="42.337417"><ele>826.0</ele></trkpt>
   <trkpt lon="-4.599388" lat="42.337413"><ele>826.0</ele></trkpt>
   <trkpt lon="-4.600057" lat="42.337320"><ele>826.0</ele></trkpt>
   <trkpt lon="-4.600796" lat="42.337232"><ele>826.75</ele></trkpt>
   <trkpt lon="-4.600911" lat="42.337218"><ele>827.25</ele></trkpt>
   <trkpt lon="-4.600990" lat="42.337178"><ele>827.5</ele></trkpt>
   <trkpt lon="-4.601150" lat="42.337151"><ele>828.0</ele></trkpt>
   <trkpt lon="-4.601300" lat="42.337160"><ele>828.25</ele></trkpt>
   <trkpt lon="-4.601918" lat="42.337262"><ele>829.75</ele></trkpt>
   <trkpt lon="-4.602218" lat="42.337303"><ele>830.0</ele></trkpt>
   <trkpt lon="-4.602399" lat="42.337327"><ele>830.0</ele></trkpt>
   <trkpt lon="-4.602712" lat="42.337408"><ele>830.0</ele></trkpt>
   <trkpt lon="-4.602746" lat="42.337416"><ele>830.0</ele></trkpt>
   <trkpt lon="-4.603199" lat="42.337524"><ele>830.0</ele></trkpt>
   <trkpt lon="-4.603412" lat="42.337600"><ele>830.25</ele></trkpt>
   <trkpt lon="-4.603561" lat="42.337680"><ele>830.0</ele></trkpt>
   <trkpt lon="-4.603631" lat="42.337739"><ele>830.0</ele></trkpt>
   <trkpt lon="-4.603661" lat="42.337810"><ele>829.75</ele></trkpt>
   <trkpt lon="-4.603683" lat="42.337909"><ele>829.75</ele></trkpt>
   <trkpt lon="-4.603686" lat="42.338018"><ele>829.75</ele></trkpt>
   <trkpt lon="-4.603682" lat="42.338059"><ele>829.75</ele></trkpt>
   <trkpt lon="-4.603675" lat="42.338131"><ele>830.0</ele></trkpt>
   <trkpt lon="-4.603699" lat="42.338451"><ele>830.75</ele></trkpt>
   <trkpt lon="-4.603709" lat="42.338810"><ele>831.75</ele></trkpt>
   <trkpt lon="-4.603720" lat="42.338888"><ele>831.75</ele></trkpt>
   <trkpt lon="-4.603749" lat="42.338963"><ele>832.0</ele></trkpt>
   <trkpt lon="-4.603846" lat="42.339197"><ele>832.0</ele></trkpt>
   <trkpt lon="-4.603942" lat="42.339469"><ele>834.0</ele></trkpt>
   <trkpt lon="-4.604014" lat="42.339742"><ele>835.0</ele></trkpt>
   <trkpt lon="-4.604092" lat="42.339881"><ele>835.0</ele></trkpt>
   <trkpt lon="-4.604150" lat="42.339998"><ele>835.0</ele></trkpt>
   <trkpt lon="-4.604193" lat="42.339966"><ele>835.0</ele></trkpt>
   <trkpt lon="-4.604528" lat="42.339694"><ele>835.25</ele></trkpt>
   <trkpt lon="-4.604674" lat="42.339633"><ele>835.5</ele></trkpt>
   <trkpt lon="-4.604841" lat="42.339563"><ele>835.5</ele></trkpt>
   <trkpt lon="-4.604914" lat="42.339544"><ele>835.5</ele></trkpt>
   <trkpt lon="-4.605080" lat="42.339502"><ele>835.0</ele></trkpt>
   <trkpt lon="-4.605594" lat="42.339391"><ele>833.5</ele></trkpt>
   <trkpt lon="-4.605867" lat="42.339364"><ele>832.75</ele></trkpt>
   <trkpt lon="-4.605996" lat="42.339379"><ele>831.25</ele></trkpt>
   <trkpt lon="-4.606096" lat="42.339412"><ele>830.0</ele></trkpt>
   <trkpt lon="-4.606402" lat="42.339568"><ele>828.5</ele></trkpt>
   <trkpt lon="-4.606575" lat="42.339628"><ele>825.0</ele></trkpt>
   <trkpt lon="-4.606706" lat="42.339664"><ele>822.75</ele></trkpt>
   <trkpt lon="-4.606739" lat="42.339668"><ele>822.0</ele></trkpt>
   <trkpt lon="-4.608225" lat="42.339594"><ele>818.5</ele></trkpt>
   <trkpt lon="-4.608271" lat="42.339596"><ele>818.75</ele></trkpt>
   <trkpt lon="-4.608341" lat="42.339608"><ele>819.0</ele></trkpt>
   <trkpt lon="-4.608437" lat="42.339647"><ele>819.25</ele></trkpt>
   <trkpt lon="-4.608634" lat="42.339743"><ele>819.75</ele></trkpt>
   <trkpt lon="-4.609888" lat="42.340459"><ele>819.5</ele></trkpt>
   <trkpt lon="-4.610192" lat="42.340634"><ele>819.75</ele></trkpt>
   <trkpt lon="-4.610373" lat="42.340695"><ele>820.0</ele></trkpt>
   <trkpt lon="-4.610644" lat="42.340734"><ele>820.5</ele></trkpt>
   <trkpt lon="-4.612008" lat="42.340713"><ele>822.0</ele></trkpt>
   <trkpt lon="-4.612265" lat="42.340718"><ele>821.75</ele></trkpt>
   <trkpt lon="-4.612626" lat="42.340733"><ele>821.0</ele></trkpt>
   <trkpt lon="-4.612839" lat="42.340757"><ele>821.0</ele></trkpt>
   <trkpt lon="-4.612970" lat="42.340781"><ele>821.0</ele></trkpt>
   <trkpt lon="-4.613078" lat="42.340824"><ele>821.0</ele></trkpt>
   <trkpt lon="-4.613155" lat="42.340864"><ele>821.25</ele></trkpt>
   <trkpt lon="-4.613193" lat="42.340902"><ele>821.25</ele></trkpt>
   <trkpt lon="-4.613239" lat="42.340934"><ele>821.25</ele></trkpt>
   <trkpt lon="-4.613292" lat="42.340959"><ele>821.25</ele></trkpt>
   <trkpt lon="-4.613352" lat="42.340976"><ele>821.5</ele></trkpt>
   <trkpt lon="-4.613430" lat="42.340984"><ele>821.5</ele></trkpt>
   <trkpt lon="-4.613509" lat="42.340980"><ele>821.75</ele></trkpt>
   <trkpt lon="-4.613585" lat="42.340961"><ele>821.75</ele></trkpt>
   <trkpt lon="-4.613652" lat="42.340930"><ele>822.0</ele></trkpt>
   <trkpt lon="-4.613701" lat="42.340889"><ele>821.75</ele></trkpt>
   <trkpt lon="-4.613726" lat="42.340869"><ele>822.0</ele></trkpt>
   <trkpt lon="-4.613764" lat="42.340800"><ele>821.75</ele></trkpt>
   <trkpt lon="-4.613773" lat="42.340716"><ele>821.5</ele></trkpt>
   <trkpt lon="-4.613739" lat="42.340633"><ele>821.25</ele></trkpt>
   <trkpt lon="-4.613796" lat="42.340537"><ele>821.0</ele></trkpt>
   <trkpt lon="-4.613810" lat="42.340475"><ele>821.0</ele></trkpt>
   <trkpt lon="-4.613796" lat="42.340419"><ele>821.0</ele></trkpt>
   <trkpt lon="-4.613781" lat="42.340364"><ele>821.0</ele></trkpt>
   <trkpt lon="-4.613736" lat="42.340314"><ele>821.0</ele></trkpt>
   <trkpt lon="-4.613498" lat="42.340125"><ele>821.0</ele></trkpt>
   <trkpt lon="-4.613431" lat="42.340050"><ele>821.0</ele></trkpt>
   <trkpt lon="-4.613396" lat="42.339996"><ele>821.0</ele></trkpt>
   <trkpt lon="-4.613330" lat="42.339831"><ele>821.0</ele></trkpt>
   <trkpt lon="-4.613000" lat="42.338324"><ele>820.75</ele></trkpt>
   <trkpt lon="-4.613009" lat="42.338186"><ele>820.75</ele></trkpt>
   <trkpt lon="-4.613074" lat="42.338044"><ele>820.75</ele></trkpt>
   <trkpt lon="-4.613146" lat="42.337975"><ele>820.25</ele></trkpt>
   <trkpt lon="-4.612906" lat="42.337807"><ele>820.5</ele></trkpt>
   <trkpt lon="-4.612845" lat="42.337719"><ele>820.5</ele></trkpt>
   <trkpt lon="-4.612787" lat="42.337404"><ele>820.0</ele></trkpt>
   <trkpt lon="-4.612690" lat="42.337169"><ele>819.75</ele></trkpt>
   <trkpt lon="-4.612622" lat="42.336537"><ele>819.25</ele></trkpt>
   <trkpt lon="-4.612438" lat="42.335556"><ele>819.0</ele></trkpt>
   <trkpt lon="-4.612345" lat="42.335191"><ele>819.0</ele></trkpt>
   <trkpt lon="-4.612356" lat="42.334870"><ele>819.5</ele></trkpt>
   <trkpt lon="-4.612539" lat="42.334407"><ele>819.0</ele></trkpt>
   <trkpt lon="-4.613150" lat="42.333519"><ele>818.5</ele></trkpt>
   <trkpt lon="-4.613287" lat="42.333293"><ele>818.75</ele></trkpt>
   <trkpt lon="-4.613672" lat="42.332926"><ele>818.75</ele></trkpt>
   <trkpt lon="-4.613830" lat="42.332711"><ele>818.0</ele></trkpt>
   <trkpt lon="-4.614078" lat="42.332185"><ele>818.0</ele></trkpt>
   <trkpt lon="-4.614120" lat="42.331741"><ele>818.75</ele></trkpt>
   <trkpt lon="-4.614129" lat="42.331656"><ele>818.75</ele></trkpt>
   <trkpt lon="-4.614120" lat="42.331741"><ele>818.75</ele></trkpt>
   <trkpt lon="-4.614078" lat="42.332185"><ele>818.0</ele></trkpt>
   <trkpt lon="-4.613830" lat="42.332711"><ele>818.0</ele></trkpt>
   <trkpt lon="-4.613672" lat="42.332926"><ele>818.75</ele></trkpt>
   <trkpt lon="-4.613287" lat="42.333293"><ele>818.75</ele></trkpt>
   <trkpt lon="-4.613150" lat="42.333519"><ele>818.5</ele></trkpt>
   <trkpt lon="-4.612539" lat="42.334407"><ele>819.0</ele></trkpt>
   <trkpt lon="-4.612356" lat="42.334870"><ele>819.5</ele></trkpt>
   <trkpt lon="-4.612345" lat="42.335191"><ele>819.0</ele></trkpt>
   <trkpt lon="-4.612438" lat="42.335556"><ele>819.0</ele></trkpt>
   <trkpt lon="-4.612622" lat="42.336537"><ele>819.25</ele></trkpt>
   <trkpt lon="-4.612690" lat="42.337169"><ele>819.75</ele></trkpt>
   <trkpt lon="-4.612787" lat="42.337404"><ele>820.0</ele></trkpt>
   <trkpt lon="-4.612845" lat="42.337719"><ele>820.5</ele></trkpt>
   <trkpt lon="-4.612906" lat="42.337807"><ele>820.5</ele></trkpt>
   <trkpt lon="-4.613146" lat="42.337975"><ele>820.25</ele></trkpt>
   <trkpt lon="-4.613074" lat="42.338044"><ele>820.75</ele></trkpt>
   <trkpt lon="-4.613009" lat="42.338186"><ele>820.75</ele></trkpt>
   <trkpt lon="-4.613000" lat="42.338324"><ele>820.75</ele></trkpt>
   <trkpt lon="-4.613330" lat="42.339831"><ele>821.0</ele></trkpt>
   <trkpt lon="-4.613396" lat="42.339996"><ele>821.0</ele></trkpt>
   <trkpt lon="-4.613431" lat="42.340050"><ele>821.0</ele></trkpt>
   <trkpt lon="-4.613498" lat="42.340125"><ele>821.0</ele></trkpt>
   <trkpt lon="-4.613736" lat="42.340314"><ele>821.0</ele></trkpt>
   <trkpt lon="-4.613781" lat="42.340364"><ele>821.0</ele></trkpt>
   <trkpt lon="-4.613796" lat="42.340419"><ele>821.0</ele></trkpt>
   <trkpt lon="-4.613754" lat="42.340474"><ele>821.0</ele></trkpt>
   <trkpt lon="-4.613694" lat="42.340505"><ele>821.0</ele></trkpt>
   <trkpt lon="-4.613618" lat="42.340531"><ele>821.0</ele></trkpt>
   <trkpt lon="-4.613531" lat="42.340502"><ele>821.0</ele></trkpt>
   <trkpt lon="-4.613435" lat="42.340493"><ele>821.25</ele></trkpt>
   <trkpt lon="-4.613340" lat="42.340505"><ele>821.75</ele></trkpt>
   <trkpt lon="-4.613253" lat="42.340536"><ele>821.5</ele></trkpt>
   <trkpt lon="-4.613183" lat="42.340585"><ele>821.25</ele></trkpt>
   <trkpt lon="-4.613130" lat="42.340653"><ele>821.25</ele></trkpt>
   <trkpt lon="-4.613110" lat="42.340724"><ele>821.0</ele></trkpt>
   <trkpt lon="-4.613118" lat="42.340796"><ele>821.0</ele></trkpt>
   <trkpt lon="-4.613155" lat="42.340864"><ele>821.25</ele></trkpt>
   <trkpt lon="-4.613193" lat="42.340902"><ele>821.25</ele></trkpt>
   <trkpt lon="-4.613239" lat="42.340934"><ele>821.25</ele></trkpt>
   <trkpt lon="-4.613292" lat="42.340959"><ele>821.25</ele></trkpt>
   <trkpt lon="-4.613352" lat="42.340976"><ele>821.5</ele></trkpt>
   <trkpt lon="-4.613430" lat="42.340984"><ele>821.5</ele></trkpt>
   <trkpt lon="-4.613509" lat="42.340980"><ele>821.75</ele></trkpt>
   <trkpt lon="-4.613585" lat="42.340961"><ele>821.75</ele></trkpt>
   <trkpt lon="-4.613652" lat="42.340930"><ele>822.0</ele></trkpt>
   <trkpt lon="-4.613701" lat="42.340889"><ele>821.75</ele></trkpt>
   <trkpt lon="-4.613726" lat="42.340869"><ele>822.0</ele></trkpt>
   <trkpt lon="-4.613895" lat="42.340858"><ele>822.0</ele></trkpt>
   <trkpt lon="-4.614094" lat="42.340860"><ele>822.0</ele></trkpt>
   <trkpt lon="-4.614284" lat="42.340863"><ele>822.0</ele></trkpt>
   <trkpt lon="-4.614554" lat="42.340888"><ele>821.75</ele></trkpt>
   <trkpt lon="-4.614991" lat="42.340929"><ele>821.0</ele></trkpt>
   <trkpt lon="-4.615199" lat="42.340943"><ele>821.5</ele></trkpt>
   <trkpt lon="-4.615365" lat="42.340954"><ele>821.75</ele></trkpt>
   <trkpt lon="-4.615515" lat="42.340963"><ele>821.5</ele></trkpt>
   <trkpt lon="-4.616182" lat="42.341002"><ele>821.5</ele></trkpt>
   <trkpt lon="-4.616564" lat="42.341017"><ele>821.75</ele></trkpt>
   <trkpt lon="-4.616920" lat="42.341036"><ele>821.75</ele></trkpt>
   <trkpt lon="-4.617073" lat="42.341042"><ele>821.75</ele></trkpt>
   <trkpt lon="-4.617351" lat="42.341055"><ele>821.75</ele></trkpt>
   <trkpt lon="-4.617617" lat="42.341066"><ele>822.0</ele></trkpt>
   <trkpt lon="-4.619226" lat="42.341148"><ele>821.75</ele></trkpt>
   <trkpt lon="-4.621090" lat="42.341333"><ele>822.0</ele></trkpt>
   <trkpt lon="-4.621147" lat="42.341331"><ele>822.0</ele></trkpt>
   <trkpt lon="-4.621220" lat="42.341318"><ele>822.0</ele></trkpt>
   <trkpt lon="-4.621436" lat="42.341268"><ele>822.0</ele></trkpt>
   <trkpt lon="-4.621524" lat="42.341264"><ele>822.0</ele></trkpt>
   <trkpt lon="-4.621677" lat="42.341249"><ele>822.0</ele></trkpt>
   <trkpt lon="-4.621738" lat="42.341258"><ele>822.0</ele></trkpt>
   <trkpt lon="-4.621813" lat="42.341276"><ele>822.25</ele></trkpt>
   <trkpt lon="-4.621884" lat="42.341301"><ele>822.5</ele></trkpt>
   <trkpt lon="-4.621938" lat="42.341330"><ele>822.75</ele></trkpt>
   <trkpt lon="-4.621944" lat="42.341341"><ele>822.75</ele></trkpt>
   <trkpt lon="-4.621973" lat="42.341374"><ele>822.75</ele></trkpt>
   <trkpt lon="-4.622025" lat="42.341400"><ele>822.5</ele></trkpt>
   <trkpt lon="-4.622161" lat="42.341435"><ele>822.25</ele></trkpt>
   <trkpt lon="-4.622227" lat="42.341453"><ele>822.0</ele></trkpt>
   <trkpt lon="-4.622322" lat="42.341465"><ele>822.0</ele></trkpt>
   <trkpt lon="-4.622431" lat="42.341467"><ele>822.0</ele></trkpt>
   <trkpt lon="-4.622478" lat="42.341455"><ele>822.0</ele></trkpt>
   <trkpt lon="-4.622545" lat="42.341460"><ele>822.0</ele></trkpt>
   <trkpt lon="-4.623374" lat="42.341519"><ele>823.0</ele></trkpt>
   <trkpt lon="-4.625240" lat="42.341669"><ele>823.0</ele></trkpt>
   <trkpt lon="-4.626491" lat="42.341781"><ele>823.5</ele></trkpt>
   <trkpt lon="-4.629653" lat="42.342121"><ele>824.0</ele></trkpt>
   <trkpt lon="-4.631826" lat="42.342313"><ele>824.25</ele></trkpt>
   <trkpt lon="-4.632892" lat="42.342401"><ele>824.25</ele></trkpt>
   <trkpt lon="-4.632950" lat="42.342406"><ele>824.25</ele></trkpt>
   <trkpt lon="-4.633223" lat="42.342432"><ele>824.0</ele></trkpt>
   <trkpt lon="-4.633421" lat="42.342450"><ele>824.0</ele></trkpt>
   <trkpt lon="-4.637564" lat="42.342826"><ele>824.75</ele></trkpt>
   <trkpt lon="-4.642025" lat="42.343173"><ele>825.5</ele></trkpt>
   <trkpt lon="-4.644084" lat="42.343327"><ele>826.0</ele></trkpt>
   <trkpt lon="-4.646364" lat="42.343499"><ele>826.0</ele></trkpt>
   <trkpt lon="-4.650385" lat="42.343782"><ele>826.0</ele></trkpt>
   <trkpt lon="-4.651593" lat="42.343882"><ele>826.75</ele></trkpt>
   <trkpt lon="-4.652524" lat="42.343985"><ele>827.25</ele></trkpt>
   <trkpt lon="-4.653147" lat="42.344088"><ele>827.0</ele></trkpt>
   <trkpt lon="-4.653568" lat="42.344177"><ele>827.0</ele></trkpt>
   <trkpt lon="-4.655753" lat="42.344735"><ele>827.25</ele></trkpt>
   <trkpt lon="-4.656926" lat="42.345022"><ele>827.75</ele></trkpt>
   <trkpt lon="-4.657258" lat="42.345069"><ele>827.0</ele></trkpt>
   <trkpt lon="-4.657432" lat="42.345087"><ele>827.0</ele></trkpt>
   <trkpt lon="-4.657689" lat="42.345092"><ele>827.0</ele></trkpt>
   <trkpt lon="-4.657931" lat="42.345079"><ele>827.0</ele></trkpt>
   <trkpt lon="-4.658178" lat="42.345049"><ele>827.5</ele></trkpt>
   <trkpt lon="-4.658387" lat="42.345001"><ele>828.0</ele></trkpt>
   <trkpt lon="-4.658519" lat="42.344964"><ele>828.5</ele></trkpt>
   <trkpt lon="-4.658796" lat="42.344867"><ele>828.75</ele></trkpt>
   <trkpt lon="-4.658952" lat="42.344790"><ele>829.0</ele></trkpt>
   <trkpt lon="-4.659041" lat="42.344747"><ele>829.25</ele></trkpt>
   <trkpt lon="-4.659204" lat="42.344669"><ele>829.5</ele></trkpt>
   <trkpt lon="-4.659639" lat="42.344454"><ele>828.75</ele></trkpt>
   <trkpt lon="-4.659860" lat="42.344368"><ele>829.0</ele></trkpt>
   <trkpt lon="-4.659969" lat="42.344338"><ele>829.0</ele></trkpt>
   <trkpt lon="-4.660024" lat="42.344322"><ele>829.0</ele></trkpt>
   <trkpt lon="-4.660194" lat="42.344298"><ele>829.25</ele></trkpt>
   <trkpt lon="-4.660428" lat="42.344277"><ele>829.25</ele></trkpt>
   <trkpt lon="-4.665240" lat="42.344180"><ele>830.75</ele></trkpt>
   <trkpt lon="-4.666058" lat="42.344169"><ele>830.75</ele></trkpt>
   <trkpt lon="-4.666135" lat="42.344152"><ele>830.75</ele></trkpt>
   <trkpt lon="-4.666453" lat="42.344144"><ele>831.0</ele></trkpt>
   <trkpt lon="-4.667309" lat="42.344079"><ele>831.0</ele></trkpt>
   <trkpt lon="-4.671112" lat="42.343816"><ele>832.0</ele></trkpt>
   <trkpt lon="-4.676678" lat="42.343277"><ele>833.0</ele></trkpt>
   <trkpt lon="-4.677777" lat="42.343163"><ele>833.0</ele></trkpt>
   <trkpt lon="-4.679346" lat="42.343019"><ele>833.25</ele></trkpt>
   <trkpt lon="-4.681495" lat="42.342806"><ele>833.5</ele></trkpt>
   <trkpt lon="-4.684936" lat="42.342412"><ele>834.0</ele></trkpt>
   <trkpt lon="-4.686205" lat="42.342284"><ele>834.5</ele></trkpt>
   <trkpt lon="-4.687834" lat="42.342096"><ele>835.0</ele></trkpt>
   <trkpt lon="-4.690501" lat="42.341825"><ele>835.0</ele></trkpt>
   <trkpt lon="-4.691496" lat="42.341701"><ele>835.25</ele></trkpt>
   <trkpt lon="-4.692597" lat="42.341578"><ele>835.0</ele></trkpt>
   <trkpt lon="-4.692829" lat="42.341519"><ele>835.0</ele></trkpt>
   <trkpt lon="-4.692926" lat="42.341509"><ele>835.0</ele></trkpt>
   <trkpt lon="-4.693302" lat="42.341489"><ele>835.0</ele></trkpt>
   <trkpt lon="-4.693999" lat="42.341413"><ele>835.75</ele></trkpt>
   <trkpt lon="-4.694964" lat="42.341287"><ele>836.0</ele></trkpt>
   <trkpt lon="-4.695979" lat="42.341170"><ele>836.0</ele></trkpt>
   <trkpt lon="-4.697477" lat="42.340981"><ele>836.25</ele></trkpt>
   <trkpt lon="-4.698756" lat="42.340802"><ele>837.0</ele></trkpt>
   <trkpt lon="-4.700060" lat="42.340640"><ele>837.0</ele></trkpt>
   <trkpt lon="-4.704287" lat="42.340099"><ele>839.25</ele></trkpt>
   <trkpt lon="-4.707557" lat="42.339652"><ele>840.5</ele></trkpt>
   <trkpt lon="-4.709205" lat="42.339416"><ele>841.0</ele></trkpt>
   <trkpt lon="-4.715025" lat="42.338582"><ele>842.0</ele></trkpt>
   <trkpt lon="-4.716391" lat="42.338386"><ele>842.0</ele></trkpt>
   <trkpt lon="-4.718774" lat="42.338041"><ele>843.25</ele></trkpt>
   <trkpt lon="-4.719413" lat="42.337967"><ele>843.0</ele></trkpt>
   <trkpt lon="-4.719524" lat="42.337945"><ele>843.0</ele></trkpt>
   <trkpt lon="-4.722290" lat="42.337563"><ele>843.75</ele></trkpt>
   <trkpt lon="-4.725095" lat="42.337154"><ele>844.0</ele></trkpt>
   <trkpt lon="-4.728294" lat="42.336675"><ele>844.75</ele></trkpt>
   <trkpt lon="-4.730139" lat="42.336408"><ele>845.0</ele></trkpt>
   <trkpt lon="-4.732713" lat="42.336019"><ele>845.75</ele></trkpt>
   <trkpt lon="-4.735234" lat="42.335627"><ele>848.0</ele></trkpt>
   <trkpt lon="-4.736046" lat="42.335495"><ele>848.75</ele></trkpt>
   <trkpt lon="-4.738926" lat="42.335032"><ele>849.0</ele></trkpt>
   <trkpt lon="-4.742553" lat="42.334444"><ele>849.75</ele></trkpt>
   <trkpt lon="-4.744511" lat="42.334118"><ele>849.5</ele></trkpt>
   <trkpt lon="-4.745833" lat="42.333911"><ele>849.0</ele></trkpt>
   <trkpt lon="-4.746618" lat="42.333782"><ele>849.0</ele></trkpt>
   <trkpt lon="-4.748896" lat="42.333440"><ele>850.0</ele></trkpt>
   <trkpt lon="-4.749739" lat="42.333320"><ele>850.75</ele></trkpt>
   <trkpt lon="-4.750026" lat="42.333280"><ele>850.0</ele></trkpt>
   <trkpt lon="-4.750265" lat="42.333246"><ele>850.0</ele></trkpt>
   <trkpt lon="-4.751353" lat="42.333097"><ele>850.0</ele></trkpt>
   <trkpt lon="-4.751958" lat="42.333030"><ele>850.75</ele></trkpt>
   <trkpt lon="-4.753032" lat="42.332867"><ele>850.0</ele></trkpt>
   <trkpt lon="-4.753794" lat="42.332758"><ele>850.5</ele></trkpt>
   <trkpt lon="-4.754154" lat="42.332710"><ele>851.0</ele></trkpt>
   <trkpt lon="-4.754734" lat="42.332643"><ele>851.0</ele></trkpt>
   <trkpt lon="-4.754925" lat="42.332606"><ele>851.0</ele></trkpt>
   <trkpt lon="-4.757669" lat="42.332225"><ele>853.5</ele></trkpt>
   <trkpt lon="-4.758349" lat="42.332132"><ele>856.25</ele></trkpt>
   <trkpt lon="-4.758685" lat="42.332092"><ele>858.0</ele></trkpt>
   <trkpt lon="-4.759714" lat="42.331880"><ele>859.75</ele></trkpt>
   <trkpt lon="-4.761199" lat="42.331581"><ele>858.25</ele></trkpt>
   <trkpt lon="-4.767316" lat="42.330393"><ele>862.0</ele></trkpt>
   <trkpt lon="-4.769930" lat="42.329868"><ele>864.25</ele></trkpt>
   <trkpt lon="-4.770533" lat="42.329742"><ele>865.75</ele></trkpt>
   <trkpt lon="-4.770877" lat="42.329677"><ele>867.0</ele></trkpt>
   <trkpt lon="-4.771106" lat="42.329643"><ele>867.0</ele></trkpt>
   <trkpt lon="-4.771338" lat="42.329618"><ele>867.0</ele></trkpt>
   <trkpt lon="-4.774482" lat="42.329347"><ele>868.0</ele></trkpt>
   <trkpt lon="-4.777423" lat="42.329123"><ele>868.75</ele></trkpt>
   <trkpt lon="-4.778286" lat="42.329092"><ele>868.5</ele></trkpt>
   <trkpt lon="-4.779117" lat="42.329070"><ele>869.0</ele></trkpt>
   <trkpt lon="-4.780661" lat="42.329043"><ele>868.5</ele></trkpt>
   <trkpt lon="-4.780788" lat="42.329029"><ele>868.5</ele></trkpt>
   <trkpt lon="-4.783461" lat="42.329007"><ele>869.25</ele></trkpt>
   <trkpt lon="-4.786397" lat="42.328973"><ele>870.0</ele></trkpt>
   <trkpt lon="-4.787124" lat="42.328974"><ele>870.0</ele></trkpt>
   <trkpt lon="-4.788310" lat="42.328999"><ele>870.0</ele></trkpt>
   <trkpt lon="-4.792107" lat="42.329074"><ele>869.75</ele></trkpt>
   <trkpt lon="-4.793942" lat="42.329022"><ele>870.0</ele></trkpt>
   <trkpt lon="-4.799074" lat="42.328852"><ele>870.0</ele></trkpt>
   <trkpt lon="-4.799374" lat="42.328857"><ele>869.25</ele></trkpt>
   <trkpt lon="-4.801442" lat="42.329030"><ele>858.75</ele></trkpt>
   <trkpt lon="-4.801994" lat="42.329064"><ele>858.0</ele></trkpt>
   <trkpt lon="-4.802066" lat="42.329060"><ele>858.0</ele></trkpt>
   <trkpt lon="-4.802140" lat="42.329069"><ele>858.0</ele></trkpt>
   <trkpt lon="-4.802208" lat="42.329095"><ele>858.0</ele></trkpt>
   <trkpt lon="-4.802386" lat="42.329112"><ele>857.75</ele></trkpt>
   <trkpt lon="-4.802967" lat="42.329119"><ele>856.5</ele></trkpt>
   <trkpt lon="-4.803204" lat="42.329129"><ele>855.5</ele></trkpt>
   <trkpt lon="-4.803682" lat="42.329163"><ele>854.0</ele></trkpt>
   <trkpt lon="-4.804001" lat="42.329182"><ele>854.0</ele></trkpt>
   <trkpt lon="-4.804329" lat="42.329212"><ele>853.25</ele></trkpt>
   <trkpt lon="-4.804328" lat="42.328880"><ele>852.75</ele></trkpt>
   <trkpt lon="-4.804352" lat="42.328778"><ele>852.5</ele></trkpt>
   <trkpt lon="-4.804433" lat="42.328791"><ele>851.75</ele></trkpt>
   <trkpt lon="-4.804566" lat="42.328813"><ele>851.75</ele></trkpt>
   <trkpt lon="-4.804797" lat="42.328865"><ele>851.0</ele></trkpt>
   <trkpt lon="-4.805097" lat="42.328871"><ele>851.0</ele></trkpt>
   <trkpt lon="-4.805089" lat="42.329191"><ele>852.0</ele></trkpt>
   <trkpt lon="-4.805095" lat="42.329250"><ele>852.0</ele></trkpt>
   <trkpt lon="-4.806372" lat="42.329287"><ele>851.0</ele></trkpt>
   <trkpt lon="-4.806657" lat="42.329299"><ele>851.0</ele></trkpt>
   <trkpt lon="-4.807980" lat="42.329376"><ele>851.75</ele></trkpt>
   <trkpt lon="-4.808214" lat="42.329372"><ele>851.75</ele></trkpt>
   <trkpt lon="-4.808495" lat="42.329383"><ele>851.75</ele></trkpt>
   <trkpt lon="-4.809077" lat="42.329384"><ele>851.75</ele></trkpt>
   <trkpt lon="-4.809314" lat="42.329389"><ele>851.75</ele></trkpt>
   <trkpt lon="-4.809519" lat="42.329418"><ele>851.75</ele></trkpt>
   <trkpt lon="-4.809937" lat="42.329461"><ele>851.75</ele></trkpt>
   <trkpt lon="-4.810167" lat="42.329478"><ele>851.75</ele></trkpt>
   <trkpt lon="-4.810542" lat="42.329508"><ele>851.75</ele></trkpt>
   <trkpt lon="-4.810564" lat="42.329452"><ele>851.75</ele></trkpt>
   <trkpt lon="-4.810595" lat="42.329437"><ele>851.75</ele></trkpt>
   <trkpt lon="-4.810640" lat="42.329427"><ele>851.75</ele></trkpt>
   <trkpt lon="-4.810794" lat="42.329425"><ele>851.75</ele></trkpt>
   <trkpt lon="-4.812012" lat="42.329497"><ele>851.5</ele></trkpt>
   <trkpt lon="-4.812287" lat="42.329520"><ele>851.75</ele></trkpt>
   <trkpt lon="-4.812479" lat="42.329553"><ele>851.75</ele></trkpt>
   <trkpt lon="-4.812611" lat="42.329586"><ele>851.75</ele></trkpt>
   <trkpt lon="-4.812744" lat="42.329623"><ele>851.5</ele></trkpt>
   <trkpt lon="-4.812854" lat="42.329715"><ele>851.5</ele></trkpt>
   <trkpt lon="-4.815280" lat="42.331188"><ele>852.25</ele></trkpt>
   <trkpt lon="-4.816561" lat="42.331945"><ele>852.25</ele></trkpt>
   <trkpt lon="-4.818063" lat="42.332813"><ele>853.0</ele></trkpt>
   <trkpt lon="-4.818778" lat="42.333205"><ele>853.5</ele></trkpt>
   <trkpt lon="-4.820514" lat="42.334116"><ele>854.0</ele></trkpt>
   <trkpt lon="-4.822060" lat="42.334913"><ele>855.5</ele></trkpt>
   <trkpt lon="-4.825094" lat="42.336495"><ele>857.25</ele></trkpt>
   <trkpt lon="-4.826488" lat="42.337198"><ele>858.0</ele></trkpt>
   <trkpt lon="-4.828512" lat="42.338176"><ele>859.25</ele></trkpt>
   <trkpt lon="-4.829776" lat="42.338750"><ele>859.5</ele></trkpt>
   <trkpt lon="-4.832980" lat="42.340078"><ele>860.25</ele></trkpt>
   <trkpt lon="-4.833168" lat="42.340147"><ele>860.5</ele></trkpt>
   <trkpt lon="-4.833378" lat="42.340237"><ele>860.5</ele></trkpt>
   <trkpt lon="-4.833467" lat="42.340303"><ele>860.5</ele></trkpt>
   <trkpt lon="-4.833467" lat="42.340320"><ele>860.5</ele></trkpt>
   <trkpt lon="-4.833466" lat="42.340368"><ele>860.5</ele></trkpt>
   <trkpt lon="-4.833548" lat="42.340388"><ele>860.0</ele></trkpt>
   <trkpt lon="-4.833877" lat="42.340455"><ele>860.5</ele></trkpt>
   <trkpt lon="-4.834113" lat="42.340505"><ele>860.75</ele></trkpt>
   <trkpt lon="-4.834150" lat="42.340470"><ele>860.5</ele></trkpt>
   <trkpt lon="-4.834203" lat="42.340421"><ele>860.5</ele></trkpt>
   <trkpt lon="-4.834223" lat="42.340412"><ele>860.5</ele></trkpt>
   <trkpt lon="-4.834264" lat="42.340411"><ele>860.5</ele></trkpt>
   <trkpt lon="-4.834459" lat="42.340466"><ele>861.25</ele></trkpt>
   <trkpt lon="-4.835053" lat="42.340669"><ele>860.25</ele></trkpt>
   <trkpt lon="-4.837045" lat="42.341421"><ele>862.0</ele></trkpt>
   <trkpt lon="-4.838142" lat="42.341864"><ele>866.25</ele></trkpt>
   <trkpt lon="-4.839164" lat="42.342323"><ele>870.75</ele></trkpt>
   <trkpt lon="-4.839435" lat="42.342439"><ele>870.75</ele></trkpt>
   <trkpt lon="-4.839708" lat="42.342546"><ele>871.5</ele></trkpt>
   <trkpt lon="-4.840468" lat="42.342776"><ele>873.5</ele></trkpt>
   <trkpt lon="-4.841202" lat="42.342944"><ele>874.5</ele></trkpt>
   <trkpt lon="-4.841618" lat="42.343030"><ele>874.0</ele></trkpt>
   <trkpt lon="-4.842180" lat="42.343122"><ele>875.5</ele></trkpt>
   <trkpt lon="-4.842898" lat="42.343229"><ele>877.75</ele></trkpt>
   <trkpt lon="-4.843383" lat="42.343317"><ele>880.0</ele></trkpt>
   <trkpt lon="-4.843872" lat="42.343431"><ele>881.75</ele></trkpt>
   <trkpt lon="-4.844417" lat="42.343580"><ele>885.0</ele></trkpt>
   <trkpt lon="-4.845034" lat="42.343778"><ele>889.0</ele></trkpt>
   <trkpt lon="-4.846451" lat="42.344282"><ele>893.0</ele></trkpt>
   <trkpt lon="-4.847873" lat="42.344728"><ele>896.25</ele></trkpt>
   <trkpt lon="-4.851310" lat="42.346012"><ele>899.5</ele></trkpt>
   <trkpt lon="-4.854865" lat="42.347313"><ele>901.0</ele></trkpt>
   <trkpt lon="-4.855893" lat="42.347715"><ele>900.75</ele></trkpt>
   <trkpt lon="-4.856240" lat="42.347837"><ele>901.0</ele></trkpt>
   <trkpt lon="-4.856635" lat="42.347956"><ele>901.0</ele></trkpt>
   <trkpt lon="-4.857156" lat="42.348076"><ele>901.0</ele></trkpt>
   <trkpt lon="-4.857506" lat="42.348113"><ele>900.75</ele></trkpt>
   <trkpt lon="-4.858244" lat="42.348122"><ele>899.75</ele></trkpt>
   <trkpt lon="-4.858641" lat="42.348109"><ele>897.5</ele></trkpt>
   <trkpt lon="-4.858746" lat="42.348080"><ele>896.75</ele></trkpt>
   <trkpt lon="-4.859264" lat="42.347780"><ele>894.0</ele></trkpt>
   <trkpt lon="-4.859395" lat="42.347717"><ele>894.0</ele></trkpt>
   <trkpt lon="-4.859528" lat="42.347671"><ele>894.0</ele></trkpt>
   <trkpt lon="-4.859651" lat="42.347645"><ele>894.0</ele></trkpt>
   <trkpt lon="-4.859771" lat="42.347646"><ele>893.75</ele></trkpt>
   <trkpt lon="-4.859869" lat="42.347656"><ele>893.25</ele></trkpt>
   <trkpt lon="-4.859990" lat="42.347673"><ele>892.5</ele></trkpt>
   <trkpt lon="-4.860102" lat="42.347705"><ele>891.0</ele></trkpt>
   <trkpt lon="-4.860206" lat="42.347755"><ele>889.75</ele></trkpt>
   <trkpt lon="-4.860327" lat="42.347834"><ele>889.25</ele></trkpt>
   <trkpt lon="-4.860497" lat="42.347975"><ele>887.75</ele></trkpt>
   <trkpt lon="-4.860851" lat="42.348151"><ele>884.25</ele></trkpt>
   <trkpt lon="-4.861382" lat="42.348372"><ele>880.5</ele></trkpt>
   <trkpt lon="-4.862002" lat="42.348652"><ele>879.5</ele></trkpt>
   <trkpt lon="-4.862099" lat="42.348705"><ele>878.75</ele></trkpt>
   <trkpt lon="-4.862175" lat="42.348764"><ele>878.5</ele></trkpt>
   <trkpt lon="-4.862276" lat="42.348859"><ele>878.0</ele></trkpt>
   <trkpt lon="-4.862416" lat="42.349017"><ele>877.5</ele></trkpt>
   <trkpt lon="-4.862631" lat="42.349231"><ele>875.25</ele></trkpt>
   <trkpt lon="-4.863006" lat="42.349655"><ele>873.25</ele></trkpt>
   <trkpt lon="-4.863241" lat="42.349959"><ele>871.75</ele></trkpt>
   <trkpt lon="-4.863353" lat="42.350083"><ele>871.0</ele></trkpt>
   <trkpt lon="-4.863587" lat="42.350337"><ele>870.25</ele></trkpt>
   <trkpt lon="-4.864008" lat="42.350754"><ele>870.25</ele></trkpt>
   <trkpt lon="-4.864108" lat="42.350941"><ele>870.5</ele></trkpt>
   <trkpt lon="-4.864185" lat="42.351018"><ele>870.5</ele></trkpt>
   <trkpt lon="-4.864448" lat="42.351282"><ele>869.5</ele></trkpt>
   <trkpt lon="-4.864420" lat="42.351329"><ele>869.75</ele></trkpt>
   <trkpt lon="-4.866265" lat="42.353104"><ele>869.0</ele></trkpt>
   <trkpt lon="-4.866447" lat="42.353311"><ele>869.5</ele></trkpt>
   <trkpt lon="-4.866496" lat="42.353386"><ele>869.5</ele></trkpt>
   <trkpt lon="-4.866574" lat="42.353551"><ele>869.5</ele></trkpt>
   <trkpt lon="-4.866612" lat="42.353647"><ele>869.75</ele></trkpt>
   <trkpt lon="-4.866650" lat="42.353811"><ele>870.5</ele></trkpt>
   <trkpt lon="-4.866665" lat="42.353974"><ele>870.75</ele></trkpt>
   <trkpt lon="-4.866663" lat="42.354109"><ele>870.75</ele></trkpt>
   <trkpt lon="-4.866624" lat="42.354325"><ele>870.25</ele></trkpt>
   <trkpt lon="-4.866546" lat="42.354578"><ele>870.0</ele></trkpt>
   <trkpt lon="-4.866153" lat="42.355545"><ele>871.5</ele></trkpt>
   <trkpt lon="-4.865423" lat="42.357291"><ele>872.75</ele></trkpt>
   <trkpt lon="-4.865332" lat="42.357570"><ele>874.25</ele></trkpt>
   <trkpt lon="-4.865284" lat="42.357785"><ele>875.75</ele></trkpt>
   <trkpt lon="-4.865250" lat="42.358030"><ele>876.0</ele></trkpt>
   <trkpt lon="-4.865256" lat="42.358473"><ele>876.5</ele></trkpt>
   <trkpt lon="-4.865315" lat="42.358833"><ele>876.5</ele></trkpt>
   <trkpt lon="-4.865459" lat="42.359351"><ele>876.25</ele></trkpt>
   <trkpt lon="-4.866208" lat="42.361978"><ele>874.0</ele></trkpt>
   <trkpt lon="-4.866284" lat="42.362194"><ele>874.75</ele></trkpt>
   <trkpt lon="-4.866382" lat="42.362396"><ele>875.0</ele></trkpt>
   <trkpt lon="-4.866409" lat="42.362429"><ele>874.75</ele></trkpt>
   <trkpt lon="-4.866663" lat="42.362737"><ele>874.75</ele></trkpt>
   <trkpt lon="-4.866852" lat="42.362913"><ele>874.5</ele></trkpt>
   <trkpt lon="-4.867068" lat="42.363079"><ele>875.0</ele></trkpt>
   <trkpt lon="-4.867283" lat="42.363199"><ele>875.0</ele></trkpt>
   <trkpt lon="-4.867467" lat="42.363293"><ele>874.75</ele></trkpt>
   <trkpt lon="-4.867911" lat="42.363468"><ele>873.5</ele></trkpt>
   <trkpt lon="-4.868315" lat="42.363617"><ele>875.75</ele></trkpt>
   <trkpt lon="-4.868355" lat="42.363565"><ele>875.25</ele></trkpt>
   <trkpt lon="-4.868365" lat="42.363552"><ele>875.0</ele></trkpt>
   <trkpt lon="-4.868434" lat="42.363516"><ele>874.25</ele></trkpt>
   <trkpt lon="-4.870653" lat="42.364380"><ele>874.75</ele></trkpt>
   <trkpt lon="-4.870822" lat="42.364428"><ele>874.75</ele></trkpt>
   <trkpt lon="-4.870926" lat="42.364468"><ele>874.75</ele></trkpt>
   <trkpt lon="-4.871038" lat="42.364532"><ele>874.75</ele></trkpt>
   <trkpt lon="-4.873950" lat="42.365649"><ele>883.75</ele></trkpt>
   <trkpt lon="-4.874338" lat="42.365783"><ele>883.5</ele></trkpt>
   <trkpt lon="-4.874514" lat="42.365830"><ele>883.25</ele></trkpt>
   <trkpt lon="-4.874831" lat="42.365893"><ele>884.0</ele></trkpt>
   <trkpt lon="-4.875144" lat="42.365946"><ele>885.5</ele></trkpt>
   <trkpt lon="-4.875308" lat="42.365953"><ele>886.5</ele></trkpt>
   <trkpt lon="-4.875532" lat="42.365953"><ele>886.5</ele></trkpt>
   <trkpt lon="-4.875795" lat="42.365937"><ele>886.75</ele></trkpt>
   <trkpt lon="-4.876926" lat="42.365818"><ele>888.0</ele></trkpt>
   <trkpt lon="-4.877339" lat="42.365768"><ele>887.25</ele></trkpt>
   <trkpt lon="-4.877551" lat="42.365770"><ele>887.5</ele></trkpt>
   <trkpt lon="-4.878479" lat="42.365647"><ele>888.0</ele></trkpt>
   <trkpt lon="-4.881185" lat="42.365322"><ele>890.0</ele></trkpt>
   <trkpt lon="-4.882528" lat="42.365180"><ele>888.5</ele></trkpt>
   <trkpt lon="-4.884782" lat="42.364907"><ele>886.25</ele></trkpt>
   <trkpt lon="-4.885160" lat="42.364863"><ele>886.0</ele></trkpt>
   <trkpt lon="-4.885535" lat="42.364839"><ele>886.25</ele></trkpt>
   <trkpt lon="-4.886569" lat="42.364729"><ele>886.5</ele></trkpt>
   <trkpt lon="-4.887101" lat="42.364663"><ele>886.25</ele></trkpt>
   <trkpt lon="-4.887212" lat="42.364639"><ele>886.0</ele></trkpt>
   <trkpt lon="-4.887317" lat="42.364632"><ele>886.0</ele></trkpt>
   <trkpt lon="-4.887354" lat="42.364636"><ele>886.0</ele></trkpt>
   <trkpt lon="-4.887398" lat="42.364662"><ele>886.0</ele></trkpt>
   <trkpt lon="-4.887489" lat="42.364660"><ele>886.0</ele></trkpt>
   <trkpt lon="-4.887293" lat="42.364738"><ele>886.0</ele></trkpt>
   <trkpt lon="-4.888717" lat="42.364574"><ele>885.25</ele></trkpt>
   <trkpt lon="-4.889583" lat="42.364501"><ele>883.25</ele></trkpt>
   <trkpt lon="-4.891100" lat="42.364410"><ele>880.25</ele></trkpt>
   <trkpt lon="-4.891184" lat="42.364286"><ele>881.25</ele></trkpt>
   <trkpt lon="-4.893040" lat="42.364178"><ele>873.75</ele></trkpt>
   <trkpt lon="-4.898322" lat="42.363892"><ele>859.75</ele></trkpt>
   <trkpt lon="-4.899413" lat="42.363820"><ele>858.25</ele></trkpt>
   <trkpt lon="-4.900217" lat="42.363740"><ele>856.0</ele></trkpt>
   <trkpt lon="-4.903064" lat="42.363610"><ele>852.75</ele></trkpt>
   <trkpt lon="-4.905875" lat="42.363463"><ele>852.0</ele></trkpt>
   <trkpt lon="-4.909761" lat="42.363249"><ele>849.5</ele></trkpt>
   <trkpt lon="-4.910000" lat="42.363235"><ele>850.25</ele></trkpt>
   <trkpt lon="-4.914575" lat="42.362956"><ele>846.25</ele></trkpt>
   <trkpt lon="-4.916111" lat="42.362853"><ele>846.25</ele></trkpt>
   <trkpt lon="-4.916971" lat="42.362801"><ele>848.0</ele></trkpt>
   <trkpt lon="-4.917745" lat="42.362801"><ele>850.0</ele></trkpt>
   <trkpt lon="-4.919324" lat="42.362706"><ele>855.25</ele></trkpt>
   <trkpt lon="-4.919561" lat="42.362667"><ele>855.75</ele></trkpt>
   <trkpt lon="-4.919876" lat="42.362512"><ele>856.5</ele></trkpt>
   <trkpt lon="-4.920517" lat="42.362507"><ele>858.0</ele></trkpt>
   <trkpt lon="-4.920959" lat="42.362538"><ele>859.25</ele></trkpt>
   <trkpt lon="-4.921630" lat="42.362559"><ele>860.5</ele></trkpt>
   <trkpt lon="-4.922139" lat="42.362520"><ele>864.0</ele></trkpt>
   <trkpt lon="-4.922749" lat="42.362439"><ele>866.75</ele></trkpt>
   <trkpt lon="-4.923349" lat="42.362469"><ele>865.25</ele></trkpt>
   <trkpt lon="-4.925505" lat="42.362348"><ele>866.0</ele></trkpt>
   <trkpt lon="-4.926409" lat="42.362266"><ele>863.5</ele></trkpt>
   <trkpt lon="-4.927073" lat="42.362253"><ele>864.75</ele></trkpt>
   <trkpt lon="-4.927379" lat="42.361909"><ele>861.75</ele></trkpt>
   <trkpt lon="-4.927528" lat="42.361768"><ele>860.5</ele></trkpt>
   <trkpt lon="-4.927649" lat="42.361584"><ele>859.0</ele></trkpt>
   <trkpt lon="-4.927926" lat="42.361223"><ele>856.0</ele></trkpt>
   <trkpt lon="-4.928016" lat="42.361314"><ele>856.5</ele></trkpt>
   <trkpt lon="-4.928271" lat="42.361475"><ele>856.5</ele></trkpt>
   <trkpt lon="-4.928696" lat="42.361684"><ele>856.25</ele></trkpt>
   <trkpt lon="-4.929243" lat="42.361952"><ele>857.25</ele></trkpt>
   <trkpt lon="-4.929505" lat="42.362122"><ele>859.0</ele></trkpt>
   <trkpt lon="-4.929640" lat="42.362268"><ele>859.5</ele></trkpt>
   <trkpt lon="-4.929692" lat="42.362401"><ele>860.25</ele></trkpt>
   <trkpt lon="-4.930401" lat="42.362515"><ele>860.5</ele></trkpt>
   <trkpt lon="-4.930469" lat="42.362597"><ele>860.25</ele></trkpt>
   <trkpt lon="-4.930627" lat="42.362635"><ele>860.25</ele></trkpt>
   <trkpt lon="-4.931464" lat="42.362764"><ele>860.75</ele></trkpt>
   <trkpt lon="-4.932206" lat="42.362866"><ele>862.0</ele></trkpt>
   <trkpt lon="-4.933442" lat="42.363115"><ele>865.0</ele></trkpt>
   <trkpt lon="-4.934139" lat="42.363243"><ele>866.75</ele></trkpt>
   <trkpt lon="-4.934878" lat="42.363334"><ele>867.25</ele></trkpt>
   <trkpt lon="-4.936015" lat="42.363518"><ele>869.0</ele></trkpt>
   <trkpt lon="-4.937038" lat="42.363706"><ele>867.5</ele></trkpt>
   <trkpt lon="-4.938741" lat="42.363982"><ele>865.5</ele></trkpt>
   <trkpt lon="-4.940532" lat="42.364205"><ele>859.75</ele></trkpt>
   <trkpt lon="-4.942171" lat="42.364420"><ele>854.75</ele></trkpt>
   <trkpt lon="-4.944226" lat="42.364698"><ele>850.75</ele></trkpt>
   <trkpt lon="-4.946281" lat="42.364986"><ele>848.25</ele></trkpt>
   <trkpt lon="-4.948445" lat="42.365254"><ele>847.75</ele></trkpt>
   <trkpt lon="-4.949046" lat="42.365347"><ele>848.25</ele></trkpt>
   <trkpt lon="-4.949350" lat="42.365388"><ele>848.0</ele></trkpt>
   <trkpt lon="-4.949556" lat="42.365394"><ele>848.0</ele></trkpt>
   <trkpt lon="-4.949880" lat="42.365297"><ele>847.25</ele></trkpt>
   <trkpt lon="-4.950914" lat="42.365206"><ele>844.25</ele></trkpt>
   <trkpt lon="-4.952531" lat="42.365065"><ele>842.5</ele></trkpt>
   <trkpt lon="-4.953087" lat="42.365062"><ele>840.75</ele></trkpt>
   <trkpt lon="-4.954279" lat="42.365055"><ele>838.0</ele></trkpt>
   <trkpt lon="-4.954425" lat="42.365056"><ele>837.0</ele></trkpt>
   <trkpt lon="-4.954704" lat="42.365050"><ele>837.75</ele></trkpt>
   <trkpt lon="-4.955373" lat="42.365052"><ele>838.5</ele></trkpt>
   <trkpt lon="-4.955373" lat="42.365008"><ele>838.5</ele></trkpt>
   <trkpt lon="-4.955373" lat="42.364932"><ele>838.25</ele></trkpt>
   <trkpt lon="-4.957639" lat="42.364921"><ele>842.25</ele></trkpt>
   <trkpt lon="-4.958998" lat="42.364928"><ele>846.25</ele></trkpt>
   <trkpt lon="-4.959442" lat="42.364954"><ele>846.5</ele></trkpt>
   <trkpt lon="-4.966096" lat="42.365433"><ele>851.5</ele></trkpt>
   <trkpt lon="-4.968975" lat="42.365632"><ele>856.0</ele></trkpt>
   <trkpt lon="-4.969978" lat="42.365700"><ele>858.5</ele></trkpt>
   <trkpt lon="-4.970924" lat="42.365781"><ele>860.75</ele></trkpt>
   <trkpt lon="-4.971849" lat="42.365830"><ele>862.0</ele></trkpt>
   <trkpt lon="-4.972255" lat="42.365830"><ele>863.0</ele></trkpt>
   <trkpt lon="-4.972560" lat="42.365820"><ele>864.0</ele></trkpt>
   <trkpt lon="-4.972615" lat="42.365813"><ele>864.0</ele></trkpt>
   <trkpt lon="-4.972652" lat="42.365801"><ele>864.0</ele></trkpt>
   <trkpt lon="-4.972677" lat="42.365788"><ele>864.0</ele></trkpt>
   <trkpt lon="-4.972691" lat="42.365772"><ele>864.0</ele></trkpt>
   <trkpt lon="-4.972781" lat="42.365567"><ele>864.75</ele></trkpt>
   <trkpt lon="-4.972821" lat="42.365496"><ele>865.0</ele></trkpt>
   <trkpt lon="-4.972869" lat="42.365436"><ele>865.0</ele></trkpt>
   <trkpt lon="-4.972974" lat="42.365342"><ele>864.5</ele></trkpt>
   <trkpt lon="-4.973091" lat="42.365284"><ele>864.25</ele></trkpt>
   <trkpt lon="-4.973171" lat="42.365253"><ele>865.0</ele></trkpt>
   <trkpt lon="-4.973255" lat="42.365226"><ele>865.75</ele></trkpt>
   <trkpt lon="-4.973441" lat="42.365202"><ele>865.5</ele></trkpt>
   <trkpt lon="-4.973680" lat="42.365203"><ele>863.75</ele></trkpt>
   <trkpt lon="-4.973754" lat="42.365213"><ele>863.0</ele></trkpt>
   <trkpt lon="-4.973822" lat="42.365230"><ele>862.5</ele></trkpt>
   <trkpt lon="-4.973946" lat="42.365274"><ele>861.5</ele></trkpt>
   <trkpt lon="-4.974174" lat="42.365400"><ele>860.25</ele></trkpt>
   <trkpt lon="-4.974298" lat="42.365447"><ele>859.75</ele></trkpt>
   <trkpt lon="-4.974347" lat="42.365482"><ele>859.75</ele></trkpt>
   <trkpt lon="-4.974628" lat="42.365537"><ele>858.5</ele></trkpt>
   <trkpt lon="-4.974672" lat="42.365545"><ele>858.25</ele></trkpt>
   <trkpt lon="-4.974959" lat="42.365545"><ele>857.0</ele></trkpt>
   <trkpt lon="-4.975118" lat="42.365529"><ele>856.0</ele></trkpt>
   <trkpt lon="-4.975248" lat="42.365508"><ele>855.0</ele></trkpt>
   <trkpt lon="-4.975431" lat="42.365459"><ele>854.25</ele></trkpt>
   <trkpt lon="-4.975469" lat="42.365441"><ele>854.0</ele></trkpt>
   <trkpt lon="-4.975903" lat="42.365199"><ele>851.75</ele></trkpt>
   <trkpt lon="-4.976070" lat="42.365120"><ele>851.5</ele></trkpt>
   <trkpt lon="-4.976284" lat="42.365025"><ele>850.25</ele></trkpt>
   <trkpt lon="-4.976335" lat="42.365013"><ele>850.0</ele></trkpt>
   <trkpt lon="-4.976389" lat="42.365010"><ele>850.0</ele></trkpt>
   <trkpt lon="-4.976502" lat="42.364986"><ele>850.25</ele></trkpt>
   <trkpt lon="-4.976658" lat="42.364932"><ele>850.5</ele></trkpt>
   <trkpt lon="-4.976871" lat="42.364878"><ele>850.5</ele></trkpt>
   <trkpt lon="-4.976997" lat="42.364854"><ele>850.25</ele></trkpt>
   <trkpt lon="-4.977131" lat="42.364838"><ele>849.75</ele></trkpt>
   <trkpt lon="-4.977400" lat="42.364820"><ele>849.25</ele></trkpt>
   <trkpt lon="-4.977782" lat="42.364856"><ele>848.75</ele></trkpt>
   <trkpt lon="-4.978029" lat="42.364916"><ele>846.75</ele></trkpt>
   <trkpt lon="-4.978191" lat="42.364964"><ele>845.5</ele></trkpt>
   <trkpt lon="-4.978424" lat="42.365090"><ele>845.5</ele></trkpt>
   <trkpt lon="-4.978627" lat="42.365239"><ele>845.25</ele></trkpt>
   <trkpt lon="-4.978992" lat="42.365570"><ele>844.5</ele></trkpt>
   <trkpt lon="-4.979069" lat="42.365571"><ele>844.25</ele></trkpt>
   <trkpt lon="-4.979256" lat="42.365544"><ele>843.75</ele></trkpt>
   <trkpt lon="-4.979931" lat="42.365497"><ele>842.25</ele></trkpt>
   <trkpt lon="-4.980955" lat="42.365440"><ele>840.25</ele></trkpt>
   <trkpt lon="-4.981299" lat="42.365430"><ele>839.5</ele></trkpt>
   <trkpt lon="-4.981642" lat="42.365431"><ele>838.5</ele></trkpt>
   <trkpt lon="-4.981967" lat="42.365454"><ele>838.0</ele></trkpt>
   <trkpt lon="-4.983194" lat="42.365560"><ele>833.5</ele></trkpt>
   <trkpt lon="-4.986081" lat="42.365867"><ele>827.0</ele></trkpt>
   <trkpt lon="-4.989931" lat="42.366249"><ele>824.25</ele></trkpt>
   <trkpt lon="-4.993416" lat="42.366621"><ele>816.0</ele></trkpt>
   <trkpt lon="-4.995776" lat="42.366869"><ele>811.75</ele></trkpt>
   <trkpt lon="-4.996039" lat="42.366891"><ele>811.0</ele></trkpt>
   <trkpt lon="-4.996073" lat="42.366890"><ele>810.75</ele></trkpt>
   <trkpt lon="-4.996154" lat="42.366875"><ele>810.5</ele></trkpt>
   <trkpt lon="-4.996316" lat="42.366855"><ele>809.75</ele></trkpt>
   <trkpt lon="-4.996411" lat="42.366858"><ele>809.5</ele></trkpt>
   <trkpt lon="-4.999399" lat="42.367174"><ele>808.75</ele></trkpt>
   <trkpt lon="-4.999449" lat="42.367191"><ele>808.75</ele></trkpt>
   <trkpt lon="-4.999546" lat="42.367280"><ele>808.0</ele></trkpt>
   <trkpt lon="-4.999591" lat="42.367300"><ele>807.75</ele></trkpt>
   <trkpt lon="-4.999584" lat="42.367347"><ele>807.75</ele></trkpt>
   <trkpt lon="-4.999618" lat="42.367352"><ele>807.5</ele></trkpt>
   <trkpt lon="-4.999927" lat="42.367385"><ele>808.25</ele></trkpt>
   <trkpt lon="-4.999971" lat="42.367392"><ele>808.75</ele></trkpt>
   <trkpt lon="-4.999982" lat="42.367344"><ele>808.75</ele></trkpt>
   <trkpt lon="-4.999988" lat="42.367331"><ele>808.75</ele></trkpt>
   <trkpt lon="-5.000196" lat="42.367332"><ele>808.5</ele></trkpt>
   <trkpt lon="-5.000370" lat="42.367335"><ele>808.5</ele></trkpt>
   <trkpt lon="-5.003741" lat="42.367702"><ele>808.5</ele></trkpt>
   <trkpt lon="-5.005154" lat="42.367824"><ele>807.5</ele></trkpt>
   <trkpt lon="-5.006482" lat="42.368012"><ele>808.75</ele></trkpt>
   <trkpt lon="-5.007069" lat="42.368115"><ele>809.25</ele></trkpt>
   <trkpt lon="-5.007401" lat="42.368155"><ele>809.75</ele></trkpt>
   <trkpt lon="-5.008905" lat="42.368323"><ele>811.75</ele></trkpt>
   <trkpt lon="-5.010801" lat="42.368517"><ele>814.5</ele></trkpt>
   <trkpt lon="-5.011108" lat="42.368508"><ele>814.5</ele></trkpt>
   <trkpt lon="-5.011414" lat="42.368478"><ele>815.0</ele></trkpt>
   <trkpt lon="-5.011730" lat="42.368427"><ele>815.0</ele></trkpt>
   <trkpt lon="-5.011937" lat="42.368415"><ele>815.25</ele></trkpt>
   <trkpt lon="-5.012201" lat="42.368533"><ele>815.5</ele></trkpt>
   <trkpt lon="-5.012488" lat="42.368601"><ele>815.75</ele></trkpt>
   <trkpt lon="-5.014198" lat="42.368765"><ele>818.25</ele></trkpt>
   <trkpt lon="-5.017100" lat="42.369089"><ele>821.0</ele></trkpt>
   <trkpt lon="-5.019726" lat="42.369380"><ele>823.75</ele></trkpt>
   <trkpt lon="-5.019724" lat="42.369459"><ele>824.0</ele></trkpt>
   <trkpt lon="-5.019630" lat="42.370115"><ele>823.25</ele></trkpt>
   <trkpt lon="-5.020816" lat="42.370188"><ele>825.25</ele></trkpt>
   <trkpt lon="-5.021543" lat="42.370196"><ele>827.0</ele></trkpt>
   <trkpt lon="-5.021916" lat="42.370209"><ele>827.0</ele></trkpt>
   <trkpt lon="-5.022296" lat="42.370178"><ele>827.0</ele></trkpt>
   <trkpt lon="-5.022350" lat="42.370173"><ele>827.25</ele></trkpt>
   <trkpt lon="-5.022762" lat="42.370166"><ele>827.5</ele></trkpt>
   <trkpt lon="-5.022999" lat="42.370271"><ele>827.75</ele></trkpt>
   <trkpt lon="-5.023445" lat="42.370480"><ele>828.25</ele></trkpt>
   <trkpt lon="-5.023557" lat="42.370550"><ele>828.75</ele></trkpt>
   <trkpt lon="-5.023636" lat="42.370648"><ele>829.25</ele></trkpt>
   <trkpt lon="-5.023759" lat="42.370816"><ele>830.25</ele></trkpt>
   <trkpt lon="-5.023842" lat="42.370922"><ele>830.75</ele></trkpt>
   <trkpt lon="-5.023898" lat="42.370961"><ele>831.0</ele></trkpt>
   <trkpt lon="-5.023987" lat="42.370989"><ele>831.0</ele></trkpt>
   <trkpt lon="-5.024136" lat="42.371010"><ele>831.5</ele></trkpt>
   <trkpt lon="-5.024984" lat="42.371100"><ele>832.75</ele></trkpt>
   <trkpt lon="-5.025073" lat="42.371096"><ele>831.75</ele></trkpt>
   <trkpt lon="-5.025152" lat="42.371109"><ele>831.25</ele></trkpt>
   <trkpt lon="-5.025748" lat="42.371390"><ele>834.5</ele></trkpt>
   <trkpt lon="-5.025842" lat="42.371435"><ele>834.0</ele></trkpt>
   <trkpt lon="-5.025861" lat="42.371415"><ele>833.5</ele></trkpt>
   <trkpt lon="-5.026049" lat="42.371218"><ele>832.0</ele></trkpt>
   <trkpt lon="-5.026268" lat="42.371004"><ele>833.25</ele></trkpt>
   <trkpt lon="-5.026348" lat="42.370914"><ele>832.5</ele></trkpt>
   <trkpt lon="-5.026396" lat="42.370843"><ele>832.0</ele></trkpt>
   <trkpt lon="-5.026504" lat="42.370586"><ele>830.5</ele></trkpt>
   <trkpt lon="-5.026579" lat="42.370409"><ele>829.75</ele></trkpt>
   <trkpt lon="-5.026864" lat="42.370463"><ele>829.5</ele></trkpt>
   <trkpt lon="-5.026931" lat="42.370478"><ele>829.5</ele></trkpt>
   <trkpt lon="-5.027532" lat="42.370589"><ele>828.75</ele></trkpt>
   <trkpt lon="-5.027593" lat="42.370598"><ele>828.75</ele></trkpt>
   <trkpt lon="-5.027670" lat="42.370608"><ele>828.5</ele></trkpt>
   <trkpt lon="-5.027713" lat="42.370603"><ele>828.5</ele></trkpt>
   <trkpt lon="-5.027819" lat="42.370605"><ele>828.75</ele></trkpt>
   <trkpt lon="-5.028169" lat="42.370634"><ele>829.25</ele></trkpt>
   <trkpt lon="-5.028921" lat="42.370714"><ele>826.5</ele></trkpt>
   <trkpt lon="-5.029106" lat="42.370744"><ele>825.0</ele></trkpt>
   <trkpt lon="-5.029299" lat="42.370760"><ele>823.25</ele></trkpt>
   <trkpt lon="-5.029556" lat="42.370749"><ele>821.5</ele></trkpt>
   <trkpt lon="-5.029557" lat="42.370767"><ele>821.5</ele></trkpt>
   <trkpt lon="-5.029586" lat="42.370766"><ele>821.25</ele></trkpt>
   <trkpt lon="-5.029939" lat="42.370755"><ele>817.75</ele></trkpt>
  </trkseg>
 </trk>
</gpx>
