<?xml version='1.0' encoding='utf-8'?>
<gpx xmlns="http://www.topografix.com/GPX/1/1" version="1.1" creator="add_waypoints.py">
  <metadata>
    <name>camino-day11-bike-tmp</name>
  </metadata>
  <wpt lat="42.6655121" lon="-6.9445446">
    <name>Albergue municipal de Vega de Valcarce</name>
    <desc>C. Pandelo 18 B | Vega de Valcarce | Tel: +34 601 501 687 | E-mail | Type: Pelgrims herberg | Soort LO: L | Prijs: €8 PP/PN | Extra info: Keuken - Magnetron - Wasmachine en droger - Fietsenberging | Dieren: Niet bekend | Incorrecte informatie? | Accommodation Type: Albergue | Lodging: B | Price: €8 PP/PN | Extra info: Kitchen - Microwave - Washer and dryer - Bicycle storage. | Animals: Not known | Incorrect information?</desc>
    <sym>Flag, Red</sym>
  </wpt>
  <wpt lat="42.6651712" lon="-6.9476216">
    <name>Albergue El Paso</name>
    <desc>Ctra. Antigua N-VI Nº6 | Vega de Valcarce | Tel: +34 628 104 309 | Website | E-mail | Type: Pelgrims herberg | Soort LO: L | Prijs: €13 PP/PN | Extra info: Keuken - Magnetron - Wasmachine en droger - Fietsenberging- Mogelijkheid tot kamperen | Dieren: Niet bekend | Incorrecte informatie? | Accommodation Type: Albergue | Lodging: B | Price: €13 PP/PN | Extra info: Kitchen - Microwave - Washer and dryer - Bicycle storage- Possibility of camping. | Animals: Not known | Incorrect information?</desc>
    <sym>Flag, Red</sym>
  </wpt>
  <wpt lat="42.6730220" lon="-6.9672900">
    <name>Albergue Pequeno Potala</name>
    <desc>Ctra. Antigua N-VI | Ruitelán | Tel: +34 987 561 322 | E-mail | Type: Pelgrims herberg | Soort LO: L | Prijs: €25 PP/PN | Extra info: Prijs is voor half pension | Dieren: Nee | Taal: ES EN FR IT | Incorrecte informatie? | Accommodation Type: Albergue | Lodging: B | Price: €25 PP/PN | Extra info: Price is for half board | Animals: No | Languages spoken: ES EN FR IT | Incorrect information?</desc>
    <sym>Flag, Red</sym>
  </wpt>
  <wpt lat="42.6707200" lon="-6.9808380">
    <name>Albergue Las Herrerias</name>
    <desc>C. Iglesia 1 | Las Herrerías | Tel: +34 654 353 940 | E-mail | Type: Pelgrims herberg | Soort LO: L | Prijs: €5 PP/PN | Extra info: Ontbijt - Diner - Wasmachine en droger - Fietsenberging | Dieren: Toegestaan | Incorrecte informatie? | Accommodation Type: Albergue | Lodging: B | Price: €5 PP/PN | Extra info: Breakfast - Dinner - Washer and dryer - Bicycle storage. | Animals: Allowed | Incorrect information?</desc>
    <sym>Flag, Red</sym>
  </wpt>
  <wpt lat="42.6706222" lon="-6.9811186">
    <name>Albergue Casa Lixa</name>
    <desc>Camino de Santiago 35 | Las Herrerías | Tel: +34 987 134 915 | Website | E-mail | Type: Pelgrims herberg | Soort LO: L | Prijs: €15 PP/PN | Extra info: Ook privékamers - Wasmachine en droger - Bar restaurant - Fietsenberging - Restaurant - Gesloten van eind oktober tot begin april - Fietsenberging | Dieren: Toegestaan | Taal: ES NE EN DU FR | Incorrecte informatie? | Accommodation Type: Albergue | Lodging: B | Price: €15 PP/PN | Extra info: Also private rooms - Washer and dryer - Bar restaurant - Bicycle storage - Restaurant - Closed from late October to early April - Bicycle storage | Animals: Allowed | Languages spoken: ES NE EN DU FR | Incorrect information?</desc>
    <sym>Flag, Red</sym>
  </wpt>
  <wpt lat="42.7075791" lon="-7.0442721">
    <name>Albergue Casa Campelo</name>
    <desc>O Cebreiro s/n | O Cebreiro | Tel: +34 679 678 458  | Tel:  +34 982 179 317 | E-mail | Type: Pelgrims herberg | Soort LO: L | Prijs: €15 PP/PN | Extra info: Ook privékamers - Wasmachine en droger - Fietsenberging | Dieren: Niet bekend | Incorrecte informatie? | Accommodation Type: Albergue | Lodging: B | Price: €15 PP/PN | Extra info: Also private rooms - Washer and dryer - Bicycle storage room | Animals: Not known | Incorrect information?</desc>
    <sym>Flag, Red</sym>
  </wpt>
  <wpt lat="42.7077691" lon="-7.0460810">
    <name>Xunta Albergue de peregrinos de O Cebreiro</name>
    <desc>O Cebreiro s/n | O Cebreiro | Website | Type: Pelgrims herberg | Soort LO: L | Prijs: €10 PP/PN | Extra info: Keuken - Magnetron - wassmachine - Droger - Credential | Dieren: Niet bekend | Incorrecte informatie? | Accommodation Type: Albergue | Lodging: B | Price: €10 PP/PN | Extra info: Kitchen - Microwave - Washing machine - Dryer - Credential | Animals: Not known | Incorrect information?</desc>
    <sym>Flag, Red</sym>
  </wpt>
  <wpt lat="42.6989823" lon="-7.0744893">
    <name>Albergue Linar do Rei</name>
    <desc>Liñares s/n | Liñares | Tel: +34 616 464 831 | E-mail | Type: Pelgrims herberg | Soort LO: L | Prijs: €12 PP/PN | Extra info: Ook privékamers - Keuken - Magnetron - Wasmachine en droger - Credential - Fietsenberging | Dieren: Toegestaan | Incorrecte informatie? | Accommodation Type: Albergue | Lodging: B | Price: €12 PP/PN | Extra info: Also private rooms - Kitchen - Microwave - Washer and dryer - Credential - Bicycle storage | Animals: Allowed | Incorrect information?</desc>
    <sym>Flag, Red</sym>
  </wpt>
  <wpt lat="42.7048635" lon="-7.0985583">
    <name>Xunta Albergue de peregrinos de Hospital da Condesa</name>
    <desc>Hospital da Condesa | Hospital da Condesa | Tel: +34 982 161 336  | Tel:  +34 660 396 810  | Tel:  +34 676 939 812 | Website | Type: Pelgrims herberg | Soort LO: L | Prijs: €10 PP/PN | Extra info: Keuken - Wasmachine en droger | Dieren: Niet bekend | Incorrecte informatie? | Accommodation Type: Albergue | Lodging: B | Price: €10 PP/PN | Extra info: Kitchen - washer and dryer | Animals: Not known | Incorrect information?</desc>
    <sym>Flag, Red</sym>
  </wpt>
  <wpt lat="42.7126194" lon="-7.1260867">
    <name>Albergue El Puerto</name>
    <desc>Alto do Poio | Alto do Poio | Tel: +34 982 367 172 | Type: Pelgrims herberg | Soort LO: L | Prijs: €6 PP/PN | Extra info: Ook privékamers - Ontbijt - Diner - Bar restaurant - Fietsenberging | Dieren: Niet bekend | Incorrecte informatie? | Accommodation Type: Albergue | Lodging: B | Price: €6 PP/PN | Extra info: Also private rooms - Breakfast - Dinner - Bar restaurant - Bicycle storage | Animals: Not known | Incorrect information?</desc>
    <sym>Flag, Red</sym>
  </wpt>
  <wpt lat="42.7312630" lon="-7.1572155">
    <name>Albergue Pension A Reboleira</name>
    <desc>Fonfria 15 | Fonfria | Tel: +34 982 181 271  | Tel:  +34 629 826 559 | Website | E-mail | Type: Pelgrims herberg | Soort LO: L | Prijs: €12 PP/PN | Extra info: Ook privékamers - Wasmachine en droger - Bar restaurant - Ontbijt - Diner - Fietsenberging | Dieren: Niet bekend | Incorrecte informatie? | Accommodation Type: Albergue | Lodging: B | Price: €12 PP/PN | Extra info: Also private rooms - Washer and dryer - Bar restaurant - Breakfast - Dinner - Bicycle storage | Animals: Not known | Incorrect information?</desc>
    <sym>Flag, Red</sym>
  </wpt>
  <wpt lat="42.7441000" lon="-7.2045600">
    <name>Albergue Fillobal</name>
    <desc>Fillobal | Fillobal | Tel: +34 666 826 414 | E-mail | Type: Pelgrims herberg | Soort LO: L | Prijs: €12 PP/PN | Extra info: Ook privékamers - Keuken - Magnetron - Wasmachine en droger - Fietsenberging | Dieren: Niet bekend | Incorrecte informatie? | Accommodation Type: Albergue | Lodging: B | Price: €12 PP/PN | Extra info: Also private rooms - Kitchen - Microwave - Washer and dryer - Bicycle storage room | Animals: Not known | Incorrect information?</desc>
    <sym>Flag, Red</sym>
  </wpt>
  <wpt lat="42.7564056" lon="-7.2379427">
    <name>Albergue-Pensión Lemos</name>
    <desc>Av. De Castilla 24 | Triacastela | Tel: +34 677 117 238 | Website | E-mail | Type: Pelgrims herberg | Soort LO: L | Prijs: €10 PP/PN | Extra info: Ook privékamers - Keuken - Magnetron - Wasmachine en droger - - Fietsenberging | Dieren: Niet bekend | Incorrecte informatie? | Accommodation Type: Albergue | Lodging: B | Price: €10 PP/PN | Extra info: Also private rooms - Kitchen - Microwave - Washer and dryer - - Bicycle shed | Animals: Not known | Incorrect information?</desc>
    <sym>Flag, Red</sym>
  </wpt>
  <wpt lat="42.7552880" lon="-7.2354060">
    <name>Xunta Albergue de peregrinos de Triavastela</name>
    <desc>Rúa do Peregrino s/n | Triacastela | Tel: +34 982 548 087  | Tel:  +34 660 396 811 | Website | Type: Pelgrims herberg | Soort LO: L | Prijs: €10 PP/PN | Extra info: Keuken - Magnetron - Wasmachine en droger - Fietsenberging - Mogelijkheid tot kamperen | Dieren: Niet bekend | Incorrecte informatie? | Accommodation Type: Albergue | Lodging: B | Price: €10 PP/PN | Extra info: Kitchen - Microwave - Washer and dryer - Bicycle storage - Possibility of camping. | Animals: Not known | Incorrect information?</desc>
    <sym>Flag, Red</sym>
  </wpt>
  <wpt lat="42.7565313" lon="-7.2390357">
    <name>Albergue del Oribio</name>
    <desc>Av. de Castilla 20 | Triacastela | Tel: +34 982 548 085  | Tel:  +34 616 774 558 | E-mail | Type: Pelgrims herberg | Soort LO: L | Prijs: €10 PP/PN | Extra info: Keuken - Magnetron - Wasmachine en droger - Bar restaurant - Fietsenberging | Dieren: Niet bekend | Incorrecte informatie? | Accommodation Type: Albergue | Lodging: B | Price: €10 PP/PN | Extra info: Kitchen - Microwave - Washer and dryer - Bar restaurant - Bicycle storage. | Animals: Not known | Incorrect information?</desc>
    <sym>Flag, Red</sym>
  </wpt>
  <wpt lat="42.7560140" lon="-7.2393845">
    <name>Albergue Horta de Abel</name>
    <desc>Rúa do Peregrino 5 | Triacastela | Tel: +34 608 080 556 | Website | E-mail | Type: Pelgrims herberg | Soort LO: L | Prijs: €11 PP/PN | Extra info: Ook privékamers - Keuken - Magnetron - Wasmachine en droger - Fietsenberging | Dieren: Niet bekend | Incorrecte informatie? | Accommodation Type: Albergue | Lodging: B | Price: €11 PP/PN | Extra info: Also private rooms - Kitchen - Microwave - Washer and dryer - Bicycle storage room | Animals: Not known | Incorrect information?</desc>
    <sym>Flag, Red</sym>
  </wpt>
  <wpt lat="42.7560555" lon="-7.2395924">
    <name>Albergue Atrio</name>
    <desc>Rúa Peregrino 1-3 | Triacastela | Tel: +34 982 548 488  | Tel:  +34 699 504 958 | Website | E-mail | Type: Pelgrims herberg | Soort LO: L | Prijs: €10 PP/PN | Extra info: Ook privékamers - Keuken - Magnetron - Wasmachine en droger - Bar restaurant - Fietsenberging | Dieren: Niet bekend | Incorrecte informatie? | Accommodation Type: Albergue | Lodging: B | Price: €10 PP/PN | Extra info: Also private rooms - Kitchen - Microwave - Washer and dryer - Bar restaurant - Bicycle storage room | Animals: Not known | Incorrect information?</desc>
    <sym>Flag, Red</sym>
  </wpt>
  <wpt lat="42.7558207" lon="-7.2409692">
    <name>Albergue pension Complexo Xacobeo</name>
    <desc>C. Cadorniga Carro 4 | Triacastela | Tel: +34 982 548 037  | Tel:  +34 982 548 480 | Website | E-mail | Type: Pelgrims herberg | Soort LO: L | Prijs: €11 PP/PN | Extra info: Ook privékamers - Keuken - Magnetron - Wasmachine en droger - Bar restaurant - Diner - Fietsenberging | Dieren: Niet bekend | Incorrecte informatie? | Accommodation Type: Albergue | Lodging: B | Price: €11 PP/PN | Extra info: Also private rooms - Kitchen - Microwave - Washer and dryer - Bar restaurant - Diner - Bicycle shed | Animals: Not known | Incorrect information?</desc>
    <sym>Flag, Red</sym>
  </wpt>
  <wpt lat="42.7561561" lon="-7.2419341">
    <name>Albergue Aitzenea</name>
    <desc>Plaza Vista Alegre 1 | Triacastela | Tel: +34 982 548 076  | Tel:  +34 646 565 670 | Website | E-mail | Type: Pelgrims herberg | Soort LO: L | Prijs: €10 PP/PN | Extra info: Keuken - Magnetron - Wasmachine en droger - Fietsenberging | Dieren: Toegestaan | Incorrecte informatie? | Accommodation Type: Albergue | Lodging: B | Price: €10 PP/PN | Extra info: Kitchen - Microwave - Washer and dryer - Bicycle storage. | Animals: Allowed | Incorrect information?</desc>
    <sym>Flag, Red</sym>
  </wpt>
  <wpt lat="42.7556617" lon="-7.2425742">
    <name>Albergue Berce do Caminho</name>
    <desc>c/ Camilo José Cela 11 | Triacastela | Tel: +34 982 548 127  | Tel:  +34 619 468 210 | Type: Pelgrims herberg | Soort LO: L | Prijs: €12,50 PP/PN | Extra info: Keuken - Magnetron - Wasmachine en droger - Fietsenberging | Dieren: Toegestaan | Incorrecte informatie? | Accommodation Type: Albergue | Lodging: B | Price: €12,50 PP/PN | Extra info: Kitchen - Microwave - Washer and dryer - Bicycle storage. | Animals: Allowed | Incorrect information?</desc>
    <sym>Flag, Red</sym>
  </wpt>
  <wpt lat="42.7394895" lon="-7.2802914">
    <name>Xunta Albergue de peregrinos Casa Forte de Lusío</name>
    <desc>Lusío 5 | Lusío | Tel: +34 659 491 017 | Website | Type: Pelgrims herberg | Soort LO: L | Prijs: €10 PP/PN | Extra info: Keuken - Fietsenberging - 500 meter verwijderd van de camino maar volgens velen de moeite waard - Geen winkel in de buurt, neem eten mee | Dieren: Niet bekend | Incorrecte informatie? | Accommodation Type: Albergue | Lodging: B | Price: €10 PP/PN | Extra info: Kitchen - Bicycle storage - 500 meters away from the camino, but according to many reviews more then worth it - No shop nearby, take food with you | Animals: Not known | Incorrect information?</desc>
    <sym>Flag, Red</sym>
  </wpt>
  <wpt lat="42.7736580" lon="-7.3553600">
    <name>Xunta albergue Calvor</name>
    <desc>Calvor | Calvor | Tel: +34 660 396 812  | Tel:  +34 982 531 266 | Website | Type: Pelgrims herberg | Soort LO: L | Prijs: €10 PP/PN | Extra info: Keuken - Wasmachine en droger | Dieren: Niet bekend | Incorrecte informatie? | Accommodation Type: Albergue | Lodging: B | Price: €10 PP/PN | Extra info: Kitchen - washer and dryer | Animals: Not known | Incorrect information?</desc>
    <sym>Flag, Red</sym>
  </wpt>
  <wpt lat="42.7757200" lon="-7.4042110">
    <name>Albergue Pension A Pedra</name>
    <desc>c/ Vigo de Sarria 19 | Sarria | Tel: +34 652 517 199  | Tel:  +34 982 530 130 | Website | E-mail | Type: Pelgrims herberg | Soort LO: L | Prijs: €12 PP/PN | Extra info: Ook privékamers - Keuken - Magnetron - Wasmachine en droger - Ontbijt - Diner - Bar Cafetaria - Fietsenberging | Dieren: Niet bekend | Incorrecte informatie? | Accommodation Type: Albergue | Lodging: B | Price: €12 PP/PN | Extra info: Also private rooms - Kitchen - Microwave - Washer and dryer - Breakfast - Dinner - Bar Cafeteria - Bicycle Storage | Animals: Not known | Incorrect information?</desc>
    <sym>Flag, Red</sym>
  </wpt>
  <wpt lat="42.7758051" lon="-7.4052930">
    <name>Albergue Oasis</name>
    <desc>Camino a Trriacastela 12 | Sarria | Tel: +34 982 535 516  | Tel:  +34 605 948 644 | Website | E-mail | Type: Pelgrims herberg | Soort LO: L | Prijs: €12 PP/PN | Extra info: Keuken - Magnetron - Wasmachine en droger - Fietsenberging | Dieren: Toegestaan | Incorrecte informatie? | Accommodation Type: Albergue | Lodging: B | Price: €12 PP/PN | Extra info: Kitchen - Microwave - Washer and dryer - Bicycle storage. | Animals: Allowed | Incorrect information?</desc>
    <sym>Flag, Red</sym>
  </wpt>
  <wpt lat="42.7764433" lon="-7.4072011">
    <name>Albergue Alma do Camiño</name>
    <desc>Rúa Calvo Sotelo 199 | Sarria | Tel: +34 629 822 036+34 982 876 768 | Website | E-mail | Type: Pelgrims herberg | Soort LO: L | Prijs: €13 PP/PN | Extra info: Ook privékamers - Keuken - Magnetron - Wasmachine en droger - Credential - Ontbijt - Fietsenberging- Massage | Dieren: Niet bekend | Incorrecte informatie? | Accommodation Type: Albergue | Lodging: B | Price: €13 PP/PN | Extra info: Also private rooms - Kitchen - Microwave - Washer and dryer - Credential - Breakfast - Bicycle storage- Massage | Animals: Not known | Incorrect information?</desc>
    <sym>Flag, Red</sym>
  </wpt>
  <wpt lat="42.7753473" lon="-7.4075624">
    <name>Albergue Barullo</name>
    <desc>Pl. Galicia 40 | Sarria | Tel: +34 698 108 755 | Website | Type: Pelgrims herberg | Soort LO: L | Prijs: €11 PP/PN | Extra info: Ook privékamers - Keuken - Magnetron - Wasmachine en droger - Bar Cafetaria - Fietsenberging | Dieren: Niet bekend | Incorrecte informatie? | Accommodation Type: Albergue | Lodging: B | Price: €11 PP/PN | Extra info: Also private rooms - Kitchen - Microwave - Washer and dryer - Bar Cafeteria - Bicycle storage. | Animals: Not known | Incorrect information?</desc>
    <sym>Flag, Red</sym>
  </wpt>
  <wpt lat="42.7768391" lon="-7.4132053">
    <name>Albergue Casa Peltre</name>
    <desc>C. Escalinata Maior 10 | Sarria | Tel: +34 606 226 067 | Website | E-mail | Type: Pelgrims herberg | Soort LO: L | Prijs: €12 PP/PN | Extra info: Ook privékamers - Keuken - Magnetron - Wasmachine en droger - Credential - accommodatie voor fietsen - Restaurant in de buurt - Fietsenberging | Dieren: Nee | Incorrecte informatie? | Accommodation Type: Albergue | Lodging: B | Price: €12 PP/PN | Extra info: Also private rooms - Kitchen - Microwave - Washer and dryer - Credential - accommodation for bicycles - Restaurant nearby - Bicycle storage room | Animals: No | Incorrect information?</desc>
    <sym>Flag, Red</sym>
  </wpt>
  <wpt lat="42.7758262" lon="-7.4112087">
    <name>Albergue pension Puente Ribeira</name>
    <desc>Rúa do Peregrino 23 | Sarria | Tel: +34 982 876 789  | Tel:  +34 698 175 619 | Website | E-mail | Type: Pelgrims herberg | Soort LO: L | Prijs: €12 PP/PN | Extra info: Ook privékamers - Ontbijt - Wasmachine en droger - Credential - Bar restaurant - Fietsenberging | Dieren: Niet bekend | Incorrecte informatie? | Accommodation Type: Albergue | Lodging: B | Price: €12 PP/PN | Extra info: Also private rooms - Breakfast - Washer and dryer - Credential - Bar restaurant - Bicycle storage | Animals: Not known | Incorrect information?</desc>
    <sym>Flag, Red</sym>
  </wpt>
  <wpt lat="42.7748356" lon="-7.4090467">
    <name>Albergue Credencial</name>
    <desc>Rúa do Peregrino 50 | Sarria | Tel: +34 982 876 455  | Tel:  +34 639 722 878 | Website | E-mail | Type: Pelgrims herberg | Soort LO: L | Prijs: €11 PP/PN | Extra info: Magnetron - Wasmachine en droger - Credential - Bar restaurant - Fietsenberging | Dieren: Niet bekend | Incorrecte informatie? | Accommodation Type: Albergue | Lodging: B | Price: €11 PP/PN | Extra info: Microwave - Washer and dryer - Credential - Bar restaurant - Bicycle storage. | Animals: Not known | Incorrect information?</desc>
    <sym>Flag, Red</sym>
  </wpt>
  <wpt lat="42.7774982" lon="-7.4135768">
    <name>Xunta Albergue municipal de peregrinos de Sarria</name>
    <desc>Rúa Maior 79 | Sarria | Tel: +34 660 396 813 | Website | Type: Pelgrims herberg | Soort LO: L | Prijs: €10 PP/PN | Extra info: Keuken - Magnetron - Wasmachine en droger - Credential | Dieren: Niet bekend | Incorrecte informatie? | Accommodation Type: Albergue | Lodging: B | Price: €10 PP/PN | Extra info: Kitchen - Microwave - Washer and dryer - Credential | Animals: Not known | Incorrect information?</desc>
    <sym>Flag, Red</sym>
  </wpt>
  <wpt lat="42.7770354" lon="-7.4140328">
    <name>Albergue Mayor</name>
    <desc>Rúa Maior esq. Pedreiras 1 | Sarria | Tel: +34 680 110 003 | Website | E-mail | Type: Pelgrims herberg | Soort LO: L | Prijs: €10 PP/PN | Extra info: Keuken - Magnetron - Wasmachine en droger - Fietsenberging | Dieren: Niet bekend | Incorrecte informatie? | Accommodation Type: Albergue | Lodging: B | Price: €10 PP/PN | Extra info: Kitchen - Microwave - Washer and dryer - Bicycle storage. | Animals: Not known | Incorrect information?</desc>
    <sym>Flag, Red</sym>
  </wpt>
  <trk>
    <name>camino-day11-bike-tmp</name>
    <trkseg>
      <trkpt lat="42.6649300" lon="-6.9451100">
        <ele>636.5</ele>
      </trkpt>
      <trkpt lat="42.6650400" lon="-6.9458800">
        <ele>636.8</ele>
      </trkpt>
      <trkpt lat="42.6652900" lon="-6.9465900">
        <ele>637.5</ele>
      </trkpt>
      <trkpt lat="42.6652600" lon="-6.9476400">
        <ele>638.8</ele>
      </trkpt>
      <trkpt lat="42.6650700" lon="-6.9484800">
        <ele>640.6</ele>
      </trkpt>
      <trkpt lat="42.6649900" lon="-6.9492700">
        <ele>643.1</ele>
      </trkpt>
      <trkpt lat="42.6649000" lon="-6.9500700">
        <ele>646.0</ele>
      </trkpt>
      <trkpt lat="42.6648200" lon="-6.9508600">
        <ele>648.6</ele>
      </trkpt>
      <trkpt lat="42.6646800" lon="-6.9517000">
        <ele>650.8</ele>
      </trkpt>
      <trkpt lat="42.6645400" lon="-6.9525400">
        <ele>652.2</ele>
      </trkpt>
      <trkpt lat="42.6645100" lon="-6.9534400">
        <ele>652.7</ele>
      </trkpt>
      <trkpt lat="42.6643900" lon="-6.9541300">
        <ele>652.2</ele>
      </trkpt>
      <trkpt lat="42.6643900" lon="-6.9544300">
        <ele>651.4</ele>
      </trkpt>
      <trkpt lat="42.6645400" lon="-6.9546900">
        <ele>650.7</ele>
      </trkpt>
      <trkpt lat="42.6649600" lon="-6.9550900">
        <ele>649.9</ele>
      </trkpt>
      <trkpt lat="42.6653700" lon="-6.9554400">
        <ele>649.1</ele>
      </trkpt>
      <trkpt lat="42.6657800" lon="-6.9557900">
        <ele>648.6</ele>
      </trkpt>
      <trkpt lat="42.6661900" lon="-6.9561500">
        <ele>647.9</ele>
      </trkpt>
      <trkpt lat="42.6666000" lon="-6.9565000">
        <ele>647.1</ele>
      </trkpt>
      <trkpt lat="42.6670100" lon="-6.9568500">
        <ele>646.4</ele>
      </trkpt>
      <trkpt lat="42.6674100" lon="-6.9572000">
        <ele>646.3</ele>
      </trkpt>
      <trkpt lat="42.6678200" lon="-6.9575500">
        <ele>646.5</ele>
      </trkpt>
      <trkpt lat="42.6682300" lon="-6.9579000">
        <ele>647.2</ele>
      </trkpt>
      <trkpt lat="42.6686400" lon="-6.9582600">
        <ele>648.3</ele>
      </trkpt>
      <trkpt lat="42.6690500" lon="-6.9586100">
        <ele>649.3</ele>
      </trkpt>
      <trkpt lat="42.6694600" lon="-6.9589600">
        <ele>650.1</ele>
      </trkpt>
      <trkpt lat="42.6696200" lon="-6.9591500">
        <ele>650.7</ele>
      </trkpt>
      <trkpt lat="42.6699800" lon="-6.9598700">
        <ele>651.0</ele>
      </trkpt>
      <trkpt lat="42.6703400" lon="-6.9605800">
        <ele>651.2</ele>
      </trkpt>
      <trkpt lat="42.6705500" lon="-6.9611900">
        <ele>651.6</ele>
      </trkpt>
      <trkpt lat="42.6707700" lon="-6.9618100">
        <ele>652.0</ele>
      </trkpt>
      <trkpt lat="42.6709800" lon="-6.9624200">
        <ele>652.7</ele>
      </trkpt>
      <trkpt lat="42.6712000" lon="-6.9630400">
        <ele>653.7</ele>
      </trkpt>
      <trkpt lat="42.6714100" lon="-6.9636500">
        <ele>654.8</ele>
      </trkpt>
      <trkpt lat="42.6717200" lon="-6.9643400">
        <ele>655.9</ele>
      </trkpt>
      <trkpt lat="42.6720200" lon="-6.9650200">
        <ele>657.1</ele>
      </trkpt>
      <trkpt lat="42.6723000" lon="-6.9655600">
        <ele>658.2</ele>
      </trkpt>
      <trkpt lat="42.6725800" lon="-6.9660900">
        <ele>659.3</ele>
      </trkpt>
      <trkpt lat="42.6728600" lon="-6.9666300">
        <ele>660.2</ele>
      </trkpt>
      <trkpt lat="42.6729300" lon="-6.9670700">
        <ele>660.9</ele>
      </trkpt>
      <trkpt lat="42.6729200" lon="-6.9673000">
        <ele>661.2</ele>
      </trkpt>
      <trkpt lat="42.6728200" lon="-6.9676100">
        <ele>661.0</ele>
      </trkpt>
      <trkpt lat="42.6723800" lon="-6.9683300">
        <ele>660.5</ele>
      </trkpt>
      <trkpt lat="42.6717700" lon="-6.9688200">
        <ele>660.2</ele>
      </trkpt>
      <trkpt lat="42.6716600" lon="-6.9690800">
        <ele>661.1</ele>
      </trkpt>
      <trkpt lat="42.6717400" lon="-6.9692900">
        <ele>662.9</ele>
      </trkpt>
      <trkpt lat="42.6721600" lon="-6.9697600">
        <ele>665.7</ele>
      </trkpt>
      <trkpt lat="42.6725700" lon="-6.9702200">
        <ele>669.6</ele>
      </trkpt>
      <trkpt lat="42.6727000" lon="-6.9705600">
        <ele>673.3</ele>
      </trkpt>
      <trkpt lat="42.6725300" lon="-6.9714500">
        <ele>676.1</ele>
      </trkpt>
      <trkpt lat="42.6725600" lon="-6.9721300">
        <ele>678.6</ele>
      </trkpt>
      <trkpt lat="42.6725800" lon="-6.9728100">
        <ele>680.7</ele>
      </trkpt>
      <trkpt lat="42.6724400" lon="-6.9737500">
        <ele>682.2</ele>
      </trkpt>
      <trkpt lat="42.6724600" lon="-6.9743700">
        <ele>684.0</ele>
      </trkpt>
      <trkpt lat="42.6724900" lon="-6.9749800">
        <ele>686.0</ele>
      </trkpt>
      <trkpt lat="42.6725100" lon="-6.9756000">
        <ele>687.8</ele>
      </trkpt>
      <trkpt lat="42.6725300" lon="-6.9762100">
        <ele>689.5</ele>
      </trkpt>
      <trkpt lat="42.6723900" lon="-6.9771700">
        <ele>690.8</ele>
      </trkpt>
      <trkpt lat="42.6723500" lon="-6.9778100">
        <ele>691.4</ele>
      </trkpt>
      <trkpt lat="42.6723100" lon="-6.9784400">
        <ele>691.0</ele>
      </trkpt>
      <trkpt lat="42.6722900" lon="-6.9785400">
        <ele>689.5</ele>
      </trkpt>
      <trkpt lat="42.6722000" lon="-6.9786100">
        <ele>686.9</ele>
      </trkpt>
      <trkpt lat="42.6719200" lon="-6.9786000">
        <ele>683.7</ele>
      </trkpt>
      <trkpt lat="42.6711600" lon="-6.9789100">
        <ele>680.5</ele>
      </trkpt>
      <trkpt lat="42.6711000" lon="-6.9789800">
        <ele>678.1</ele>
      </trkpt>
      <trkpt lat="42.6708900" lon="-6.9797400">
        <ele>676.8</ele>
      </trkpt>
      <trkpt lat="42.6709200" lon="-6.9805900">
        <ele>676.4</ele>
      </trkpt>
      <trkpt lat="42.6707600" lon="-6.9810400">
        <ele>676.3</ele>
      </trkpt>
      <trkpt lat="42.6707900" lon="-6.9810600">
        <ele>675.8</ele>
      </trkpt>
      <trkpt lat="42.6709100" lon="-6.9805700">
        <ele>675.4</ele>
      </trkpt>
      <trkpt lat="42.6708800" lon="-6.9798000">
        <ele>677.0</ele>
      </trkpt>
      <trkpt lat="42.6711200" lon="-6.9789500">
        <ele>680.2</ele>
      </trkpt>
      <trkpt lat="42.6719300" lon="-6.9786000">
        <ele>683.8</ele>
      </trkpt>
      <trkpt lat="42.6722500" lon="-6.9785800">
        <ele>687.5</ele>
      </trkpt>
      <trkpt lat="42.6723200" lon="-6.9784400">
        <ele>691.8</ele>
      </trkpt>
      <trkpt lat="42.6724000" lon="-6.9771600">
        <ele>698.3</ele>
      </trkpt>
      <trkpt lat="42.6725000" lon="-6.9780000">
        <ele>702.9</ele>
      </trkpt>
      <trkpt lat="42.6730300" lon="-6.9789800">
        <ele>704.6</ele>
      </trkpt>
      <trkpt lat="42.6728600" lon="-6.9792200">
        <ele>706.1</ele>
      </trkpt>
      <trkpt lat="42.6723300" lon="-6.9790800">
        <ele>709.4</ele>
      </trkpt>
      <trkpt lat="42.6719600" lon="-6.9797000">
        <ele>708.1</ele>
      </trkpt>
      <trkpt lat="42.6723500" lon="-6.9831300">
        <ele>708.7</ele>
      </trkpt>
      <trkpt lat="42.6725100" lon="-6.9837400">
        <ele>712.7</ele>
      </trkpt>
      <trkpt lat="42.6730200" lon="-6.9843200">
        <ele>717.5</ele>
      </trkpt>
      <trkpt lat="42.6733200" lon="-6.9847700">
        <ele>722.0</ele>
      </trkpt>
      <trkpt lat="42.6734000" lon="-6.9850400">
        <ele>726.2</ele>
      </trkpt>
      <trkpt lat="42.6737900" lon="-6.9855500">
        <ele>729.5</ele>
      </trkpt>
      <trkpt lat="42.6741500" lon="-6.9865400">
        <ele>730.5</ele>
      </trkpt>
      <trkpt lat="42.6744300" lon="-6.9877800">
        <ele>734.7</ele>
      </trkpt>
      <trkpt lat="42.6743400" lon="-6.9887000">
        <ele>735.5</ele>
      </trkpt>
      <trkpt lat="42.6746600" lon="-6.9894200">
        <ele>736.0</ele>
      </trkpt>
      <trkpt lat="42.6745900" lon="-6.9908900">
        <ele>735.0</ele>
      </trkpt>
      <trkpt lat="42.6746300" lon="-6.9910900">
        <ele>736.6</ele>
      </trkpt>
      <trkpt lat="42.6747800" lon="-6.9912800">
        <ele>735.9</ele>
      </trkpt>
      <trkpt lat="42.6755500" lon="-6.9912100">
        <ele>736.3</ele>
      </trkpt>
      <trkpt lat="42.6762400" lon="-6.9913600">
        <ele>735.0</ele>
      </trkpt>
      <trkpt lat="42.6773400" lon="-6.9923100">
        <ele>734.6</ele>
      </trkpt>
      <trkpt lat="42.6781900" lon="-6.9927300">
        <ele>735.4</ele>
      </trkpt>
      <trkpt lat="42.6788400" lon="-6.9928800">
        <ele>737.5</ele>
      </trkpt>
      <trkpt lat="42.6793800" lon="-6.9927300">
        <ele>741.8</ele>
      </trkpt>
      <trkpt lat="42.6799600" lon="-6.9922000">
        <ele>749.4</ele>
      </trkpt>
      <trkpt lat="42.6802100" lon="-6.9916800">
        <ele>758.8</ele>
      </trkpt>
      <trkpt lat="42.6806700" lon="-6.9911800">
        <ele>764.0</ele>
      </trkpt>
      <trkpt lat="42.6807800" lon="-6.9905500">
        <ele>767.1</ele>
      </trkpt>
      <trkpt lat="42.6814000" lon="-6.9903400">
        <ele>768.4</ele>
      </trkpt>
      <trkpt lat="42.6816400" lon="-6.9900200">
        <ele>766.9</ele>
      </trkpt>
      <trkpt lat="42.6819900" lon="-6.9898300">
        <ele>766.4</ele>
      </trkpt>
      <trkpt lat="42.6828800" lon="-6.9900900">
        <ele>770.1</ele>
      </trkpt>
      <trkpt lat="42.6832900" lon="-6.9896700">
        <ele>775.8</ele>
      </trkpt>
      <trkpt lat="42.6837100" lon="-6.9894900">
        <ele>782.1</ele>
      </trkpt>
      <trkpt lat="42.6845400" lon="-6.9895700">
        <ele>791.4</ele>
      </trkpt>
      <trkpt lat="42.6857100" lon="-6.9904100">
        <ele>793.8</ele>
      </trkpt>
      <trkpt lat="42.6869200" lon="-6.9909200">
        <ele>794.6</ele>
      </trkpt>
      <trkpt lat="42.6877500" lon="-6.9919500">
        <ele>794.9</ele>
      </trkpt>
      <trkpt lat="42.6884400" lon="-6.9920800">
        <ele>801.8</ele>
      </trkpt>
      <trkpt lat="42.6889500" lon="-6.9918400">
        <ele>810.4</ele>
      </trkpt>
      <trkpt lat="42.6897600" lon="-6.9908900">
        <ele>826.0</ele>
      </trkpt>
      <trkpt lat="42.6902100" lon="-6.9905200">
        <ele>841.9</ele>
      </trkpt>
      <trkpt lat="42.6913200" lon="-6.9901200">
        <ele>857.1</ele>
      </trkpt>
      <trkpt lat="42.6914500" lon="-6.9902900">
        <ele>863.8</ele>
      </trkpt>
      <trkpt lat="42.6913600" lon="-6.9906500">
        <ele>865.0</ele>
      </trkpt>
      <trkpt lat="42.6911900" lon="-6.9908800">
        <ele>860.6</ele>
      </trkpt>
      <trkpt lat="42.6908000" lon="-6.9910100">
        <ele>851.9</ele>
      </trkpt>
      <trkpt lat="42.6905300" lon="-6.9913500">
        <ele>841.0</ele>
      </trkpt>
      <trkpt lat="42.6903600" lon="-6.9922700">
        <ele>830.7</ele>
      </trkpt>
      <trkpt lat="42.6903500" lon="-6.9925100">
        <ele>825.1</ele>
      </trkpt>
      <trkpt lat="42.6904500" lon="-6.9927000">
        <ele>821.3</ele>
      </trkpt>
      <trkpt lat="42.6915700" lon="-6.9935400">
        <ele>825.7</ele>
      </trkpt>
      <trkpt lat="42.6920700" lon="-6.9942000">
        <ele>833.9</ele>
      </trkpt>
      <trkpt lat="42.6935400" lon="-6.9948500">
        <ele>840.1</ele>
      </trkpt>
      <trkpt lat="42.6945400" lon="-6.9959100">
        <ele>847.9</ele>
      </trkpt>
      <trkpt lat="42.6950800" lon="-6.9969600">
        <ele>862.3</ele>
      </trkpt>
      <trkpt lat="42.6962700" lon="-6.9975800">
        <ele>871.0</ele>
      </trkpt>
      <trkpt lat="42.6980600" lon="-6.9983100">
        <ele>873.0</ele>
      </trkpt>
      <trkpt lat="42.6986700" lon="-6.9992900">
        <ele>876.9</ele>
      </trkpt>
      <trkpt lat="42.6987800" lon="-6.9999400">
        <ele>878.1</ele>
      </trkpt>
      <trkpt lat="42.6989300" lon="-7.0000800">
        <ele>878.8</ele>
      </trkpt>
      <trkpt lat="42.6992300" lon="-7.0000600">
        <ele>886.6</ele>
      </trkpt>
      <trkpt lat="42.7000500" lon="-6.9997000">
        <ele>899.1</ele>
      </trkpt>
      <trkpt lat="42.7011800" lon="-6.9997200">
        <ele>911.9</ele>
      </trkpt>
      <trkpt lat="42.7013100" lon="-6.9998100">
        <ele>922.0</ele>
      </trkpt>
      <trkpt lat="42.7013600" lon="-6.9999900">
        <ele>922.9</ele>
      </trkpt>
      <trkpt lat="42.7012700" lon="-7.0003500">
        <ele>916.8</ele>
      </trkpt>
      <trkpt lat="42.7009800" lon="-7.0007000">
        <ele>914.0</ele>
      </trkpt>
      <trkpt lat="42.7010300" lon="-7.0010000">
        <ele>911.7</ele>
      </trkpt>
      <trkpt lat="42.7021400" lon="-7.0018200">
        <ele>910.2</ele>
      </trkpt>
      <trkpt lat="42.7024500" lon="-7.0021200">
        <ele>914.6</ele>
      </trkpt>
      <trkpt lat="42.7029400" lon="-7.0028400">
        <ele>922.8</ele>
      </trkpt>
      <trkpt lat="42.7033300" lon="-7.0030700">
        <ele>927.5</ele>
      </trkpt>
      <trkpt lat="42.7037400" lon="-7.0030800">
        <ele>929.4</ele>
      </trkpt>
      <trkpt lat="42.7038800" lon="-7.0032300">
        <ele>932.1</ele>
      </trkpt>
      <trkpt lat="42.7039900" lon="-7.0037400">
        <ele>936.4</ele>
      </trkpt>
      <trkpt lat="42.7042100" lon="-7.0040000">
        <ele>938.5</ele>
      </trkpt>
      <trkpt lat="42.7048600" lon="-7.0041100">
        <ele>940.4</ele>
      </trkpt>
      <trkpt lat="42.7053600" lon="-7.0046700">
        <ele>942.9</ele>
      </trkpt>
      <trkpt lat="42.7067200" lon="-7.0066100">
        <ele>945.9</ele>
      </trkpt>
      <trkpt lat="42.7078600" lon="-7.0076900">
        <ele>948.2</ele>
      </trkpt>
      <trkpt lat="42.7083500" lon="-7.0077800">
        <ele>951.7</ele>
      </trkpt>
      <trkpt lat="42.7089200" lon="-7.0073300">
        <ele>957.4</ele>
      </trkpt>
      <trkpt lat="42.7093300" lon="-7.0067300">
        <ele>964.2</ele>
      </trkpt>
      <trkpt lat="42.7096600" lon="-7.0058800">
        <ele>971.1</ele>
      </trkpt>
      <trkpt lat="42.7100900" lon="-7.0054300">
        <ele>975.4</ele>
      </trkpt>
      <trkpt lat="42.7104500" lon="-7.0052500">
        <ele>978.3</ele>
      </trkpt>
      <trkpt lat="42.7108400" lon="-7.0054000">
        <ele>980.8</ele>
      </trkpt>
      <trkpt lat="42.7111200" lon="-7.0057600">
        <ele>986.5</ele>
      </trkpt>
      <trkpt lat="42.7115600" lon="-7.0059500">
        <ele>992.7</ele>
      </trkpt>
      <trkpt lat="42.7122800" lon="-7.0060000">
        <ele>1000.5</ele>
      </trkpt>
      <trkpt lat="42.7125300" lon="-7.0058100">
        <ele>1007.8</ele>
      </trkpt>
      <trkpt lat="42.7129100" lon="-7.0057000">
        <ele>1012.6</ele>
      </trkpt>
      <trkpt lat="42.7131400" lon="-7.0058900">
        <ele>1012.4</ele>
      </trkpt>
      <trkpt lat="42.7131900" lon="-7.0062400">
        <ele>1010.5</ele>
      </trkpt>
      <trkpt lat="42.7129600" lon="-7.0068500">
        <ele>1006.8</ele>
      </trkpt>
      <trkpt lat="42.7129700" lon="-7.0071000">
        <ele>1006.0</ele>
      </trkpt>
      <trkpt lat="42.7131200" lon="-7.0071200">
        <ele>1006.3</ele>
      </trkpt>
      <trkpt lat="42.7139100" lon="-7.0068400">
        <ele>1007.1</ele>
      </trkpt>
      <trkpt lat="42.7140500" lon="-7.0069400">
        <ele>1009.0</ele>
      </trkpt>
      <trkpt lat="42.7144700" lon="-7.0077700">
        <ele>1013.7</ele>
      </trkpt>
      <trkpt lat="42.7146600" lon="-7.0079600">
        <ele>1014.6</ele>
      </trkpt>
      <trkpt lat="42.7152900" lon="-7.0082200">
        <ele>1013.1</ele>
      </trkpt>
      <trkpt lat="42.7154000" lon="-7.0085600">
        <ele>1012.3</ele>
      </trkpt>
      <trkpt lat="42.7153600" lon="-7.0089300">
        <ele>1011.6</ele>
      </trkpt>
      <trkpt lat="42.7154800" lon="-7.0092200">
        <ele>1008.3</ele>
      </trkpt>
      <trkpt lat="42.7162700" lon="-7.0098800">
        <ele>1008.7</ele>
      </trkpt>
      <trkpt lat="42.7165500" lon="-7.0099700">
        <ele>1009.4</ele>
      </trkpt>
      <trkpt lat="42.7174800" lon="-7.0099800">
        <ele>1011.7</ele>
      </trkpt>
      <trkpt lat="42.7181400" lon="-7.0108200">
        <ele>1014.2</ele>
      </trkpt>
      <trkpt lat="42.7184800" lon="-7.0108300">
        <ele>1016.7</ele>
      </trkpt>
      <trkpt lat="42.7187200" lon="-7.0106500">
        <ele>1017.6</ele>
      </trkpt>
      <trkpt lat="42.7188900" lon="-7.0103600">
        <ele>1021.3</ele>
      </trkpt>
      <trkpt lat="42.7190000" lon="-7.0096400">
        <ele>1025.9</ele>
      </trkpt>
      <trkpt lat="42.7189200" lon="-7.0093100">
        <ele>1031.1</ele>
      </trkpt>
      <trkpt lat="42.7186800" lon="-7.0089400">
        <ele>1035.6</ele>
      </trkpt>
      <trkpt lat="42.7187000" lon="-7.0086100">
        <ele>1038.4</ele>
      </trkpt>
      <trkpt lat="42.7188700" lon="-7.0085600">
        <ele>1040.6</ele>
      </trkpt>
      <trkpt lat="42.7194000" lon="-7.0088500">
        <ele>1043.3</ele>
      </trkpt>
      <trkpt lat="42.7196100" lon="-7.0090900">
        <ele>1046.0</ele>
      </trkpt>
      <trkpt lat="42.7199400" lon="-7.0097800">
        <ele>1048.4</ele>
      </trkpt>
      <trkpt lat="42.7199900" lon="-7.0104900">
        <ele>1049.0</ele>
      </trkpt>
      <trkpt lat="42.7199100" lon="-7.0111000">
        <ele>1049.3</ele>
      </trkpt>
      <trkpt lat="42.7199400" lon="-7.0126300">
        <ele>1048.6</ele>
      </trkpt>
      <trkpt lat="42.7200400" lon="-7.0128200">
        <ele>1047.6</ele>
      </trkpt>
      <trkpt lat="42.7206200" lon="-7.0133200">
        <ele>1049.4</ele>
      </trkpt>
      <trkpt lat="42.7208900" lon="-7.0134500">
        <ele>1054.5</ele>
      </trkpt>
      <trkpt lat="42.7214300" lon="-7.0134500">
        <ele>1060.5</ele>
      </trkpt>
      <trkpt lat="42.7217000" lon="-7.0135100">
        <ele>1064.6</ele>
      </trkpt>
      <trkpt lat="42.7219700" lon="-7.0137500">
        <ele>1068.6</ele>
      </trkpt>
      <trkpt lat="42.7222200" lon="-7.0146800">
        <ele>1071.0</ele>
      </trkpt>
      <trkpt lat="42.7226800" lon="-7.0153000">
        <ele>1073.5</ele>
      </trkpt>
      <trkpt lat="42.7229500" lon="-7.0155000">
        <ele>1077.9</ele>
      </trkpt>
      <trkpt lat="42.7233600" lon="-7.0156300">
        <ele>1084.3</ele>
      </trkpt>
      <trkpt lat="42.7240600" lon="-7.0154400">
        <ele>1090.0</ele>
      </trkpt>
      <trkpt lat="42.7244200" lon="-7.0155900">
        <ele>1094.2</ele>
      </trkpt>
      <trkpt lat="42.7245200" lon="-7.0157600">
        <ele>1097.4</ele>
      </trkpt>
      <trkpt lat="42.7245300" lon="-7.0164000">
        <ele>1098.6</ele>
      </trkpt>
      <trkpt lat="42.7246700" lon="-7.0168100">
        <ele>1099.7</ele>
      </trkpt>
      <trkpt lat="42.7248900" lon="-7.0168600">
        <ele>1101.3</ele>
      </trkpt>
      <trkpt lat="42.7251000" lon="-7.0168100">
        <ele>1104.6</ele>
      </trkpt>
      <trkpt lat="42.7253700" lon="-7.0173100">
        <ele>1107.6</ele>
      </trkpt>
      <trkpt lat="42.7259500" lon="-7.0190400">
        <ele>1109.6</ele>
      </trkpt>
      <trkpt lat="42.7261500" lon="-7.0200500">
        <ele>1110.4</ele>
      </trkpt>
      <trkpt lat="42.7261800" lon="-7.0202100">
        <ele>1110.7</ele>
      </trkpt>
      <trkpt lat="42.7259300" lon="-7.0203700">
        <ele>1110.6</ele>
      </trkpt>
      <trkpt lat="42.7257200" lon="-7.0207000">
        <ele>1110.8</ele>
      </trkpt>
      <trkpt lat="42.7256100" lon="-7.0220700">
        <ele>1111.2</ele>
      </trkpt>
      <trkpt lat="42.7254300" lon="-7.0225800">
        <ele>1112.7</ele>
      </trkpt>
      <trkpt lat="42.7252200" lon="-7.0228400">
        <ele>1114.8</ele>
      </trkpt>
      <trkpt lat="42.7246300" lon="-7.0232400">
        <ele>1117.2</ele>
      </trkpt>
      <trkpt lat="42.7243900" lon="-7.0235300">
        <ele>1118.7</ele>
      </trkpt>
      <trkpt lat="42.7243200" lon="-7.0239800">
        <ele>1121.9</ele>
      </trkpt>
      <trkpt lat="42.7245500" lon="-7.0252100">
        <ele>1126.4</ele>
      </trkpt>
      <trkpt lat="42.7242400" lon="-7.0261200">
        <ele>1131.1</ele>
      </trkpt>
      <trkpt lat="42.7238800" lon="-7.0273600">
        <ele>1134.5</ele>
      </trkpt>
      <trkpt lat="42.7238000" lon="-7.0277300">
        <ele>1139.3</ele>
      </trkpt>
      <trkpt lat="42.7238400" lon="-7.0286000">
        <ele>1142.7</ele>
      </trkpt>
      <trkpt lat="42.7236700" lon="-7.0291600">
        <ele>1144.6</ele>
      </trkpt>
      <trkpt lat="42.7234200" lon="-7.0294400">
        <ele>1150.6</ele>
      </trkpt>
      <trkpt lat="42.7232300" lon="-7.0295200">
        <ele>1157.7</ele>
      </trkpt>
      <trkpt lat="42.7220500" lon="-7.0294400">
        <ele>1165.5</ele>
      </trkpt>
      <trkpt lat="42.7218600" lon="-7.0296000">
        <ele>1173.5</ele>
      </trkpt>
      <trkpt lat="42.7216800" lon="-7.0300300">
        <ele>1181.0</ele>
      </trkpt>
      <trkpt lat="42.7216600" lon="-7.0303800">
        <ele>1181.2</ele>
      </trkpt>
      <trkpt lat="42.7217300" lon="-7.0306400">
        <ele>1182.8</ele>
      </trkpt>
      <trkpt lat="42.7227000" lon="-7.0319300">
        <ele>1183.0</ele>
      </trkpt>
      <trkpt lat="42.7228200" lon="-7.0327900">
        <ele>1181.8</ele>
      </trkpt>
      <trkpt lat="42.7232900" lon="-7.0335600">
        <ele>1181.1</ele>
      </trkpt>
      <trkpt lat="42.7234300" lon="-7.0341900">
        <ele>1186.8</ele>
      </trkpt>
      <trkpt lat="42.7233600" lon="-7.0349800">
        <ele>1189.8</ele>
      </trkpt>
      <trkpt lat="42.7225700" lon="-7.0364400">
        <ele>1193.6</ele>
      </trkpt>
      <trkpt lat="42.7223500" lon="-7.0367000">
        <ele>1199.5</ele>
      </trkpt>
      <trkpt lat="42.7220500" lon="-7.0368900">
        <ele>1208.2</ele>
      </trkpt>
      <trkpt lat="42.7215000" lon="-7.0369100">
        <ele>1214.0</ele>
      </trkpt>
      <trkpt lat="42.7200900" lon="-7.0365100">
        <ele>1221.1</ele>
      </trkpt>
      <trkpt lat="42.7194500" lon="-7.0361300">
        <ele>1228.7</ele>
      </trkpt>
      <trkpt lat="42.7189500" lon="-7.0356100">
        <ele>1235.5</ele>
      </trkpt>
      <trkpt lat="42.7185300" lon="-7.0349000">
        <ele>1242.8</ele>
      </trkpt>
      <trkpt lat="42.7182800" lon="-7.0342500">
        <ele>1250.3</ele>
      </trkpt>
      <trkpt lat="42.7179700" lon="-7.0328400">
        <ele>1256.9</ele>
      </trkpt>
      <trkpt lat="42.7176600" lon="-7.0322300">
        <ele>1262.0</ele>
      </trkpt>
      <trkpt lat="42.7174700" lon="-7.0320500">
        <ele>1267.7</ele>
      </trkpt>
      <trkpt lat="42.7163100" lon="-7.0316100">
        <ele>1270.0</ele>
      </trkpt>
      <trkpt lat="42.7149900" lon="-7.0305100">
        <ele>1271.2</ele>
      </trkpt>
      <trkpt lat="42.7143200" lon="-7.0304500">
        <ele>1269.6</ele>
      </trkpt>
      <trkpt lat="42.7140800" lon="-7.0307000">
        <ele>1268.8</ele>
      </trkpt>
      <trkpt lat="42.7136500" lon="-7.0321700">
        <ele>1266.8</ele>
      </trkpt>
      <trkpt lat="42.7134400" lon="-7.0325800">
        <ele>1266.1</ele>
      </trkpt>
      <trkpt lat="42.7128200" lon="-7.0330100">
        <ele>1265.5</ele>
      </trkpt>
      <trkpt lat="42.7115600" lon="-7.0331900">
        <ele>1267.4</ele>
      </trkpt>
      <trkpt lat="42.7112300" lon="-7.0334900">
        <ele>1269.2</ele>
      </trkpt>
      <trkpt lat="42.7111300" lon="-7.0337600">
        <ele>1271.9</ele>
      </trkpt>
      <trkpt lat="42.7110100" lon="-7.0345900">
        <ele>1274.9</ele>
      </trkpt>
      <trkpt lat="42.7103700" lon="-7.0361700">
        <ele>1279.1</ele>
      </trkpt>
      <trkpt lat="42.7097500" lon="-7.0381900">
        <ele>1283.0</ele>
      </trkpt>
      <trkpt lat="42.7094500" lon="-7.0397300">
        <ele>1287.1</ele>
      </trkpt>
      <trkpt lat="42.7094600" lon="-7.0405400">
        <ele>1290.3</ele>
      </trkpt>
      <trkpt lat="42.7094600" lon="-7.0409200">
        <ele>1292.5</ele>
      </trkpt>
      <trkpt lat="42.7093800" lon="-7.0410800">
        <ele>1293.6</ele>
      </trkpt>
      <trkpt lat="42.7089200" lon="-7.0417300">
        <ele>1295.2</ele>
      </trkpt>
      <trkpt lat="42.7084000" lon="-7.0422500">
        <ele>1295.9</ele>
      </trkpt>
      <trkpt lat="42.7081900" lon="-7.0423500">
        <ele>1295.6</ele>
      </trkpt>
      <trkpt lat="42.7077400" lon="-7.0423500">
        <ele>1294.0</ele>
      </trkpt>
      <trkpt lat="42.7075300" lon="-7.0427800">
        <ele>1292.1</ele>
      </trkpt>
      <trkpt lat="42.7074300" lon="-7.0432700">
        <ele>1290.1</ele>
      </trkpt>
      <trkpt lat="42.7074400" lon="-7.0435100">
        <ele>1289.0</ele>
      </trkpt>
      <trkpt lat="42.7074400" lon="-7.0435100">
        <ele>1289.0</ele>
      </trkpt>
      <trkpt lat="42.7074300" lon="-7.0432700">
        <ele>1290.1</ele>
      </trkpt>
      <trkpt lat="42.7075300" lon="-7.0427800">
        <ele>1291.9</ele>
      </trkpt>
      <trkpt lat="42.7077400" lon="-7.0423500">
        <ele>1293.8</ele>
      </trkpt>
      <trkpt lat="42.7080600" lon="-7.0423600">
        <ele>1295.4</ele>
      </trkpt>
      <trkpt lat="42.7084000" lon="-7.0422500">
        <ele>1296.2</ele>
      </trkpt>
      <trkpt lat="42.7089100" lon="-7.0417300">
        <ele>1295.8</ele>
      </trkpt>
      <trkpt lat="42.7093000" lon="-7.0410700">
        <ele>1294.5</ele>
      </trkpt>
      <trkpt lat="42.7093800" lon="-7.0410800">
        <ele>1292.7</ele>
      </trkpt>
      <trkpt lat="42.7092300" lon="-7.0416000">
        <ele>1289.7</ele>
      </trkpt>
      <trkpt lat="42.7086600" lon="-7.0427200">
        <ele>1286.6</ele>
      </trkpt>
      <trkpt lat="42.7082500" lon="-7.0441100">
        <ele>1282.9</ele>
      </trkpt>
      <trkpt lat="42.7080300" lon="-7.0450400">
        <ele>1278.6</ele>
      </trkpt>
      <trkpt lat="42.7080200" lon="-7.0463600">
        <ele>1274.9</ele>
      </trkpt>
      <trkpt lat="42.7079500" lon="-7.0470400">
        <ele>1271.1</ele>
      </trkpt>
      <trkpt lat="42.7071300" lon="-7.0492400">
        <ele>1267.7</ele>
      </trkpt>
      <trkpt lat="42.7068700" lon="-7.0504900">
        <ele>1266.1</ele>
      </trkpt>
      <trkpt lat="42.7065500" lon="-7.0511100">
        <ele>1264.8</ele>
      </trkpt>
      <trkpt lat="42.7057700" lon="-7.0517700">
        <ele>1261.1</ele>
      </trkpt>
      <trkpt lat="42.7055800" lon="-7.0521700">
        <ele>1258.1</ele>
      </trkpt>
      <trkpt lat="42.7051800" lon="-7.0536600">
        <ele>1254.8</ele>
      </trkpt>
      <trkpt lat="42.7049900" lon="-7.0541000">
        <ele>1250.4</ele>
      </trkpt>
      <trkpt lat="42.7045700" lon="-7.0547700">
        <ele>1246.5</ele>
      </trkpt>
      <trkpt lat="42.7039400" lon="-7.0555600">
        <ele>1244.6</ele>
      </trkpt>
      <trkpt lat="42.7036500" lon="-7.0560400">
        <ele>1242.8</ele>
      </trkpt>
      <trkpt lat="42.7035100" lon="-7.0564600">
        <ele>1242.3</ele>
      </trkpt>
      <trkpt lat="42.7034500" lon="-7.0574200">
        <ele>1244.5</ele>
      </trkpt>
      <trkpt lat="42.7035900" lon="-7.0581800">
        <ele>1246.7</ele>
      </trkpt>
      <trkpt lat="42.7042600" lon="-7.0603400">
        <ele>1247.4</ele>
      </trkpt>
      <trkpt lat="42.7045300" lon="-7.0609900">
        <ele>1248.9</ele>
      </trkpt>
      <trkpt lat="42.7049700" lon="-7.0617000">
        <ele>1250.7</ele>
      </trkpt>
      <trkpt lat="42.7050700" lon="-7.0621500">
        <ele>1250.3</ele>
      </trkpt>
      <trkpt lat="42.7050700" lon="-7.0627200">
        <ele>1249.7</ele>
      </trkpt>
      <trkpt lat="42.7043100" lon="-7.0658500">
        <ele>1247.9</ele>
      </trkpt>
      <trkpt lat="42.7043800" lon="-7.0663400">
        <ele>1245.0</ele>
      </trkpt>
      <trkpt lat="42.7048000" lon="-7.0674400">
        <ele>1241.8</ele>
      </trkpt>
      <trkpt lat="42.7048800" lon="-7.0682700">
        <ele>1238.5</ele>
      </trkpt>
      <trkpt lat="42.7047800" lon="-7.0690300">
        <ele>1235.3</ele>
      </trkpt>
      <trkpt lat="42.7044700" lon="-7.0696300">
        <ele>1231.3</ele>
      </trkpt>
      <trkpt lat="42.7040000" lon="-7.0701100">
        <ele>1228.1</ele>
      </trkpt>
      <trkpt lat="42.6998000" lon="-7.0729700">
        <ele>1225.7</ele>
      </trkpt>
      <trkpt lat="42.6994800" lon="-7.0733600">
        <ele>1224.4</ele>
      </trkpt>
      <trkpt lat="42.6983100" lon="-7.0751900">
        <ele>1225.0</ele>
      </trkpt>
      <trkpt lat="42.6980300" lon="-7.0759600">
        <ele>1228.6</ele>
      </trkpt>
      <trkpt lat="42.6983300" lon="-7.0774000">
        <ele>1231.6</ele>
      </trkpt>
      <trkpt lat="42.6985700" lon="-7.0779500">
        <ele>1234.6</ele>
      </trkpt>
      <trkpt lat="42.6987300" lon="-7.0784900">
        <ele>1239.7</ele>
      </trkpt>
      <trkpt lat="42.6987000" lon="-7.0790600">
        <ele>1244.6</ele>
      </trkpt>
      <trkpt lat="42.6984200" lon="-7.0796600">
        <ele>1250.5</ele>
      </trkpt>
      <trkpt lat="42.6983400" lon="-7.0800900">
        <ele>1254.1</ele>
      </trkpt>
      <trkpt lat="42.6983600" lon="-7.0803300">
        <ele>1260.5</ele>
      </trkpt>
      <trkpt lat="42.6987400" lon="-7.0815700">
        <ele>1262.0</ele>
      </trkpt>
      <trkpt lat="42.6986300" lon="-7.0843600">
        <ele>1261.3</ele>
      </trkpt>
      <trkpt lat="42.6987100" lon="-7.0859300">
        <ele>1259.9</ele>
      </trkpt>
      <trkpt lat="42.6990500" lon="-7.0877700">
        <ele>1260.8</ele>
      </trkpt>
      <trkpt lat="42.6990000" lon="-7.0881700">
        <ele>1255.4</ele>
      </trkpt>
      <trkpt lat="42.6988500" lon="-7.0884800">
        <ele>1250.7</ele>
      </trkpt>
      <trkpt lat="42.6979700" lon="-7.0891800">
        <ele>1245.9</ele>
      </trkpt>
      <trkpt lat="42.6978600" lon="-7.0895400">
        <ele>1240.5</ele>
      </trkpt>
      <trkpt lat="42.6978500" lon="-7.0899700">
        <ele>1229.9</ele>
      </trkpt>
      <trkpt lat="42.6980600" lon="-7.0904300">
        <ele>1223.3</ele>
      </trkpt>
      <trkpt lat="42.7012000" lon="-7.0941000">
        <ele>1220.1</ele>
      </trkpt>
      <trkpt lat="42.7026800" lon="-7.0962400">
        <ele>1219.2</ele>
      </trkpt>
      <trkpt lat="42.7040100" lon="-7.0978200">
        <ele>1220.1</ele>
      </trkpt>
      <trkpt lat="42.7042500" lon="-7.0986700">
        <ele>1229.3</ele>
      </trkpt>
      <trkpt lat="42.7044300" lon="-7.1006100">
        <ele>1234.5</ele>
      </trkpt>
      <trkpt lat="42.7046600" lon="-7.1019400">
        <ele>1236.4</ele>
      </trkpt>
      <trkpt lat="42.7053700" lon="-7.1038200">
        <ele>1237.6</ele>
      </trkpt>
      <trkpt lat="42.7053700" lon="-7.1044700">
        <ele>1238.3</ele>
      </trkpt>
      <trkpt lat="42.7050900" lon="-7.1052700">
        <ele>1236.6</ele>
      </trkpt>
      <trkpt lat="42.7051500" lon="-7.1059100">
        <ele>1238.7</ele>
      </trkpt>
      <trkpt lat="42.7055400" lon="-7.1066700">
        <ele>1242.4</ele>
      </trkpt>
      <trkpt lat="42.7057400" lon="-7.1076900">
        <ele>1245.2</ele>
      </trkpt>
      <trkpt lat="42.7059800" lon="-7.1082200">
        <ele>1244.4</ele>
      </trkpt>
      <trkpt lat="42.7063300" lon="-7.1084100">
        <ele>1242.9</ele>
      </trkpt>
      <trkpt lat="42.7072000" lon="-7.1083600">
        <ele>1240.0</ele>
      </trkpt>
      <trkpt lat="42.7076300" lon="-7.1087100">
        <ele>1238.2</ele>
      </trkpt>
      <trkpt lat="42.7077400" lon="-7.1091900">
        <ele>1237.1</ele>
      </trkpt>
      <trkpt lat="42.7074300" lon="-7.1102300">
        <ele>1239.4</ele>
      </trkpt>
      <trkpt lat="42.7074200" lon="-7.1106000">
        <ele>1242.8</ele>
      </trkpt>
      <trkpt lat="42.7077700" lon="-7.1115000">
        <ele>1246.1</ele>
      </trkpt>
      <trkpt lat="42.7079500" lon="-7.1116400">
        <ele>1246.6</ele>
      </trkpt>
      <trkpt lat="42.7083500" lon="-7.1117300">
        <ele>1246.8</ele>
      </trkpt>
      <trkpt lat="42.7093800" lon="-7.1122200">
        <ele>1248.1</ele>
      </trkpt>
      <trkpt lat="42.7094800" lon="-7.1123400">
        <ele>1250.2</ele>
      </trkpt>
      <trkpt lat="42.7096100" lon="-7.1128500">
        <ele>1252.3</ele>
      </trkpt>
      <trkpt lat="42.7097000" lon="-7.1141600">
        <ele>1256.6</ele>
      </trkpt>
      <trkpt lat="42.7096000" lon="-7.1149700">
        <ele>1265.3</ele>
      </trkpt>
      <trkpt lat="42.7092900" lon="-7.1155700">
        <ele>1273.2</ele>
      </trkpt>
      <trkpt lat="42.7084900" lon="-7.1164900">
        <ele>1279.7</ele>
      </trkpt>
      <trkpt lat="42.7083600" lon="-7.1169100">
        <ele>1286.5</ele>
      </trkpt>
      <trkpt lat="42.7083700" lon="-7.1173100">
        <ele>1293.8</ele>
      </trkpt>
      <trkpt lat="42.7086400" lon="-7.1182100">
        <ele>1297.8</ele>
      </trkpt>
      <trkpt lat="42.7085200" lon="-7.1194700">
        <ele>1303.1</ele>
      </trkpt>
      <trkpt lat="42.7085700" lon="-7.1198100">
        <ele>1308.4</ele>
      </trkpt>
      <trkpt lat="42.7097400" lon="-7.1219800">
        <ele>1312.8</ele>
      </trkpt>
      <trkpt lat="42.7099100" lon="-7.1221800">
        <ele>1314.5</ele>
      </trkpt>
      <trkpt lat="42.7106800" lon="-7.1226600">
        <ele>1318.0</ele>
      </trkpt>
      <trkpt lat="42.7109400" lon="-7.1229300">
        <ele>1318.1</ele>
      </trkpt>
      <trkpt lat="42.7121300" lon="-7.1256100">
        <ele>1318.2</ele>
      </trkpt>
      <trkpt lat="42.7139200" lon="-7.1285600">
        <ele>1319.2</ele>
      </trkpt>
      <trkpt lat="42.7143200" lon="-7.1290300">
        <ele>1321.4</ele>
      </trkpt>
      <trkpt lat="42.7150200" lon="-7.1294900">
        <ele>1321.4</ele>
      </trkpt>
      <trkpt lat="42.7158700" lon="-7.1308000">
        <ele>1320.2</ele>
      </trkpt>
      <trkpt lat="42.7162000" lon="-7.1315700">
        <ele>1318.2</ele>
      </trkpt>
      <trkpt lat="42.7165100" lon="-7.1334200">
        <ele>1314.7</ele>
      </trkpt>
      <trkpt lat="42.7167600" lon="-7.1340100">
        <ele>1309.8</ele>
      </trkpt>
      <trkpt lat="42.7180500" lon="-7.1361700">
        <ele>1302.9</ele>
      </trkpt>
      <trkpt lat="42.7183900" lon="-7.1370800">
        <ele>1298.8</ele>
      </trkpt>
      <trkpt lat="42.7188900" lon="-7.1389800">
        <ele>1294.8</ele>
      </trkpt>
      <trkpt lat="42.7190900" lon="-7.1394600">
        <ele>1292.2</ele>
      </trkpt>
      <trkpt lat="42.7195100" lon="-7.1400300">
        <ele>1288.9</ele>
      </trkpt>
      <trkpt lat="42.7206500" lon="-7.1409700">
        <ele>1287.6</ele>
      </trkpt>
      <trkpt lat="42.7220100" lon="-7.1430900">
        <ele>1287.5</ele>
      </trkpt>
      <trkpt lat="42.7223500" lon="-7.1438600">
        <ele>1287.6</ele>
      </trkpt>
      <trkpt lat="42.7228400" lon="-7.1456800">
        <ele>1287.1</ele>
      </trkpt>
      <trkpt lat="42.7231000" lon="-7.1464000">
        <ele>1287.0</ele>
      </trkpt>
      <trkpt lat="42.7235000" lon="-7.1471600">
        <ele>1285.8</ele>
      </trkpt>
      <trkpt lat="42.7265100" lon="-7.1515200">
        <ele>1283.7</ele>
      </trkpt>
      <trkpt lat="42.7271000" lon="-7.1535100">
        <ele>1280.8</ele>
      </trkpt>
      <trkpt lat="42.7274500" lon="-7.1539700">
        <ele>1279.3</ele>
      </trkpt>
      <trkpt lat="42.7293600" lon="-7.1557500">
        <ele>1278.2</ele>
      </trkpt>
      <trkpt lat="42.7313300" lon="-7.1580200">
        <ele>1277.4</ele>
      </trkpt>
      <trkpt lat="42.7327400" lon="-7.1600300">
        <ele>1271.5</ele>
      </trkpt>
      <trkpt lat="42.7332600" lon="-7.1612500">
        <ele>1265.3</ele>
      </trkpt>
      <trkpt lat="42.7354200" lon="-7.1672600">
        <ele>1258.3</ele>
      </trkpt>
      <trkpt lat="42.7366200" lon="-7.1702400">
        <ele>1253.0</ele>
      </trkpt>
      <trkpt lat="42.7367900" lon="-7.1711900">
        <ele>1247.3</ele>
      </trkpt>
      <trkpt lat="42.7369400" lon="-7.1733800">
        <ele>1245.5</ele>
      </trkpt>
      <trkpt lat="42.7371000" lon="-7.1739800">
        <ele>1244.9</ele>
      </trkpt>
      <trkpt lat="42.7373800" lon="-7.1744100">
        <ele>1243.5</ele>
      </trkpt>
      <trkpt lat="42.7376900" lon="-7.1746000">
        <ele>1241.9</ele>
      </trkpt>
      <trkpt lat="42.7387600" lon="-7.1748500">
        <ele>1240.0</ele>
      </trkpt>
      <trkpt lat="42.7392000" lon="-7.1751400">
        <ele>1237.3</ele>
      </trkpt>
      <trkpt lat="42.7401900" lon="-7.1760400">
        <ele>1233.0</ele>
      </trkpt>
      <trkpt lat="42.7407700" lon="-7.1767500">
        <ele>1228.1</ele>
      </trkpt>
      <trkpt lat="42.7418400" lon="-7.1785400">
        <ele>1222.0</ele>
      </trkpt>
      <trkpt lat="42.7428700" lon="-7.1793800">
        <ele>1215.7</ele>
      </trkpt>
      <trkpt lat="42.7431600" lon="-7.1800900">
        <ele>1212.4</ele>
      </trkpt>
      <trkpt lat="42.7431700" lon="-7.1807300">
        <ele>1212.3</ele>
      </trkpt>
      <trkpt lat="42.7427600" lon="-7.1819700">
        <ele>1213.4</ele>
      </trkpt>
      <trkpt lat="42.7426300" lon="-7.1826000">
        <ele>1212.1</ele>
      </trkpt>
      <trkpt lat="42.7427400" lon="-7.1833200">
        <ele>1211.5</ele>
      </trkpt>
      <trkpt lat="42.7432100" lon="-7.1845900">
        <ele>1208.1</ele>
      </trkpt>
      <trkpt lat="42.7431800" lon="-7.1859000">
        <ele>1202.8</ele>
      </trkpt>
      <trkpt lat="42.7432800" lon="-7.1870700">
        <ele>1197.8</ele>
      </trkpt>
      <trkpt lat="42.7432300" lon="-7.1874900">
        <ele>1198.0</ele>
      </trkpt>
      <trkpt lat="42.7430900" lon="-7.1878000">
        <ele>1192.5</ele>
      </trkpt>
      <trkpt lat="42.7415500" lon="-7.1892000">
        <ele>1187.3</ele>
      </trkpt>
      <trkpt lat="42.7403600" lon="-7.1897500">
        <ele>1181.5</ele>
      </trkpt>
      <trkpt lat="42.7392300" lon="-7.1899600">
        <ele>1174.4</ele>
      </trkpt>
      <trkpt lat="42.7382300" lon="-7.1899300">
        <ele>1164.6</ele>
      </trkpt>
      <trkpt lat="42.7374700" lon="-7.1895900">
        <ele>1160.8</ele>
      </trkpt>
      <trkpt lat="42.7365500" lon="-7.1888400">
        <ele>1157.1</ele>
      </trkpt>
      <trkpt lat="42.7362100" lon="-7.1887000">
        <ele>1152.9</ele>
      </trkpt>
      <trkpt lat="42.7358400" lon="-7.1888300">
        <ele>1148.0</ele>
      </trkpt>
      <trkpt lat="42.7356600" lon="-7.1890300">
        <ele>1141.7</ele>
      </trkpt>
      <trkpt lat="42.7355300" lon="-7.1894200">
        <ele>1134.0</ele>
      </trkpt>
      <trkpt lat="42.7355300" lon="-7.1898000">
        <ele>1126.9</ele>
      </trkpt>
      <trkpt lat="42.7356600" lon="-7.1901400">
        <ele>1121.5</ele>
      </trkpt>
      <trkpt lat="42.7358000" lon="-7.1903200">
        <ele>1119.1</ele>
      </trkpt>
      <trkpt lat="42.7365200" lon="-7.1907500">
        <ele>1117.3</ele>
      </trkpt>
      <trkpt lat="42.7368800" lon="-7.1910900">
        <ele>1114.6</ele>
      </trkpt>
      <trkpt lat="42.7379300" lon="-7.1927700">
        <ele>1106.4</ele>
      </trkpt>
      <trkpt lat="42.7382900" lon="-7.1935300">
        <ele>1096.9</ele>
      </trkpt>
      <trkpt lat="42.7393300" lon="-7.1966800">
        <ele>1082.5</ele>
      </trkpt>
      <trkpt lat="42.7395100" lon="-7.1970600">
        <ele>1068.6</ele>
      </trkpt>
      <trkpt lat="42.7422500" lon="-7.1996400">
        <ele>1056.3</ele>
      </trkpt>
      <trkpt lat="42.7425200" lon="-7.1999500">
        <ele>1049.6</ele>
      </trkpt>
      <trkpt lat="42.7427500" lon="-7.2003600">
        <ele>1042.9</ele>
      </trkpt>
      <trkpt lat="42.7428500" lon="-7.2008100">
        <ele>1039.6</ele>
      </trkpt>
      <trkpt lat="42.7428000" lon="-7.2015600">
        <ele>1036.3</ele>
      </trkpt>
      <trkpt lat="42.7425200" lon="-7.2021800">
        <ele>1033.0</ele>
      </trkpt>
      <trkpt lat="42.7422000" lon="-7.2024800">
        <ele>1029.4</ele>
      </trkpt>
      <trkpt lat="42.7418900" lon="-7.2026200">
        <ele>1024.0</ele>
      </trkpt>
      <trkpt lat="42.7414200" lon="-7.2026100">
        <ele>1014.7</ele>
      </trkpt>
      <trkpt lat="42.7399100" lon="-7.2018900">
        <ele>1002.4</ele>
      </trkpt>
      <trkpt lat="42.7404700" lon="-7.2043300">
        <ele>987.6</ele>
      </trkpt>
      <trkpt lat="42.7409000" lon="-7.2053500">
        <ele>971.3</ele>
      </trkpt>
      <trkpt lat="42.7418500" lon="-7.2060700">
        <ele>958.4</ele>
      </trkpt>
      <trkpt lat="42.7428900" lon="-7.2064000">
        <ele>949.2</ele>
      </trkpt>
      <trkpt lat="42.7417000" lon="-7.2065900">
        <ele>942.9</ele>
      </trkpt>
      <trkpt lat="42.7407600" lon="-7.2069000">
        <ele>940.6</ele>
      </trkpt>
      <trkpt lat="42.7403100" lon="-7.2068400">
        <ele>940.0</ele>
      </trkpt>
      <trkpt lat="42.7398700" lon="-7.2063400">
        <ele>937.2</ele>
      </trkpt>
      <trkpt lat="42.7396800" lon="-7.2063800">
        <ele>934.1</ele>
      </trkpt>
      <trkpt lat="42.7394800" lon="-7.2066300">
        <ele>929.2</ele>
      </trkpt>
      <trkpt lat="42.7400400" lon="-7.2073000">
        <ele>922.8</ele>
      </trkpt>
      <trkpt lat="42.7411900" lon="-7.2081500">
        <ele>916.9</ele>
      </trkpt>
      <trkpt lat="42.7418700" lon="-7.2082800">
        <ele>911.5</ele>
      </trkpt>
      <trkpt lat="42.7429700" lon="-7.2078100">
        <ele>904.9</ele>
      </trkpt>
      <trkpt lat="42.7434100" lon="-7.2079600">
        <ele>896.9</ele>
      </trkpt>
      <trkpt lat="42.7445600" lon="-7.2097300">
        <ele>888.8</ele>
      </trkpt>
      <trkpt lat="42.7449800" lon="-7.2115200">
        <ele>880.0</ele>
      </trkpt>
      <trkpt lat="42.7451700" lon="-7.2120600">
        <ele>870.7</ele>
      </trkpt>
      <trkpt lat="42.7454100" lon="-7.2124700">
        <ele>863.3</ele>
      </trkpt>
      <trkpt lat="42.7463500" lon="-7.2135200">
        <ele>858.5</ele>
      </trkpt>
      <trkpt lat="42.7466900" lon="-7.2141200">
        <ele>853.7</ele>
      </trkpt>
      <trkpt lat="42.7472300" lon="-7.2154000">
        <ele>848.0</ele>
      </trkpt>
      <trkpt lat="42.7474200" lon="-7.2163100">
        <ele>842.1</ele>
      </trkpt>
      <trkpt lat="42.7474800" lon="-7.2170100">
        <ele>834.3</ele>
      </trkpt>
      <trkpt lat="42.7477300" lon="-7.2175000">
        <ele>824.9</ele>
      </trkpt>
      <trkpt lat="42.7500100" lon="-7.2194100">
        <ele>816.3</ele>
      </trkpt>
      <trkpt lat="42.7510200" lon="-7.2207200">
        <ele>808.6</ele>
      </trkpt>
      <trkpt lat="42.7514000" lon="-7.2213900">
        <ele>800.6</ele>
      </trkpt>
      <trkpt lat="42.7521000" lon="-7.2232800">
        <ele>794.0</ele>
      </trkpt>
      <trkpt lat="42.7525500" lon="-7.2239400">
        <ele>788.0</ele>
      </trkpt>
      <trkpt lat="42.7539200" lon="-7.2243400">
        <ele>780.0</ele>
      </trkpt>
      <trkpt lat="42.7552800" lon="-7.2256100">
        <ele>772.7</ele>
      </trkpt>
      <trkpt lat="42.7559700" lon="-7.2260500">
        <ele>767.4</ele>
      </trkpt>
      <trkpt lat="42.7565000" lon="-7.2261000">
        <ele>764.1</ele>
      </trkpt>
      <trkpt lat="42.7570300" lon="-7.2259300">
        <ele>761.6</ele>
      </trkpt>
      <trkpt lat="42.7577200" lon="-7.2253800">
        <ele>759.5</ele>
      </trkpt>
      <trkpt lat="42.7581500" lon="-7.2251600">
        <ele>755.8</ele>
      </trkpt>
      <trkpt lat="42.7584600" lon="-7.2252400">
        <ele>750.4</ele>
      </trkpt>
      <trkpt lat="42.7587700" lon="-7.2256200">
        <ele>743.0</ele>
      </trkpt>
      <trkpt lat="42.7588600" lon="-7.2261700">
        <ele>737.1</ele>
      </trkpt>
      <trkpt lat="42.7584500" lon="-7.2287600">
        <ele>732.7</ele>
      </trkpt>
      <trkpt lat="42.7582600" lon="-7.2293800">
        <ele>727.8</ele>
      </trkpt>
      <trkpt lat="42.7579100" lon="-7.2301000">
        <ele>723.0</ele>
      </trkpt>
      <trkpt lat="42.7565900" lon="-7.2317500">
        <ele>718.6</ele>
      </trkpt>
      <trkpt lat="42.7563800" lon="-7.2321600">
        <ele>710.3</ele>
      </trkpt>
      <trkpt lat="42.7563100" lon="-7.2327100">
        <ele>699.3</ele>
      </trkpt>
      <trkpt lat="42.7564800" lon="-7.2365000">
        <ele>688.4</ele>
      </trkpt>
      <trkpt lat="42.7566600" lon="-7.2400600">
        <ele>677.3</ele>
      </trkpt>
      <trkpt lat="42.7563300" lon="-7.2416700">
        <ele>667.2</ele>
      </trkpt>
      <trkpt lat="42.7560600" lon="-7.2432100">
        <ele>661.3</ele>
      </trkpt>
      <trkpt lat="42.7558600" lon="-7.2436500">
        <ele>657.6</ele>
      </trkpt>
      <trkpt lat="42.7555300" lon="-7.2440600">
        <ele>658.6</ele>
      </trkpt>
      <trkpt lat="42.7551400" lon="-7.2443300">
        <ele>659.5</ele>
      </trkpt>
      <trkpt lat="42.7547200" lon="-7.2444600">
        <ele>660.5</ele>
      </trkpt>
      <trkpt lat="42.7531200" lon="-7.2442000">
        <ele>662.0</ele>
      </trkpt>
      <trkpt lat="42.7528600" lon="-7.2443100">
        <ele>665.4</ele>
      </trkpt>
      <trkpt lat="42.7526300" lon="-7.2446300">
        <ele>665.9</ele>
      </trkpt>
      <trkpt lat="42.7525000" lon="-7.2453700">
        <ele>666.6</ele>
      </trkpt>
      <trkpt lat="42.7524700" lon="-7.2464400">
        <ele>667.6</ele>
      </trkpt>
      <trkpt lat="42.7526100" lon="-7.2470200">
        <ele>668.7</ele>
      </trkpt>
      <trkpt lat="42.7533000" lon="-7.2481900">
        <ele>668.7</ele>
      </trkpt>
      <trkpt lat="42.7536100" lon="-7.2489900">
        <ele>670.2</ele>
      </trkpt>
      <trkpt lat="42.7537000" lon="-7.2494200">
        <ele>673.0</ele>
      </trkpt>
      <trkpt lat="42.7538900" lon="-7.2516000">
        <ele>676.4</ele>
      </trkpt>
      <trkpt lat="42.7537700" lon="-7.2526000">
        <ele>677.4</ele>
      </trkpt>
      <trkpt lat="42.7533500" lon="-7.2535500">
        <ele>672.8</ele>
      </trkpt>
      <trkpt lat="42.7521300" lon="-7.2548300">
        <ele>667.3</ele>
      </trkpt>
      <trkpt lat="42.7514200" lon="-7.2563100">
        <ele>662.4</ele>
      </trkpt>
      <trkpt lat="42.7513500" lon="-7.2566600">
        <ele>655.3</ele>
      </trkpt>
      <trkpt lat="42.7513500" lon="-7.2572200">
        <ele>649.8</ele>
      </trkpt>
      <trkpt lat="42.7517800" lon="-7.2589100">
        <ele>649.8</ele>
      </trkpt>
      <trkpt lat="42.7517900" lon="-7.2594000">
        <ele>649.7</ele>
      </trkpt>
      <trkpt lat="42.7516300" lon="-7.2603400">
        <ele>647.0</ele>
      </trkpt>
      <trkpt lat="42.7514100" lon="-7.2607500">
        <ele>644.5</ele>
      </trkpt>
      <trkpt lat="42.7507600" lon="-7.2615600">
        <ele>642.3</ele>
      </trkpt>
      <trkpt lat="42.7502700" lon="-7.2626200">
        <ele>641.0</ele>
      </trkpt>
      <trkpt lat="42.7499500" lon="-7.2635400">
        <ele>640.3</ele>
      </trkpt>
      <trkpt lat="42.7494500" lon="-7.2644600">
        <ele>640.4</ele>
      </trkpt>
      <trkpt lat="42.7491600" lon="-7.2647900">
        <ele>638.2</ele>
      </trkpt>
      <trkpt lat="42.7478800" lon="-7.2657700">
        <ele>634.8</ele>
      </trkpt>
      <trkpt lat="42.7459200" lon="-7.2678500">
        <ele>629.5</ele>
      </trkpt>
      <trkpt lat="42.7457400" lon="-7.2683500">
        <ele>623.6</ele>
      </trkpt>
      <trkpt lat="42.7457900" lon="-7.2699300">
        <ele>618.6</ele>
      </trkpt>
      <trkpt lat="42.7456900" lon="-7.2703300">
        <ele>616.5</ele>
      </trkpt>
      <trkpt lat="42.7455200" lon="-7.2706800">
        <ele>616.8</ele>
      </trkpt>
      <trkpt lat="42.7452100" lon="-7.2709600">
        <ele>618.4</ele>
      </trkpt>
      <trkpt lat="42.7444300" lon="-7.2712100">
        <ele>617.4</ele>
      </trkpt>
      <trkpt lat="42.7440800" lon="-7.2715000">
        <ele>615.7</ele>
      </trkpt>
      <trkpt lat="42.7436900" lon="-7.2725100">
        <ele>613.8</ele>
      </trkpt>
      <trkpt lat="42.7433800" lon="-7.2728400">
        <ele>610.8</ele>
      </trkpt>
      <trkpt lat="42.7425500" lon="-7.2729000">
        <ele>607.5</ele>
      </trkpt>
      <trkpt lat="42.7417400" lon="-7.2731600">
        <ele>606.9</ele>
      </trkpt>
      <trkpt lat="42.7415500" lon="-7.2731200">
        <ele>607.6</ele>
      </trkpt>
      <trkpt lat="42.7412700" lon="-7.2728800">
        <ele>608.3</ele>
      </trkpt>
      <trkpt lat="42.7409400" lon="-7.2719800">
        <ele>607.9</ele>
      </trkpt>
      <trkpt lat="42.7407600" lon="-7.2718100">
        <ele>608.5</ele>
      </trkpt>
      <trkpt lat="42.7404600" lon="-7.2717500">
        <ele>609.6</ele>
      </trkpt>
      <trkpt lat="42.7391900" lon="-7.2723500">
        <ele>610.4</ele>
      </trkpt>
      <trkpt lat="42.7390100" lon="-7.2725300">
        <ele>611.7</ele>
      </trkpt>
      <trkpt lat="42.7385600" lon="-7.2735800">
        <ele>612.3</ele>
      </trkpt>
      <trkpt lat="42.7385400" lon="-7.2739500">
        <ele>611.0</ele>
      </trkpt>
      <trkpt lat="42.7390900" lon="-7.2755300">
        <ele>609.5</ele>
      </trkpt>
      <trkpt lat="42.7396900" lon="-7.2778100">
        <ele>605.5</ele>
      </trkpt>
      <trkpt lat="42.7397700" lon="-7.2787400">
        <ele>600.5</ele>
      </trkpt>
      <trkpt lat="42.7400400" lon="-7.2797600">
        <ele>597.3</ele>
      </trkpt>
      <trkpt lat="42.7400600" lon="-7.2813000">
        <ele>595.2</ele>
      </trkpt>
      <trkpt lat="42.7406100" lon="-7.2836500">
        <ele>593.3</ele>
      </trkpt>
      <trkpt lat="42.7407100" lon="-7.2844000">
        <ele>594.1</ele>
      </trkpt>
      <trkpt lat="42.7405900" lon="-7.2854300">
        <ele>596.3</ele>
      </trkpt>
      <trkpt lat="42.7403000" lon="-7.2866000">
        <ele>597.2</ele>
      </trkpt>
      <trkpt lat="42.7399000" lon="-7.2878400">
        <ele>598.4</ele>
      </trkpt>
      <trkpt lat="42.7399700" lon="-7.2890600">
        <ele>598.6</ele>
      </trkpt>
      <trkpt lat="42.7396900" lon="-7.2903300">
        <ele>597.4</ele>
      </trkpt>
      <trkpt lat="42.7396100" lon="-7.2912800">
        <ele>594.0</ele>
      </trkpt>
      <trkpt lat="42.7396400" lon="-7.2917100">
        <ele>590.7</ele>
      </trkpt>
      <trkpt lat="42.7394100" lon="-7.2929700">
        <ele>586.0</ele>
      </trkpt>
      <trkpt lat="42.7394700" lon="-7.2932100">
        <ele>581.5</ele>
      </trkpt>
      <trkpt lat="42.7396100" lon="-7.2933400">
        <ele>580.5</ele>
      </trkpt>
      <trkpt lat="42.7400000" lon="-7.2937300">
        <ele>581.3</ele>
      </trkpt>
      <trkpt lat="42.7404000" lon="-7.2948200">
        <ele>583.8</ele>
      </trkpt>
      <trkpt lat="42.7405300" lon="-7.2945300">
        <ele>594.2</ele>
      </trkpt>
      <trkpt lat="42.7408400" lon="-7.2942500">
        <ele>605.2</ele>
      </trkpt>
      <trkpt lat="42.7436800" lon="-7.2940600">
        <ele>613.6</ele>
      </trkpt>
      <trkpt lat="42.7443800" lon="-7.2937400">
        <ele>622.1</ele>
      </trkpt>
      <trkpt lat="42.7449700" lon="-7.2936100">
        <ele>630.4</ele>
      </trkpt>
      <trkpt lat="42.7453100" lon="-7.2937300">
        <ele>634.5</ele>
      </trkpt>
      <trkpt lat="42.7454400" lon="-7.2938900">
        <ele>638.8</ele>
      </trkpt>
      <trkpt lat="42.7456100" lon="-7.2946100">
        <ele>642.0</ele>
      </trkpt>
      <trkpt lat="42.7458100" lon="-7.2947600">
        <ele>645.4</ele>
      </trkpt>
      <trkpt lat="42.7463700" lon="-7.2945800">
        <ele>648.8</ele>
      </trkpt>
      <trkpt lat="42.7471000" lon="-7.2949100">
        <ele>648.8</ele>
      </trkpt>
      <trkpt lat="42.7482500" lon="-7.2951900">
        <ele>649.1</ele>
      </trkpt>
      <trkpt lat="42.7496000" lon="-7.2950900">
        <ele>651.1</ele>
      </trkpt>
      <trkpt lat="42.7502100" lon="-7.2951700">
        <ele>653.0</ele>
      </trkpt>
      <trkpt lat="42.7507800" lon="-7.2947700">
        <ele>655.3</ele>
      </trkpt>
      <trkpt lat="42.7511000" lon="-7.2946700">
        <ele>658.8</ele>
      </trkpt>
      <trkpt lat="42.7513300" lon="-7.2947600">
        <ele>662.2</ele>
      </trkpt>
      <trkpt lat="42.7518400" lon="-7.2943700">
        <ele>666.1</ele>
      </trkpt>
      <trkpt lat="42.7521500" lon="-7.2943000">
        <ele>669.9</ele>
      </trkpt>
      <trkpt lat="42.7524800" lon="-7.2944200">
        <ele>672.8</ele>
      </trkpt>
      <trkpt lat="42.7524800" lon="-7.2946700">
        <ele>675.7</ele>
      </trkpt>
      <trkpt lat="42.7521200" lon="-7.2949800">
        <ele>678.1</ele>
      </trkpt>
      <trkpt lat="42.7518200" lon="-7.2957100">
        <ele>679.9</ele>
      </trkpt>
      <trkpt lat="42.7516900" lon="-7.2962600">
        <ele>683.7</ele>
      </trkpt>
      <trkpt lat="42.7517000" lon="-7.2969800">
        <ele>687.5</ele>
      </trkpt>
      <trkpt lat="42.7524400" lon="-7.2981800">
        <ele>691.1</ele>
      </trkpt>
      <trkpt lat="42.7525400" lon="-7.2999200">
        <ele>695.2</ele>
      </trkpt>
      <trkpt lat="42.7530700" lon="-7.2988700">
        <ele>700.1</ele>
      </trkpt>
      <trkpt lat="42.7532700" lon="-7.2986300">
        <ele>702.7</ele>
      </trkpt>
      <trkpt lat="42.7544200" lon="-7.2987000">
        <ele>706.2</ele>
      </trkpt>
      <trkpt lat="42.7546100" lon="-7.2986400">
        <ele>709.9</ele>
      </trkpt>
      <trkpt lat="42.7556100" lon="-7.2978300">
        <ele>713.3</ele>
      </trkpt>
      <trkpt lat="42.7570300" lon="-7.2972100">
        <ele>716.4</ele>
      </trkpt>
      <trkpt lat="42.7575600" lon="-7.2971800">
        <ele>720.8</ele>
      </trkpt>
      <trkpt lat="42.7578900" lon="-7.2973200">
        <ele>726.2</ele>
      </trkpt>
      <trkpt lat="42.7587500" lon="-7.2985800">
        <ele>730.8</ele>
      </trkpt>
      <trkpt lat="42.7605900" lon="-7.3002300">
        <ele>734.5</ele>
      </trkpt>
      <trkpt lat="42.7618900" lon="-7.3016300">
        <ele>737.5</ele>
      </trkpt>
      <trkpt lat="42.7621200" lon="-7.3017100">
        <ele>739.6</ele>
      </trkpt>
      <trkpt lat="42.7622700" lon="-7.3016400">
        <ele>741.7</ele>
      </trkpt>
      <trkpt lat="42.7623400" lon="-7.3015000">
        <ele>743.5</ele>
      </trkpt>
      <trkpt lat="42.7625200" lon="-7.3008400">
        <ele>745.2</ele>
      </trkpt>
      <trkpt lat="42.7629700" lon="-7.3003700">
        <ele>746.9</ele>
      </trkpt>
      <trkpt lat="42.7640200" lon="-7.2995200">
        <ele>748.3</ele>
      </trkpt>
      <trkpt lat="42.7651300" lon="-7.2983200">
        <ele>748.3</ele>
      </trkpt>
      <trkpt lat="42.7660400" lon="-7.2976300">
        <ele>748.6</ele>
      </trkpt>
      <trkpt lat="42.7666300" lon="-7.2974300">
        <ele>749.1</ele>
      </trkpt>
      <trkpt lat="42.7667300" lon="-7.2976100">
        <ele>749.4</ele>
      </trkpt>
      <trkpt lat="42.7663500" lon="-7.2998000">
        <ele>748.1</ele>
      </trkpt>
      <trkpt lat="42.7649400" lon="-7.3037800">
        <ele>745.7</ele>
      </trkpt>
      <trkpt lat="42.7641900" lon="-7.3046900">
        <ele>742.3</ele>
      </trkpt>
      <trkpt lat="42.7641300" lon="-7.3050900">
        <ele>738.3</ele>
      </trkpt>
      <trkpt lat="42.7644500" lon="-7.3055300">
        <ele>734.7</ele>
      </trkpt>
      <trkpt lat="42.7652500" lon="-7.3059600">
        <ele>733.2</ele>
      </trkpt>
      <trkpt lat="42.7659300" lon="-7.3057400">
        <ele>733.4</ele>
      </trkpt>
      <trkpt lat="42.7662000" lon="-7.3055100">
        <ele>734.3</ele>
      </trkpt>
      <trkpt lat="42.7666200" lon="-7.3048900">
        <ele>736.5</ele>
      </trkpt>
      <trkpt lat="42.7668600" lon="-7.3049600">
        <ele>738.5</ele>
      </trkpt>
      <trkpt lat="42.7674000" lon="-7.3055000">
        <ele>739.2</ele>
      </trkpt>
      <trkpt lat="42.7674400" lon="-7.3058800">
        <ele>738.1</ele>
      </trkpt>
      <trkpt lat="42.7671600" lon="-7.3066400">
        <ele>735.8</ele>
      </trkpt>
      <trkpt lat="42.7669900" lon="-7.3073600">
        <ele>731.3</ele>
      </trkpt>
      <trkpt lat="42.7670000" lon="-7.3083800">
        <ele>721.9</ele>
      </trkpt>
      <trkpt lat="42.7670700" lon="-7.3092300">
        <ele>713.0</ele>
      </trkpt>
      <trkpt lat="42.7676100" lon="-7.3113600">
        <ele>703.7</ele>
      </trkpt>
      <trkpt lat="42.7675800" lon="-7.3114600">
        <ele>694.7</ele>
      </trkpt>
      <trkpt lat="42.7676500" lon="-7.3116900">
        <ele>687.3</ele>
      </trkpt>
      <trkpt lat="42.7680700" lon="-7.3119900">
        <ele>684.4</ele>
      </trkpt>
      <trkpt lat="42.7681600" lon="-7.3121300">
        <ele>681.7</ele>
      </trkpt>
      <trkpt lat="42.7681400" lon="-7.3122400">
        <ele>679.2</ele>
      </trkpt>
      <trkpt lat="42.7674000" lon="-7.3130100">
        <ele>676.8</ele>
      </trkpt>
      <trkpt lat="42.7668300" lon="-7.3134600">
        <ele>673.7</ele>
      </trkpt>
      <trkpt lat="42.7665200" lon="-7.3138700">
        <ele>671.1</ele>
      </trkpt>
      <trkpt lat="42.7667100" lon="-7.3147600">
        <ele>668.5</ele>
      </trkpt>
      <trkpt lat="42.7665600" lon="-7.3162600">
        <ele>665.8</ele>
      </trkpt>
      <trkpt lat="42.7667200" lon="-7.3166900">
        <ele>662.7</ele>
      </trkpt>
      <trkpt lat="42.7669500" lon="-7.3166400">
        <ele>660.4</ele>
      </trkpt>
      <trkpt lat="42.7673000" lon="-7.3162100">
        <ele>658.4</ele>
      </trkpt>
      <trkpt lat="42.7673600" lon="-7.3159600">
        <ele>656.5</ele>
      </trkpt>
      <trkpt lat="42.7673300" lon="-7.3151200">
        <ele>654.7</ele>
      </trkpt>
      <trkpt lat="42.7674300" lon="-7.3149100">
        <ele>653.6</ele>
      </trkpt>
      <trkpt lat="42.7678600" lon="-7.3145800">
        <ele>652.5</ele>
      </trkpt>
      <trkpt lat="42.7682500" lon="-7.3145600">
        <ele>650.0</ele>
      </trkpt>
      <trkpt lat="42.7683700" lon="-7.3146700">
        <ele>647.2</ele>
      </trkpt>
      <trkpt lat="42.7685600" lon="-7.3152100">
        <ele>644.1</ele>
      </trkpt>
      <trkpt lat="42.7685300" lon="-7.3157000">
        <ele>641.6</ele>
      </trkpt>
      <trkpt lat="42.7686000" lon="-7.3165600">
        <ele>642.0</ele>
      </trkpt>
      <trkpt lat="42.7687500" lon="-7.3170700">
        <ele>644.5</ele>
      </trkpt>
      <trkpt lat="42.7704800" lon="-7.3185700">
        <ele>647.4</ele>
      </trkpt>
      <trkpt lat="42.7713400" lon="-7.3191500">
        <ele>650.7</ele>
      </trkpt>
      <trkpt lat="42.7715700" lon="-7.3194200">
        <ele>654.8</ele>
      </trkpt>
      <trkpt lat="42.7717400" lon="-7.3199200">
        <ele>656.3</ele>
      </trkpt>
      <trkpt lat="42.7721500" lon="-7.3202900">
        <ele>656.9</ele>
      </trkpt>
      <trkpt lat="42.7723300" lon="-7.3209200">
        <ele>657.9</ele>
      </trkpt>
      <trkpt lat="42.7728000" lon="-7.3212800">
        <ele>659.4</ele>
      </trkpt>
      <trkpt lat="42.7731200" lon="-7.3224500">
        <ele>660.0</ele>
      </trkpt>
      <trkpt lat="42.7734900" lon="-7.3233000">
        <ele>661.4</ele>
      </trkpt>
      <trkpt lat="42.7741700" lon="-7.3261700">
        <ele>664.6</ele>
      </trkpt>
      <trkpt lat="42.7741200" lon="-7.3267400">
        <ele>667.0</ele>
      </trkpt>
      <trkpt lat="42.7731700" lon="-7.3291500">
        <ele>667.9</ele>
      </trkpt>
      <trkpt lat="42.7731400" lon="-7.3308200">
        <ele>666.5</ele>
      </trkpt>
      <trkpt lat="42.7726600" lon="-7.3341800">
        <ele>663.5</ele>
      </trkpt>
      <trkpt lat="42.7728800" lon="-7.3361600">
        <ele>654.2</ele>
      </trkpt>
      <trkpt lat="42.7728700" lon="-7.3366400">
        <ele>644.2</ele>
      </trkpt>
      <trkpt lat="42.7724800" lon="-7.3383000">
        <ele>634.8</ele>
      </trkpt>
      <trkpt lat="42.7725900" lon="-7.3389400">
        <ele>625.7</ele>
      </trkpt>
      <trkpt lat="42.7731800" lon="-7.3397200">
        <ele>617.8</ele>
      </trkpt>
      <trkpt lat="42.7735100" lon="-7.3415800">
        <ele>614.4</ele>
      </trkpt>
      <trkpt lat="42.7739900" lon="-7.3421000">
        <ele>610.3</ele>
      </trkpt>
      <trkpt lat="42.7740900" lon="-7.3425000">
        <ele>606.2</ele>
      </trkpt>
      <trkpt lat="42.7734800" lon="-7.3444900">
        <ele>604.7</ele>
      </trkpt>
      <trkpt lat="42.7735200" lon="-7.3459500">
        <ele>599.3</ele>
      </trkpt>
      <trkpt lat="42.7738400" lon="-7.3468600">
        <ele>590.3</ele>
      </trkpt>
      <trkpt lat="42.7733800" lon="-7.3490000">
        <ele>582.3</ele>
      </trkpt>
      <trkpt lat="42.7730800" lon="-7.3517900">
        <ele>574.7</ele>
      </trkpt>
      <trkpt lat="42.7731900" lon="-7.3519500">
        <ele>567.5</ele>
      </trkpt>
      <trkpt lat="42.7732900" lon="-7.3519400">
        <ele>563.3</ele>
      </trkpt>
      <trkpt lat="42.7740900" lon="-7.3508800">
        <ele>561.8</ele>
      </trkpt>
      <trkpt lat="42.7742700" lon="-7.3508200">
        <ele>560.2</ele>
      </trkpt>
      <trkpt lat="42.7743800" lon="-7.3509600">
        <ele>558.1</ele>
      </trkpt>
      <trkpt lat="42.7743200" lon="-7.3512300">
        <ele>552.1</ele>
      </trkpt>
      <trkpt lat="42.7739100" lon="-7.3519600">
        <ele>545.8</ele>
      </trkpt>
      <trkpt lat="42.7735300" lon="-7.3536300">
        <ele>539.1</ele>
      </trkpt>
      <trkpt lat="42.7735200" lon="-7.3539500">
        <ele>532.7</ele>
      </trkpt>
      <trkpt lat="42.7736800" lon="-7.3546000">
        <ele>526.7</ele>
      </trkpt>
      <trkpt lat="42.7738300" lon="-7.3550100">
        <ele>523.8</ele>
      </trkpt>
      <trkpt lat="42.7740200" lon="-7.3551800">
        <ele>521.1</ele>
      </trkpt>
      <trkpt lat="42.7741300" lon="-7.3553700">
        <ele>518.1</ele>
      </trkpt>
      <trkpt lat="42.7739300" lon="-7.3558200">
        <ele>511.9</ele>
      </trkpt>
      <trkpt lat="42.7738100" lon="-7.3582700">
        <ele>505.8</ele>
      </trkpt>
      <trkpt lat="42.7726800" lon="-7.3628800">
        <ele>500.2</ele>
      </trkpt>
      <trkpt lat="42.7725900" lon="-7.3636300">
        <ele>494.6</ele>
      </trkpt>
      <trkpt lat="42.7727100" lon="-7.3642500">
        <ele>490.0</ele>
      </trkpt>
      <trkpt lat="42.7731900" lon="-7.3649600">
        <ele>488.9</ele>
      </trkpt>
      <trkpt lat="42.7733300" lon="-7.3654600">
        <ele>487.6</ele>
      </trkpt>
      <trkpt lat="42.7733500" lon="-7.3658600">
        <ele>485.8</ele>
      </trkpt>
      <trkpt lat="42.7731500" lon="-7.3669200">
        <ele>485.1</ele>
      </trkpt>
      <trkpt lat="42.7730900" lon="-7.3682700">
        <ele>485.1</ele>
      </trkpt>
      <trkpt lat="42.7732200" lon="-7.3714600">
        <ele>485.3</ele>
      </trkpt>
      <trkpt lat="42.7735200" lon="-7.3730100">
        <ele>485.9</ele>
      </trkpt>
      <trkpt lat="42.7734700" lon="-7.3742300">
        <ele>486.9</ele>
      </trkpt>
      <trkpt lat="42.7738400" lon="-7.3755700">
        <ele>484.2</ele>
      </trkpt>
      <trkpt lat="42.7740600" lon="-7.3776000">
        <ele>478.1</ele>
      </trkpt>
      <trkpt lat="42.7747200" lon="-7.3794800">
        <ele>471.1</ele>
      </trkpt>
      <trkpt lat="42.7756300" lon="-7.3828700">
        <ele>463.9</ele>
      </trkpt>
      <trkpt lat="42.7758500" lon="-7.3833400">
        <ele>456.2</ele>
      </trkpt>
      <trkpt lat="42.7763700" lon="-7.3839900">
        <ele>451.0</ele>
      </trkpt>
      <trkpt lat="42.7764900" lon="-7.3843400">
        <ele>448.4</ele>
      </trkpt>
      <trkpt lat="42.7764800" lon="-7.3848500">
        <ele>447.8</ele>
      </trkpt>
      <trkpt lat="42.7762500" lon="-7.3859600">
        <ele>447.4</ele>
      </trkpt>
      <trkpt lat="42.7760700" lon="-7.3888000">
        <ele>444.6</ele>
      </trkpt>
      <trkpt lat="42.7760700" lon="-7.3897200">
        <ele>441.2</ele>
      </trkpt>
      <trkpt lat="42.7763400" lon="-7.3931700">
        <ele>437.7</ele>
      </trkpt>
      <trkpt lat="42.7761500" lon="-7.3965500">
        <ele>432.7</ele>
      </trkpt>
      <trkpt lat="42.7761700" lon="-7.3977700">
        <ele>427.3</ele>
      </trkpt>
      <trkpt lat="42.7760800" lon="-7.3985800">
        <ele>424.5</ele>
      </trkpt>
      <trkpt lat="42.7756000" lon="-7.4002600">
        <ele>423.0</ele>
      </trkpt>
      <trkpt lat="42.7757500" lon="-7.4029900">
        <ele>422.5</ele>
      </trkpt>
      <trkpt lat="42.7755800" lon="-7.4040800">
        <ele>422.7</ele>
      </trkpt>
      <trkpt lat="42.7759300" lon="-7.4056100">
        <ele>422.9</ele>
      </trkpt>
      <trkpt lat="42.7757500" lon="-7.4063900">
        <ele>423.3</ele>
      </trkpt>
      <trkpt lat="42.7763000" lon="-7.4072100">
        <ele>423.5</ele>
      </trkpt>
      <trkpt lat="42.7757800" lon="-7.4075100">
        <ele>423.4</ele>
      </trkpt>
      <trkpt lat="42.7755100" lon="-7.4073400">
        <ele>422.6</ele>
      </trkpt>
      <trkpt lat="42.7752600" lon="-7.4075300">
        <ele>422.0</ele>
      </trkpt>
      <trkpt lat="42.7749300" lon="-7.4080300">
        <ele>421.6</ele>
      </trkpt>
      <trkpt lat="42.7748600" lon="-7.4084000">
        <ele>421.2</ele>
      </trkpt>
      <trkpt lat="42.7749000" lon="-7.4088500">
        <ele>420.9</ele>
      </trkpt>
    </trkseg>
  </trk>
</gpx>