<?xml version='1.0' encoding='utf-8'?>
<gpx xmlns="http://www.topografix.com/GPX/1/1" version="1.1" creator="add_waypoints.py">
  <metadata>
    <name>Camino day13</name>
  </metadata>
  <wpt lat="42.9284820" lon="-8.2144991">
    <name>Albergue Taberna Vella</name>
    <desc>Lugar de Taberna Vella s/n, As Quintas Â· Tel +34 687 543 810</desc>
    <sym>Restaurant</sym>
    <cmt>Lugar de Taberna Vella s/n, As Quintas Â· Tel +34 687 543 810</cmt>
  </wpt>
  <wpt lat="42.9160969" lon="-8.2431664">
    <name>Albergue A Ponte de Ferreiros</name>
    <desc>A Ponte de ferreiros 1, A Calle de Ferreiros Â· Tel +34 665 641 877</desc>
    <sym>Lodging</sym>
    <cmt>A Ponte de ferreiros 1, A Calle de Ferreiros Â· Tel +34 665 641 877</cmt>
  </wpt>
  <wpt lat="42.9183120" lon="-8.3358020">
    <name>Xunta Albergue de peregrinos de Santa Irene</name>
    <desc>Santa Irene s/n, Santa Irene</desc>
    <sym>Lodging</sym>
    <cmt>Santa Irene s/n, Santa Irene</cmt>
  </wpt>
  <wpt lat="42.9002318" lon="-8.4477384">
    <name>Albergue A Fábrica</name>
    <desc>Lavacolla 55, Lavacolla Â· Tel +34 681 075 647</desc>
    <sym>Lodging</sym>
    <cmt>Lavacolla 55, Lavacolla Â· Tel +34 681 075 647</cmt>
  </wpt>
  <wpt lat="42.8881164" lon="-8.4962436">
    <name>Xunta Albergue de peregrinos del Monte do Gozo</name>
    <desc>Rúa do Gozo 18, Monte do Gozo Â· Tel +34 981 558 942</desc>
    <sym>Lodging</sym>
    <cmt>Rúa do Gozo 18, Monte do Gozo Â· Tel +34 981 558 942</cmt>
  </wpt>
  <wpt lat="42.8855639" lon="-8.5005446">
    <name>Monte do Gozo</name>
    <desc>환희의 언덕</desc>
    <sym>Summit</sym>
    <type>photo</type>
    <cmt>환희의 언덕</cmt>
  </wpt>
  <wpt lat="42.8806880" lon="-8.5443954">
    <name>Catedral de Santiago de Compostela</name>
    <desc>산티아고 대성당</desc>
    <sym>Church</sym>
    <type>photo</type>
    <cmt>산티아고 대성당</cmt>
  </wpt>
  <trk>
    <name>Camino day13</name>
    <trkseg>
      <trkpt lat="42.9276800" lon="-8.1592800">
        <ele>393.0</ele>
      </trkpt>
      <trkpt lat="42.9273200" lon="-8.1603700">
        <ele>391.8</ele>
      </trkpt>
      <trkpt lat="42.9271600" lon="-8.1604000">
        <ele>390.5</ele>
      </trkpt>
      <trkpt lat="42.9269200" lon="-8.1609900">
        <ele>389.3</ele>
      </trkpt>
      <trkpt lat="42.9266700" lon="-8.1615700">
        <ele>388.4</ele>
      </trkpt>
      <trkpt lat="42.9263700" lon="-8.1624300">
        <ele>387.3</ele>
      </trkpt>
      <trkpt lat="42.9262200" lon="-8.1632100">
        <ele>385.4</ele>
      </trkpt>
      <trkpt lat="42.9262200" lon="-8.1639600">
        <ele>383.4</ele>
      </trkpt>
      <trkpt lat="42.9262200" lon="-8.1647000">
        <ele>380.4</ele>
      </trkpt>
      <trkpt lat="42.9263400" lon="-8.1649300">
        <ele>377.0</ele>
      </trkpt>
      <trkpt lat="42.9263000" lon="-8.1655200">
        <ele>373.1</ele>
      </trkpt>
      <trkpt lat="42.9265400" lon="-8.1661700">
        <ele>367.9</ele>
      </trkpt>
      <trkpt lat="42.9267700" lon="-8.1668200">
        <ele>362.0</ele>
      </trkpt>
      <trkpt lat="42.9267800" lon="-8.1679800">
        <ele>356.1</ele>
      </trkpt>
      <trkpt lat="42.9269000" lon="-8.1686200">
        <ele>350.2</ele>
      </trkpt>
      <trkpt lat="42.9270300" lon="-8.1692600">
        <ele>345.6</ele>
      </trkpt>
      <trkpt lat="42.9271500" lon="-8.1699000">
        <ele>344.4</ele>
      </trkpt>
      <trkpt lat="42.9270100" lon="-8.1710300">
        <ele>345.7</ele>
      </trkpt>
      <trkpt lat="42.9270300" lon="-8.1715100">
        <ele>347.9</ele>
      </trkpt>
      <trkpt lat="42.9273000" lon="-8.1726100">
        <ele>351.0</ele>
      </trkpt>
      <trkpt lat="42.9272600" lon="-8.1726200">
        <ele>353.7</ele>
      </trkpt>
      <trkpt lat="42.9273000" lon="-8.1726100">
        <ele>355.2</ele>
      </trkpt>
      <trkpt lat="42.9273500" lon="-8.1727600">
        <ele>354.8</ele>
      </trkpt>
      <trkpt lat="42.9275000" lon="-8.1734400">
        <ele>354.2</ele>
      </trkpt>
      <trkpt lat="42.9273500" lon="-8.1738500">
        <ele>353.5</ele>
      </trkpt>
      <trkpt lat="42.9270900" lon="-8.1740700">
        <ele>352.6</ele>
      </trkpt>
      <trkpt lat="42.9265800" lon="-8.1741900">
        <ele>351.4</ele>
      </trkpt>
      <trkpt lat="42.9263500" lon="-8.1744600">
        <ele>349.8</ele>
      </trkpt>
      <trkpt lat="42.9260400" lon="-8.1752700">
        <ele>347.4</ele>
      </trkpt>
      <trkpt lat="42.9257300" lon="-8.1760700">
        <ele>344.3</ele>
      </trkpt>
      <trkpt lat="42.9255200" lon="-8.1767300">
        <ele>340.4</ele>
      </trkpt>
      <trkpt lat="42.9253100" lon="-8.1773900">
        <ele>336.0</ele>
      </trkpt>
      <trkpt lat="42.9253000" lon="-8.1782700">
        <ele>331.3</ele>
      </trkpt>
      <trkpt lat="42.9252800" lon="-8.1791500">
        <ele>326.3</ele>
      </trkpt>
      <trkpt lat="42.9254200" lon="-8.1797200">
        <ele>322.0</ele>
      </trkpt>
      <trkpt lat="42.9256200" lon="-8.1802400">
        <ele>318.6</ele>
      </trkpt>
      <trkpt lat="42.9255300" lon="-8.1804000">
        <ele>316.0</ele>
      </trkpt>
      <trkpt lat="42.9250000" lon="-8.1805000">
        <ele>314.1</ele>
      </trkpt>
      <trkpt lat="42.9248800" lon="-8.1806000">
        <ele>313.2</ele>
      </trkpt>
      <trkpt lat="42.9247800" lon="-8.1808500">
        <ele>313.3</ele>
      </trkpt>
      <trkpt lat="42.9247000" lon="-8.1814800">
        <ele>314.2</ele>
      </trkpt>
      <trkpt lat="42.9246200" lon="-8.1821200">
        <ele>317.0</ele>
      </trkpt>
      <trkpt lat="42.9245400" lon="-8.1827500">
        <ele>321.0</ele>
      </trkpt>
      <trkpt lat="42.9242500" lon="-8.1834000">
        <ele>325.1</ele>
      </trkpt>
      <trkpt lat="42.9241700" lon="-8.1843400">
        <ele>328.4</ele>
      </trkpt>
      <trkpt lat="42.9240100" lon="-8.1846500">
        <ele>331.1</ele>
      </trkpt>
      <trkpt lat="42.9234500" lon="-8.1848800">
        <ele>332.2</ele>
      </trkpt>
      <trkpt lat="42.9228900" lon="-8.1851000">
        <ele>332.9</ele>
      </trkpt>
      <trkpt lat="42.9227500" lon="-8.1852700">
        <ele>334.0</ele>
      </trkpt>
      <trkpt lat="42.9226100" lon="-8.1856300">
        <ele>335.8</ele>
      </trkpt>
      <trkpt lat="42.9226800" lon="-8.1862900">
        <ele>338.2</ele>
      </trkpt>
      <trkpt lat="42.9225800" lon="-8.1868600">
        <ele>342.2</ele>
      </trkpt>
      <trkpt lat="42.9227200" lon="-8.1872100">
        <ele>346.3</ele>
      </trkpt>
      <trkpt lat="42.9227800" lon="-8.1877900">
        <ele>350.8</ele>
      </trkpt>
      <trkpt lat="42.9230300" lon="-8.1880300">
        <ele>355.3</ele>
      </trkpt>
      <trkpt lat="42.9231500" lon="-8.1883500">
        <ele>359.2</ele>
      </trkpt>
      <trkpt lat="42.9230100" lon="-8.1885400">
        <ele>361.4</ele>
      </trkpt>
      <trkpt lat="42.9230300" lon="-8.1886100">
        <ele>363.3</ele>
      </trkpt>
      <trkpt lat="42.9235200" lon="-8.1888300">
        <ele>364.6</ele>
      </trkpt>
      <trkpt lat="42.9240100" lon="-8.1890400">
        <ele>365.1</ele>
      </trkpt>
      <trkpt lat="42.9245000" lon="-8.1892600">
        <ele>365.2</ele>
      </trkpt>
      <trkpt lat="42.9249800" lon="-8.1894800">
        <ele>365.1</ele>
      </trkpt>
      <trkpt lat="42.9254700" lon="-8.1896900">
        <ele>365.0</ele>
      </trkpt>
      <trkpt lat="42.9259600" lon="-8.1899100">
        <ele>365.8</ele>
      </trkpt>
      <trkpt lat="42.9261600" lon="-8.1901800">
        <ele>367.9</ele>
      </trkpt>
      <trkpt lat="42.9261600" lon="-8.1908600">
        <ele>371.1</ele>
      </trkpt>
      <trkpt lat="42.9261600" lon="-8.1915500">
        <ele>374.8</ele>
      </trkpt>
      <trkpt lat="42.9261600" lon="-8.1922300">
        <ele>378.7</ele>
      </trkpt>
      <trkpt lat="42.9261600" lon="-8.1929100">
        <ele>382.0</ele>
      </trkpt>
      <trkpt lat="42.9263300" lon="-8.1936700">
        <ele>385.2</ele>
      </trkpt>
      <trkpt lat="42.9265000" lon="-8.1944400">
        <ele>387.8</ele>
      </trkpt>
      <trkpt lat="42.9266700" lon="-8.1952000">
        <ele>388.9</ele>
      </trkpt>
      <trkpt lat="42.9265800" lon="-8.1960200">
        <ele>388.2</ele>
      </trkpt>
      <trkpt lat="42.9261300" lon="-8.1968500">
        <ele>386.5</ele>
      </trkpt>
      <trkpt lat="42.9258800" lon="-8.1978100">
        <ele>382.1</ele>
      </trkpt>
      <trkpt lat="42.9259200" lon="-8.1979600">
        <ele>375.8</ele>
      </trkpt>
      <trkpt lat="42.9263900" lon="-8.1985900">
        <ele>369.7</ele>
      </trkpt>
      <trkpt lat="42.9270600" lon="-8.1993400">
        <ele>365.2</ele>
      </trkpt>
      <trkpt lat="42.9273700" lon="-8.2000900">
        <ele>361.8</ele>
      </trkpt>
      <trkpt lat="42.9276800" lon="-8.2008400">
        <ele>361.5</ele>
      </trkpt>
      <trkpt lat="42.9276300" lon="-8.2013100">
        <ele>363.6</ele>
      </trkpt>
      <trkpt lat="42.9278200" lon="-8.2019100">
        <ele>367.4</ele>
      </trkpt>
      <trkpt lat="42.9278200" lon="-8.2022300">
        <ele>372.1</ele>
      </trkpt>
      <trkpt lat="42.9277100" lon="-8.2028400">
        <ele>377.0</ele>
      </trkpt>
      <trkpt lat="42.9275900" lon="-8.2034400">
        <ele>381.3</ele>
      </trkpt>
      <trkpt lat="42.9274800" lon="-8.2040500">
        <ele>385.5</ele>
      </trkpt>
      <trkpt lat="42.9274600" lon="-8.2047900">
        <ele>388.9</ele>
      </trkpt>
      <trkpt lat="42.9274400" lon="-8.2055300">
        <ele>391.4</ele>
      </trkpt>
      <trkpt lat="42.9274900" lon="-8.2061500">
        <ele>393.3</ele>
      </trkpt>
      <trkpt lat="42.9275400" lon="-8.2067600">
        <ele>394.5</ele>
      </trkpt>
      <trkpt lat="42.9275900" lon="-8.2073800">
        <ele>395.2</ele>
      </trkpt>
      <trkpt lat="42.9275700" lon="-8.2077700">
        <ele>396.3</ele>
      </trkpt>
      <trkpt lat="42.9275900" lon="-8.2079600">
        <ele>397.7</ele>
      </trkpt>
      <trkpt lat="42.9278400" lon="-8.2085200">
        <ele>398.8</ele>
      </trkpt>
      <trkpt lat="42.9280800" lon="-8.2090800">
        <ele>400.1</ele>
      </trkpt>
      <trkpt lat="42.9283300" lon="-8.2096400">
        <ele>401.8</ele>
      </trkpt>
      <trkpt lat="42.9285900" lon="-8.2105200">
        <ele>403.0</ele>
      </trkpt>
      <trkpt lat="42.9286400" lon="-8.2112300">
        <ele>403.8</ele>
      </trkpt>
      <trkpt lat="42.9286900" lon="-8.2119400">
        <ele>403.7</ele>
      </trkpt>
      <trkpt lat="42.9287400" lon="-8.2126500">
        <ele>402.8</ele>
      </trkpt>
      <trkpt lat="42.9287900" lon="-8.2133600">
        <ele>402.1</ele>
      </trkpt>
      <trkpt lat="42.9287600" lon="-8.2140200">
        <ele>402.3</ele>
      </trkpt>
      <trkpt lat="42.9284300" lon="-8.2147700">
        <ele>402.5</ele>
      </trkpt>
      <trkpt lat="42.9281000" lon="-8.2155200">
        <ele>403.3</ele>
      </trkpt>
      <trkpt lat="42.9278800" lon="-8.2161000">
        <ele>404.3</ele>
      </trkpt>
      <trkpt lat="42.9276600" lon="-8.2166700">
        <ele>403.7</ele>
      </trkpt>
      <trkpt lat="42.9274300" lon="-8.2172500">
        <ele>401.7</ele>
      </trkpt>
      <trkpt lat="42.9272100" lon="-8.2178300">
        <ele>399.5</ele>
      </trkpt>
      <trkpt lat="42.9271300" lon="-8.2179600">
        <ele>396.2</ele>
      </trkpt>
      <trkpt lat="42.9270100" lon="-8.2180100">
        <ele>392.5</ele>
      </trkpt>
      <trkpt lat="42.9268500" lon="-8.2185900">
        <ele>389.7</ele>
      </trkpt>
      <trkpt lat="42.9266900" lon="-8.2191600">
        <ele>387.3</ele>
      </trkpt>
      <trkpt lat="42.9265300" lon="-8.2197400">
        <ele>385.5</ele>
      </trkpt>
      <trkpt lat="42.9263800" lon="-8.2203100">
        <ele>384.9</ele>
      </trkpt>
      <trkpt lat="42.9262200" lon="-8.2208900">
        <ele>385.1</ele>
      </trkpt>
      <trkpt lat="42.9260600" lon="-8.2214600">
        <ele>385.9</ele>
      </trkpt>
      <trkpt lat="42.9259000" lon="-8.2220400">
        <ele>386.8</ele>
      </trkpt>
      <trkpt lat="42.9258900" lon="-8.2229100">
        <ele>387.3</ele>
      </trkpt>
      <trkpt lat="42.9257000" lon="-8.2234900">
        <ele>387.9</ele>
      </trkpt>
      <trkpt lat="42.9255100" lon="-8.2240700">
        <ele>388.3</ele>
      </trkpt>
      <trkpt lat="42.9252600" lon="-8.2246500">
        <ele>388.3</ele>
      </trkpt>
      <trkpt lat="42.9250100" lon="-8.2252300">
        <ele>387.6</ele>
      </trkpt>
      <trkpt lat="42.9247600" lon="-8.2258100">
        <ele>386.3</ele>
      </trkpt>
      <trkpt lat="42.9245100" lon="-8.2263900">
        <ele>385.4</ele>
      </trkpt>
      <trkpt lat="42.9240100" lon="-8.2269300">
        <ele>385.3</ele>
      </trkpt>
      <trkpt lat="42.9237300" lon="-8.2275300">
        <ele>386.7</ele>
      </trkpt>
      <trkpt lat="42.9234400" lon="-8.2281300">
        <ele>389.2</ele>
      </trkpt>
      <trkpt lat="42.9229700" lon="-8.2287500">
        <ele>392.6</ele>
      </trkpt>
      <trkpt lat="42.9227200" lon="-8.2292400">
        <ele>396.2</ele>
      </trkpt>
      <trkpt lat="42.9224800" lon="-8.2299600">
        <ele>398.8</ele>
      </trkpt>
      <trkpt lat="42.9222500" lon="-8.2306900">
        <ele>399.3</ele>
      </trkpt>
      <trkpt lat="42.9220100" lon="-8.2314100">
        <ele>399.0</ele>
      </trkpt>
      <trkpt lat="42.9217900" lon="-8.2319500">
        <ele>397.8</ele>
      </trkpt>
      <trkpt lat="42.9215700" lon="-8.2325000">
        <ele>395.5</ele>
      </trkpt>
      <trkpt lat="42.9212800" lon="-8.2330700">
        <ele>393.6</ele>
      </trkpt>
      <trkpt lat="42.9209900" lon="-8.2336300">
        <ele>393.0</ele>
      </trkpt>
      <trkpt lat="42.9208600" lon="-8.2339900">
        <ele>391.6</ele>
      </trkpt>
      <trkpt lat="42.9207400" lon="-8.2348000">
        <ele>390.0</ele>
      </trkpt>
      <trkpt lat="42.9203800" lon="-8.2356300">
        <ele>387.1</ele>
      </trkpt>
      <trkpt lat="42.9203700" lon="-8.2363800">
        <ele>383.1</ele>
      </trkpt>
      <trkpt lat="42.9203500" lon="-8.2371200">
        <ele>378.0</ele>
      </trkpt>
      <trkpt lat="42.9200900" lon="-8.2374300">
        <ele>373.6</ele>
      </trkpt>
      <trkpt lat="42.9198100" lon="-8.2376400">
        <ele>370.2</ele>
      </trkpt>
      <trkpt lat="42.9195200" lon="-8.2383200">
        <ele>367.8</ele>
      </trkpt>
      <trkpt lat="42.9192200" lon="-8.2390000">
        <ele>366.2</ele>
      </trkpt>
      <trkpt lat="42.9189300" lon="-8.2396800">
        <ele>364.9</ele>
      </trkpt>
      <trkpt lat="42.9184000" lon="-8.2403200">
        <ele>363.7</ele>
      </trkpt>
      <trkpt lat="42.9182400" lon="-8.2403900">
        <ele>361.4</ele>
      </trkpt>
      <trkpt lat="42.9181200" lon="-8.2405400">
        <ele>358.5</ele>
      </trkpt>
      <trkpt lat="42.9180100" lon="-8.2409800">
        <ele>355.0</ele>
      </trkpt>
      <trkpt lat="42.9176800" lon="-8.2416200">
        <ele>350.9</ele>
      </trkpt>
      <trkpt lat="42.9178800" lon="-8.2422700">
        <ele>346.8</ele>
      </trkpt>
      <trkpt lat="42.9180800" lon="-8.2429300">
        <ele>343.8</ele>
      </trkpt>
      <trkpt lat="42.9182400" lon="-8.2432600">
        <ele>341.9</ele>
      </trkpt>
      <trkpt lat="42.9181800" lon="-8.2433600">
        <ele>340.5</ele>
      </trkpt>
      <trkpt lat="42.9179700" lon="-8.2434200">
        <ele>339.7</ele>
      </trkpt>
      <trkpt lat="42.9177600" lon="-8.2436600">
        <ele>339.0</ele>
      </trkpt>
      <trkpt lat="42.9176500" lon="-8.2436800">
        <ele>338.4</ele>
      </trkpt>
      <trkpt lat="42.9176100" lon="-8.2446500">
        <ele>338.4</ele>
      </trkpt>
      <trkpt lat="42.9177900" lon="-8.2447300">
        <ele>338.9</ele>
      </trkpt>
      <trkpt lat="42.9177500" lon="-8.2457000">
        <ele>340.4</ele>
      </trkpt>
      <trkpt lat="42.9179300" lon="-8.2463300">
        <ele>342.7</ele>
      </trkpt>
      <trkpt lat="42.9180600" lon="-8.2471500">
        <ele>345.2</ele>
      </trkpt>
      <trkpt lat="42.9181800" lon="-8.2479800">
        <ele>347.4</ele>
      </trkpt>
      <trkpt lat="42.9184200" lon="-8.2490000">
        <ele>350.6</ele>
      </trkpt>
      <trkpt lat="42.9185300" lon="-8.2496200">
        <ele>354.1</ele>
      </trkpt>
      <trkpt lat="42.9186300" lon="-8.2502500">
        <ele>357.7</ele>
      </trkpt>
      <trkpt lat="42.9187400" lon="-8.2508700">
        <ele>361.0</ele>
      </trkpt>
      <trkpt lat="42.9190600" lon="-8.2515200">
        <ele>364.3</ele>
      </trkpt>
      <trkpt lat="42.9193800" lon="-8.2521700">
        <ele>367.6</ele>
      </trkpt>
      <trkpt lat="42.9197000" lon="-8.2528200">
        <ele>370.1</ele>
      </trkpt>
      <trkpt lat="42.9205200" lon="-8.2533200">
        <ele>372.9</ele>
      </trkpt>
      <trkpt lat="42.9211500" lon="-8.2541400">
        <ele>374.9</ele>
      </trkpt>
      <trkpt lat="42.9215100" lon="-8.2552200">
        <ele>376.7</ele>
      </trkpt>
      <trkpt lat="42.9217700" lon="-8.2558200">
        <ele>377.0</ele>
      </trkpt>
      <trkpt lat="42.9220400" lon="-8.2564300">
        <ele>377.0</ele>
      </trkpt>
      <trkpt lat="42.9223000" lon="-8.2570300">
        <ele>376.4</ele>
      </trkpt>
      <trkpt lat="42.9224200" lon="-8.2581800">
        <ele>376.5</ele>
      </trkpt>
      <trkpt lat="42.9224200" lon="-8.2588300">
        <ele>376.7</ele>
      </trkpt>
      <trkpt lat="42.9222900" lon="-8.2588500">
        <ele>376.2</ele>
      </trkpt>
      <trkpt lat="42.9222700" lon="-8.2600500">
        <ele>374.3</ele>
      </trkpt>
      <trkpt lat="42.9223900" lon="-8.2609100">
        <ele>372.2</ele>
      </trkpt>
      <trkpt lat="42.9225100" lon="-8.2617600">
        <ele>370.0</ele>
      </trkpt>
      <trkpt lat="42.9227400" lon="-8.2620200">
        <ele>367.4</ele>
      </trkpt>
      <trkpt lat="42.9228300" lon="-8.2622400">
        <ele>365.3</ele>
      </trkpt>
      <trkpt lat="42.9229800" lon="-8.2628200">
        <ele>364.6</ele>
      </trkpt>
      <trkpt lat="42.9231300" lon="-8.2634000">
        <ele>363.9</ele>
      </trkpt>
      <trkpt lat="42.9232800" lon="-8.2639800">
        <ele>363.7</ele>
      </trkpt>
      <trkpt lat="42.9234300" lon="-8.2645600">
        <ele>364.7</ele>
      </trkpt>
      <trkpt lat="42.9235800" lon="-8.2651400">
        <ele>366.4</ele>
      </trkpt>
      <trkpt lat="42.9235800" lon="-8.2658800">
        <ele>368.4</ele>
      </trkpt>
      <trkpt lat="42.9234600" lon="-8.2664100">
        <ele>370.3</ele>
      </trkpt>
      <trkpt lat="42.9235100" lon="-8.2670300">
        <ele>372.6</ele>
      </trkpt>
      <trkpt lat="42.9236700" lon="-8.2675200">
        <ele>376.0</ele>
      </trkpt>
      <trkpt lat="42.9242700" lon="-8.2683300">
        <ele>379.0</ele>
      </trkpt>
      <trkpt lat="42.9247400" lon="-8.2687100">
        <ele>381.4</ele>
      </trkpt>
      <trkpt lat="42.9248900" lon="-8.2690200">
        <ele>383.5</ele>
      </trkpt>
      <trkpt lat="42.9249900" lon="-8.2696500">
        <ele>383.9</ele>
      </trkpt>
      <trkpt lat="42.9250900" lon="-8.2702700">
        <ele>382.1</ele>
      </trkpt>
      <trkpt lat="42.9251900" lon="-8.2709000">
        <ele>379.7</ele>
      </trkpt>
      <trkpt lat="42.9252900" lon="-8.2715200">
        <ele>377.3</ele>
      </trkpt>
      <trkpt lat="42.9254500" lon="-8.2723100">
        <ele>374.7</ele>
      </trkpt>
      <trkpt lat="42.9256100" lon="-8.2730900">
        <ele>372.9</ele>
      </trkpt>
      <trkpt lat="42.9257700" lon="-8.2738800">
        <ele>371.3</ele>
      </trkpt>
      <trkpt lat="42.9260500" lon="-8.2742600">
        <ele>369.6</ele>
      </trkpt>
      <trkpt lat="42.9263700" lon="-8.2752300">
        <ele>367.6</ele>
      </trkpt>
      <trkpt lat="42.9264200" lon="-8.2760300">
        <ele>365.8</ele>
      </trkpt>
      <trkpt lat="42.9264700" lon="-8.2768300">
        <ele>363.9</ele>
      </trkpt>
      <trkpt lat="42.9263500" lon="-8.2774800">
        <ele>362.4</ele>
      </trkpt>
      <trkpt lat="42.9262200" lon="-8.2776500">
        <ele>361.2</ele>
      </trkpt>
      <trkpt lat="42.9262900" lon="-8.2782800">
        <ele>360.6</ele>
      </trkpt>
      <trkpt lat="42.9263500" lon="-8.2789200">
        <ele>360.5</ele>
      </trkpt>
      <trkpt lat="42.9264200" lon="-8.2795500">
        <ele>360.8</ele>
      </trkpt>
      <trkpt lat="42.9264200" lon="-8.2803000">
        <ele>362.0</ele>
      </trkpt>
      <trkpt lat="42.9262900" lon="-8.2810200">
        <ele>364.4</ele>
      </trkpt>
      <trkpt lat="42.9259500" lon="-8.2820000">
        <ele>367.7</ele>
      </trkpt>
      <trkpt lat="42.9256400" lon="-8.2827000">
        <ele>371.5</ele>
      </trkpt>
      <trkpt lat="42.9254100" lon="-8.2836900">
        <ele>376.9</ele>
      </trkpt>
      <trkpt lat="42.9254700" lon="-8.2845700">
        <ele>382.2</ele>
      </trkpt>
      <trkpt lat="42.9253200" lon="-8.2853800">
        <ele>386.1</ele>
      </trkpt>
      <trkpt lat="42.9251600" lon="-8.2861800">
        <ele>388.2</ele>
      </trkpt>
      <trkpt lat="42.9251900" lon="-8.2869200">
        <ele>389.5</ele>
      </trkpt>
      <trkpt lat="42.9249900" lon="-8.2879400">
        <ele>389.2</ele>
      </trkpt>
      <trkpt lat="42.9247700" lon="-8.2886100">
        <ele>388.3</ele>
      </trkpt>
      <trkpt lat="42.9244900" lon="-8.2892000">
        <ele>388.3</ele>
      </trkpt>
      <trkpt lat="42.9243300" lon="-8.2897700">
        <ele>389.2</ele>
      </trkpt>
      <trkpt lat="42.9241700" lon="-8.2903500">
        <ele>390.4</ele>
      </trkpt>
      <trkpt lat="42.9241100" lon="-8.2903000">
        <ele>392.8</ele>
      </trkpt>
      <trkpt lat="42.9239600" lon="-8.2905000">
        <ele>396.0</ele>
      </trkpt>
      <trkpt lat="42.9236000" lon="-8.2911200">
        <ele>398.5</ele>
      </trkpt>
      <trkpt lat="42.9232300" lon="-8.2917300">
        <ele>400.7</ele>
      </trkpt>
      <trkpt lat="42.9231000" lon="-8.2922600">
        <ele>402.3</ele>
      </trkpt>
      <trkpt lat="42.9227200" lon="-8.2930700">
        <ele>402.6</ele>
      </trkpt>
      <trkpt lat="42.9225300" lon="-8.2936300">
        <ele>401.7</ele>
      </trkpt>
      <trkpt lat="42.9222700" lon="-8.2941700">
        <ele>400.5</ele>
      </trkpt>
      <trkpt lat="42.9220100" lon="-8.2947100">
        <ele>398.8</ele>
      </trkpt>
      <trkpt lat="42.9216400" lon="-8.2952300">
        <ele>396.9</ele>
      </trkpt>
      <trkpt lat="42.9213500" lon="-8.2960700">
        <ele>394.6</ele>
      </trkpt>
      <trkpt lat="42.9210000" lon="-8.2964900">
        <ele>392.2</ele>
      </trkpt>
      <trkpt lat="42.9206400" lon="-8.2969000">
        <ele>388.5</ele>
      </trkpt>
      <trkpt lat="42.9204200" lon="-8.2973000">
        <ele>385.2</ele>
      </trkpt>
      <trkpt lat="42.9202300" lon="-8.2982300">
        <ele>382.1</ele>
      </trkpt>
      <trkpt lat="42.9202500" lon="-8.2986700">
        <ele>379.2</ele>
      </trkpt>
      <trkpt lat="42.9201700" lon="-8.2989800">
        <ele>376.8</ele>
      </trkpt>
      <trkpt lat="42.9194700" lon="-8.2996600">
        <ele>376.2</ele>
      </trkpt>
      <trkpt lat="42.9192100" lon="-8.3002300">
        <ele>376.3</ele>
      </trkpt>
      <trkpt lat="42.9190700" lon="-8.3007800">
        <ele>376.6</ele>
      </trkpt>
      <trkpt lat="42.9191200" lon="-8.3009200">
        <ele>377.0</ele>
      </trkpt>
      <trkpt lat="42.9190600" lon="-8.3010100">
        <ele>377.2</ele>
      </trkpt>
      <trkpt lat="42.9190500" lon="-8.3017000">
        <ele>377.4</ele>
      </trkpt>
      <trkpt lat="42.9191300" lon="-8.3023500">
        <ele>377.8</ele>
      </trkpt>
      <trkpt lat="42.9192200" lon="-8.3029900">
        <ele>378.0</ele>
      </trkpt>
      <trkpt lat="42.9193000" lon="-8.3036400">
        <ele>377.9</ele>
      </trkpt>
      <trkpt lat="42.9191800" lon="-8.3044100">
        <ele>377.7</ele>
      </trkpt>
      <trkpt lat="42.9190600" lon="-8.3051800">
        <ele>376.9</ele>
      </trkpt>
      <trkpt lat="42.9188100" lon="-8.3052800">
        <ele>375.6</ele>
      </trkpt>
      <trkpt lat="42.9188400" lon="-8.3055900">
        <ele>373.7</ele>
      </trkpt>
      <trkpt lat="42.9189900" lon="-8.3057900">
        <ele>371.9</ele>
      </trkpt>
      <trkpt lat="42.9190000" lon="-8.3068600">
        <ele>369.9</ele>
      </trkpt>
      <trkpt lat="42.9184900" lon="-8.3077600">
        <ele>368.5</ele>
      </trkpt>
      <trkpt lat="42.9183900" lon="-8.3084000">
        <ele>367.5</ele>
      </trkpt>
      <trkpt lat="42.9184800" lon="-8.3088200">
        <ele>367.8</ele>
      </trkpt>
      <trkpt lat="42.9183400" lon="-8.3091600">
        <ele>368.8</ele>
      </trkpt>
      <trkpt lat="42.9183900" lon="-8.3101000">
        <ele>369.4</ele>
      </trkpt>
      <trkpt lat="42.9183200" lon="-8.3106900">
        <ele>370.2</ele>
      </trkpt>
      <trkpt lat="42.9174800" lon="-8.3104400">
        <ele>371.4</ele>
      </trkpt>
      <trkpt lat="42.9174200" lon="-8.3110700">
        <ele>372.4</ele>
      </trkpt>
      <trkpt lat="42.9173600" lon="-8.3117000">
        <ele>373.5</ele>
      </trkpt>
      <trkpt lat="42.9172900" lon="-8.3123300">
        <ele>375.4</ele>
      </trkpt>
      <trkpt lat="42.9172300" lon="-8.3129500">
        <ele>377.2</ele>
      </trkpt>
      <trkpt lat="42.9171700" lon="-8.3135800">
        <ele>378.9</ele>
      </trkpt>
      <trkpt lat="42.9171100" lon="-8.3142100">
        <ele>380.3</ele>
      </trkpt>
      <trkpt lat="42.9170400" lon="-8.3148400">
        <ele>381.1</ele>
      </trkpt>
      <trkpt lat="42.9169800" lon="-8.3154700">
        <ele>381.9</ele>
      </trkpt>
      <trkpt lat="42.9168300" lon="-8.3155200">
        <ele>382.4</ele>
      </trkpt>
      <trkpt lat="42.9167900" lon="-8.3156300">
        <ele>382.9</ele>
      </trkpt>
      <trkpt lat="42.9166800" lon="-8.3163100">
        <ele>383.7</ele>
      </trkpt>
      <trkpt lat="42.9165600" lon="-8.3169900">
        <ele>385.2</ele>
      </trkpt>
      <trkpt lat="42.9164500" lon="-8.3176700">
        <ele>387.6</ele>
      </trkpt>
      <trkpt lat="42.9163300" lon="-8.3183500">
        <ele>390.8</ele>
      </trkpt>
      <trkpt lat="42.9160700" lon="-8.3190800">
        <ele>394.0</ele>
      </trkpt>
      <trkpt lat="42.9158000" lon="-8.3198100">
        <ele>397.6</ele>
      </trkpt>
      <trkpt lat="42.9155400" lon="-8.3205400">
        <ele>400.6</ele>
      </trkpt>
      <trkpt lat="42.9153600" lon="-8.3214700">
        <ele>403.1</ele>
      </trkpt>
      <trkpt lat="42.9152700" lon="-8.3223600">
        <ele>405.0</ele>
      </trkpt>
      <trkpt lat="42.9153100" lon="-8.3230700">
        <ele>408.1</ele>
      </trkpt>
      <trkpt lat="42.9153400" lon="-8.3237900">
        <ele>411.6</ele>
      </trkpt>
      <trkpt lat="42.9160000" lon="-8.3234200">
        <ele>414.7</ele>
      </trkpt>
      <trkpt lat="42.9165500" lon="-8.3234200">
        <ele>416.7</ele>
      </trkpt>
      <trkpt lat="42.9164600" lon="-8.3240400">
        <ele>417.8</ele>
      </trkpt>
      <trkpt lat="42.9163700" lon="-8.3246500">
        <ele>416.8</ele>
      </trkpt>
      <trkpt lat="42.9163400" lon="-8.3254000">
        <ele>414.6</ele>
      </trkpt>
      <trkpt lat="42.9163900" lon="-8.3257800">
        <ele>412.2</ele>
      </trkpt>
      <trkpt lat="42.9165300" lon="-8.3262600">
        <ele>410.2</ele>
      </trkpt>
      <trkpt lat="42.9165600" lon="-8.3268800">
        <ele>408.1</ele>
      </trkpt>
      <trkpt lat="42.9167500" lon="-8.3274600">
        <ele>405.1</ele>
      </trkpt>
      <trkpt lat="42.9169400" lon="-8.3280400">
        <ele>399.7</ele>
      </trkpt>
      <trkpt lat="42.9171300" lon="-8.3286200">
        <ele>392.9</ele>
      </trkpt>
      <trkpt lat="42.9173100" lon="-8.3295000">
        <ele>385.2</ele>
      </trkpt>
      <trkpt lat="42.9174900" lon="-8.3303800">
        <ele>377.9</ele>
      </trkpt>
      <trkpt lat="42.9175600" lon="-8.3311100">
        <ele>372.1</ele>
      </trkpt>
      <trkpt lat="42.9176200" lon="-8.3318300">
        <ele>368.8</ele>
      </trkpt>
      <trkpt lat="42.9176900" lon="-8.3325600">
        <ele>367.6</ele>
      </trkpt>
      <trkpt lat="42.9179000" lon="-8.3337100">
        <ele>365.9</ele>
      </trkpt>
      <trkpt lat="42.9180800" lon="-8.3341900">
        <ele>363.2</ele>
      </trkpt>
      <trkpt lat="42.9181900" lon="-8.3350300">
        <ele>359.5</ele>
      </trkpt>
      <trkpt lat="42.9182900" lon="-8.3358600">
        <ele>355.4</ele>
      </trkpt>
      <trkpt lat="42.9183400" lon="-8.3365000">
        <ele>350.7</ele>
      </trkpt>
      <trkpt lat="42.9183900" lon="-8.3371400">
        <ele>347.0</ele>
      </trkpt>
      <trkpt lat="42.9184300" lon="-8.3377700">
        <ele>345.0</ele>
      </trkpt>
      <trkpt lat="42.9184800" lon="-8.3384100">
        <ele>344.6</ele>
      </trkpt>
      <trkpt lat="42.9183500" lon="-8.3390600">
        <ele>345.3</ele>
      </trkpt>
      <trkpt lat="42.9182200" lon="-8.3397100">
        <ele>346.5</ele>
      </trkpt>
      <trkpt lat="42.9180500" lon="-8.3403300">
        <ele>347.9</ele>
      </trkpt>
      <trkpt lat="42.9178700" lon="-8.3409400">
        <ele>347.8</ele>
      </trkpt>
      <trkpt lat="42.9177000" lon="-8.3415600">
        <ele>345.3</ele>
      </trkpt>
      <trkpt lat="42.9174200" lon="-8.3423200">
        <ele>341.6</ele>
      </trkpt>
      <trkpt lat="42.9171400" lon="-8.3430800">
        <ele>338.0</ele>
      </trkpt>
      <trkpt lat="42.9169700" lon="-8.3432800">
        <ele>334.8</ele>
      </trkpt>
      <trkpt lat="42.9168600" lon="-8.3433000">
        <ele>332.6</ele>
      </trkpt>
      <trkpt lat="42.9166100" lon="-8.3432200">
        <ele>330.8</ele>
      </trkpt>
      <trkpt lat="42.9165300" lon="-8.3433400">
        <ele>329.3</ele>
      </trkpt>
      <trkpt lat="42.9165300" lon="-8.3438600">
        <ele>327.2</ele>
      </trkpt>
      <trkpt lat="42.9163100" lon="-8.3439400">
        <ele>324.4</ele>
      </trkpt>
      <trkpt lat="42.9163000" lon="-8.3443100">
        <ele>321.1</ele>
      </trkpt>
      <trkpt lat="42.9161400" lon="-8.3448800">
        <ele>318.1</ele>
      </trkpt>
      <trkpt lat="42.9159700" lon="-8.3454500">
        <ele>315.1</ele>
      </trkpt>
      <trkpt lat="42.9157000" lon="-8.3459000">
        <ele>312.9</ele>
      </trkpt>
      <trkpt lat="42.9155700" lon="-8.3462900">
        <ele>311.4</ele>
      </trkpt>
      <trkpt lat="42.9152600" lon="-8.3468200">
        <ele>309.5</ele>
      </trkpt>
      <trkpt lat="42.9149500" lon="-8.3473500">
        <ele>306.0</ele>
      </trkpt>
      <trkpt lat="42.9146400" lon="-8.3478800">
        <ele>302.4</ele>
      </trkpt>
      <trkpt lat="42.9143000" lon="-8.3488400">
        <ele>297.8</ele>
      </trkpt>
      <trkpt lat="42.9143400" lon="-8.3490900">
        <ele>292.1</ele>
      </trkpt>
      <trkpt lat="42.9147000" lon="-8.3495000">
        <ele>287.0</ele>
      </trkpt>
      <trkpt lat="42.9146700" lon="-8.3501000">
        <ele>283.6</ele>
      </trkpt>
      <trkpt lat="42.9145300" lon="-8.3503800">
        <ele>280.3</ele>
      </trkpt>
      <trkpt lat="42.9143500" lon="-8.3509400">
        <ele>277.4</ele>
      </trkpt>
      <trkpt lat="42.9141700" lon="-8.3515100">
        <ele>275.3</ele>
      </trkpt>
      <trkpt lat="42.9139900" lon="-8.3520700">
        <ele>273.3</ele>
      </trkpt>
      <trkpt lat="42.9136100" lon="-8.3529700">
        <ele>270.9</ele>
      </trkpt>
      <trkpt lat="42.9129500" lon="-8.3537000">
        <ele>267.9</ele>
      </trkpt>
      <trkpt lat="42.9127100" lon="-8.3545500">
        <ele>264.6</ele>
      </trkpt>
      <trkpt lat="42.9124700" lon="-8.3554000">
        <ele>261.9</ele>
      </trkpt>
      <trkpt lat="42.9124600" lon="-8.3566000">
        <ele>259.8</ele>
      </trkpt>
      <trkpt lat="42.9122700" lon="-8.3573700">
        <ele>258.6</ele>
      </trkpt>
      <trkpt lat="42.9122900" lon="-8.3575600">
        <ele>259.5</ele>
      </trkpt>
      <trkpt lat="42.9120700" lon="-8.3576500">
        <ele>261.9</ele>
      </trkpt>
      <trkpt lat="42.9116600" lon="-8.3582600">
        <ele>265.4</ele>
      </trkpt>
      <trkpt lat="42.9112400" lon="-8.3588800">
        <ele>269.9</ele>
      </trkpt>
      <trkpt lat="42.9109900" lon="-8.3593800">
        <ele>274.6</ele>
      </trkpt>
      <trkpt lat="42.9105700" lon="-8.3600200">
        <ele>278.5</ele>
      </trkpt>
      <trkpt lat="42.9103400" lon="-8.3605700">
        <ele>282.4</ele>
      </trkpt>
      <trkpt lat="42.9101000" lon="-8.3611200">
        <ele>286.0</ele>
      </trkpt>
      <trkpt lat="42.9099100" lon="-8.3618300">
        <ele>289.3</ele>
      </trkpt>
      <trkpt lat="42.9097200" lon="-8.3625300">
        <ele>292.7</ele>
      </trkpt>
      <trkpt lat="42.9094400" lon="-8.3631300">
        <ele>295.8</ele>
      </trkpt>
      <trkpt lat="42.9092000" lon="-8.3634100">
        <ele>297.8</ele>
      </trkpt>
      <trkpt lat="42.9091500" lon="-8.3635800">
        <ele>298.6</ele>
      </trkpt>
      <trkpt lat="42.9089600" lon="-8.3636100">
        <ele>297.9</ele>
      </trkpt>
      <trkpt lat="42.9086300" lon="-8.3632200">
        <ele>296.5</ele>
      </trkpt>
      <trkpt lat="42.9081400" lon="-8.3634000">
        <ele>295.0</ele>
      </trkpt>
      <trkpt lat="42.9076500" lon="-8.3635700">
        <ele>293.1</ele>
      </trkpt>
      <trkpt lat="42.9074900" lon="-8.3636800">
        <ele>291.5</ele>
      </trkpt>
      <trkpt lat="42.9072100" lon="-8.3640200">
        <ele>291.3</ele>
      </trkpt>
      <trkpt lat="42.9075200" lon="-8.3644600">
        <ele>292.7</ele>
      </trkpt>
      <trkpt lat="42.9078400" lon="-8.3649000">
        <ele>294.6</ele>
      </trkpt>
      <trkpt lat="42.9081500" lon="-8.3653400">
        <ele>296.5</ele>
      </trkpt>
      <trkpt lat="42.9083400" lon="-8.3655200">
        <ele>298.3</ele>
      </trkpt>
      <trkpt lat="42.9081600" lon="-8.3661100">
        <ele>299.4</ele>
      </trkpt>
      <trkpt lat="42.9079700" lon="-8.3667000">
        <ele>299.2</ele>
      </trkpt>
      <trkpt lat="42.9077000" lon="-8.3673600">
        <ele>298.2</ele>
      </trkpt>
      <trkpt lat="42.9074200" lon="-8.3680100">
        <ele>297.0</ele>
      </trkpt>
      <trkpt lat="42.9072100" lon="-8.3688900">
        <ele>294.6</ele>
      </trkpt>
      <trkpt lat="42.9069700" lon="-8.3693400">
        <ele>290.7</ele>
      </trkpt>
      <trkpt lat="42.9066400" lon="-8.3702100">
        <ele>286.2</ele>
      </trkpt>
      <trkpt lat="42.9062600" lon="-8.3705300">
        <ele>280.6</ele>
      </trkpt>
      <trkpt lat="42.9064700" lon="-8.3710000">
        <ele>274.9</ele>
      </trkpt>
      <trkpt lat="42.9061100" lon="-8.3714500">
        <ele>270.5</ele>
      </trkpt>
      <trkpt lat="42.9057500" lon="-8.3718900">
        <ele>268.0</ele>
      </trkpt>
      <trkpt lat="42.9058000" lon="-8.3720500">
        <ele>267.5</ele>
      </trkpt>
      <trkpt lat="42.9061300" lon="-8.3724700">
        <ele>269.9</ele>
      </trkpt>
      <trkpt lat="42.9059400" lon="-8.3734400">
        <ele>273.7</ele>
      </trkpt>
      <trkpt lat="42.9057200" lon="-8.3740700">
        <ele>277.9</ele>
      </trkpt>
      <trkpt lat="42.9055300" lon="-8.3744900">
        <ele>281.4</ele>
      </trkpt>
      <trkpt lat="42.9051000" lon="-8.3749500">
        <ele>283.0</ele>
      </trkpt>
      <trkpt lat="42.9046700" lon="-8.3754000">
        <ele>283.8</ele>
      </trkpt>
      <trkpt lat="42.9042400" lon="-8.3758600">
        <ele>284.9</ele>
      </trkpt>
      <trkpt lat="42.9039600" lon="-8.3766300">
        <ele>286.7</ele>
      </trkpt>
      <trkpt lat="42.9037800" lon="-8.3774200">
        <ele>289.1</ele>
      </trkpt>
      <trkpt lat="42.9036500" lon="-8.3784600">
        <ele>291.9</ele>
      </trkpt>
      <trkpt lat="42.9036200" lon="-8.3790900">
        <ele>293.9</ele>
      </trkpt>
      <trkpt lat="42.9035900" lon="-8.3797100">
        <ele>293.8</ele>
      </trkpt>
      <trkpt lat="42.9036700" lon="-8.3805200">
        <ele>292.0</ele>
      </trkpt>
      <trkpt lat="42.9037500" lon="-8.3813300">
        <ele>289.6</ele>
      </trkpt>
      <trkpt lat="42.9036900" lon="-8.3815700">
        <ele>287.0</ele>
      </trkpt>
      <trkpt lat="42.9035400" lon="-8.3816400">
        <ele>285.4</ele>
      </trkpt>
      <trkpt lat="42.9037300" lon="-8.3823300">
        <ele>285.9</ele>
      </trkpt>
      <trkpt lat="42.9039300" lon="-8.3830200">
        <ele>287.9</ele>
      </trkpt>
      <trkpt lat="42.9041200" lon="-8.3837100">
        <ele>291.4</ele>
      </trkpt>
      <trkpt lat="42.9043100" lon="-8.3844000">
        <ele>295.4</ele>
      </trkpt>
      <trkpt lat="42.9045700" lon="-8.3851400">
        <ele>298.0</ele>
      </trkpt>
      <trkpt lat="42.9048300" lon="-8.3858800">
        <ele>298.1</ele>
      </trkpt>
      <trkpt lat="42.9048000" lon="-8.3861000">
        <ele>295.0</ele>
      </trkpt>
      <trkpt lat="42.9045800" lon="-8.3864400">
        <ele>289.6</ele>
      </trkpt>
      <trkpt lat="42.9041200" lon="-8.3866600">
        <ele>283.2</ele>
      </trkpt>
      <trkpt lat="42.9036700" lon="-8.3868900">
        <ele>276.9</ele>
      </trkpt>
      <trkpt lat="42.9032100" lon="-8.3871100">
        <ele>271.9</ele>
      </trkpt>
      <trkpt lat="42.9034100" lon="-8.3878300">
        <ele>268.5</ele>
      </trkpt>
      <trkpt lat="42.9036000" lon="-8.3885600">
        <ele>266.0</ele>
      </trkpt>
      <trkpt lat="42.9038000" lon="-8.3891100">
        <ele>264.0</ele>
      </trkpt>
      <trkpt lat="42.9042000" lon="-8.3895900">
        <ele>260.7</ele>
      </trkpt>
      <trkpt lat="42.9043500" lon="-8.3898700">
        <ele>257.7</ele>
      </trkpt>
      <trkpt lat="42.9044100" lon="-8.3908900">
        <ele>255.3</ele>
      </trkpt>
      <trkpt lat="42.9046000" lon="-8.3912200">
        <ele>253.3</ele>
      </trkpt>
      <trkpt lat="42.9046900" lon="-8.3911400">
        <ele>251.3</ele>
      </trkpt>
      <trkpt lat="42.9048800" lon="-8.3911900">
        <ele>250.3</ele>
      </trkpt>
      <trkpt lat="42.9052900" lon="-8.3915900">
        <ele>249.4</ele>
      </trkpt>
      <trkpt lat="42.9055100" lon="-8.3922000">
        <ele>249.0</ele>
      </trkpt>
      <trkpt lat="42.9057400" lon="-8.3928200">
        <ele>248.9</ele>
      </trkpt>
      <trkpt lat="42.9059600" lon="-8.3934300">
        <ele>249.8</ele>
      </trkpt>
      <trkpt lat="42.9058400" lon="-8.3939500">
        <ele>251.9</ele>
      </trkpt>
      <trkpt lat="42.9059500" lon="-8.3942800">
        <ele>254.8</ele>
      </trkpt>
      <trkpt lat="42.9058300" lon="-8.3949100">
        <ele>258.0</ele>
      </trkpt>
      <trkpt lat="42.9057000" lon="-8.3955300">
        <ele>261.6</ele>
      </trkpt>
      <trkpt lat="42.9056300" lon="-8.3962800">
        <ele>266.9</ele>
      </trkpt>
      <trkpt lat="42.9055500" lon="-8.3970200">
        <ele>272.0</ele>
      </trkpt>
      <trkpt lat="42.9054800" lon="-8.3977700">
        <ele>276.6</ele>
      </trkpt>
      <trkpt lat="42.9055800" lon="-8.3979900">
        <ele>280.8</ele>
      </trkpt>
      <trkpt lat="42.9057400" lon="-8.3980700">
        <ele>285.0</ele>
      </trkpt>
      <trkpt lat="42.9059000" lon="-8.3982700">
        <ele>287.8</ele>
      </trkpt>
      <trkpt lat="42.9061400" lon="-8.3988700">
        <ele>290.5</ele>
      </trkpt>
      <trkpt lat="42.9063800" lon="-8.3994600">
        <ele>293.2</ele>
      </trkpt>
      <trkpt lat="42.9063500" lon="-8.3999200">
        <ele>296.1</ele>
      </trkpt>
      <trkpt lat="42.9061900" lon="-8.4006900">
        <ele>298.4</ele>
      </trkpt>
      <trkpt lat="42.9060300" lon="-8.4014700">
        <ele>300.6</ele>
      </trkpt>
      <trkpt lat="42.9060500" lon="-8.4018400">
        <ele>302.6</ele>
      </trkpt>
      <trkpt lat="42.9062100" lon="-8.4022300">
        <ele>304.8</ele>
      </trkpt>
      <trkpt lat="42.9061100" lon="-8.4025200">
        <ele>306.8</ele>
      </trkpt>
      <trkpt lat="42.9058800" lon="-8.4027700">
        <ele>308.9</ele>
      </trkpt>
      <trkpt lat="42.9058000" lon="-8.4030000">
        <ele>310.9</ele>
      </trkpt>
      <trkpt lat="42.9057400" lon="-8.4036500">
        <ele>312.6</ele>
      </trkpt>
      <trkpt lat="42.9057400" lon="-8.4039200">
        <ele>314.8</ele>
      </trkpt>
      <trkpt lat="42.9059100" lon="-8.4045500">
        <ele>318.2</ele>
      </trkpt>
      <trkpt lat="42.9059000" lon="-8.4052900">
        <ele>321.8</ele>
      </trkpt>
      <trkpt lat="42.9058800" lon="-8.4060400">
        <ele>325.4</ele>
      </trkpt>
      <trkpt lat="42.9058700" lon="-8.4067800">
        <ele>329.3</ele>
      </trkpt>
      <trkpt lat="42.9058200" lon="-8.4069300">
        <ele>333.6</ele>
      </trkpt>
      <trkpt lat="42.9058800" lon="-8.4076000">
        <ele>337.3</ele>
      </trkpt>
      <trkpt lat="42.9057200" lon="-8.4086800">
        <ele>340.9</ele>
      </trkpt>
      <trkpt lat="42.9061200" lon="-8.4095800">
        <ele>344.9</ele>
      </trkpt>
      <trkpt lat="42.9062200" lon="-8.4101700">
        <ele>348.7</ele>
      </trkpt>
      <trkpt lat="42.9066000" lon="-8.4106200">
        <ele>351.9</ele>
      </trkpt>
      <trkpt lat="42.9071600" lon="-8.4108900">
        <ele>355.9</ele>
      </trkpt>
      <trkpt lat="42.9073800" lon="-8.4112000">
        <ele>360.1</ele>
      </trkpt>
      <trkpt lat="42.9076500" lon="-8.4120600">
        <ele>364.2</ele>
      </trkpt>
      <trkpt lat="42.9078300" lon="-8.4127500">
        <ele>367.7</ele>
      </trkpt>
      <trkpt lat="42.9080000" lon="-8.4134400">
        <ele>370.4</ele>
      </trkpt>
      <trkpt lat="42.9081800" lon="-8.4141400">
        <ele>371.4</ele>
      </trkpt>
      <trkpt lat="42.9083500" lon="-8.4148300">
        <ele>371.6</ele>
      </trkpt>
      <trkpt lat="42.9089300" lon="-8.4148000">
        <ele>371.5</ele>
      </trkpt>
      <trkpt lat="42.9094000" lon="-8.4146700">
        <ele>371.9</ele>
      </trkpt>
      <trkpt lat="42.9098700" lon="-8.4145500">
        <ele>372.7</ele>
      </trkpt>
      <trkpt lat="42.9103600" lon="-8.4145100">
        <ele>373.2</ele>
      </trkpt>
      <trkpt lat="42.9108400" lon="-8.4144600">
        <ele>373.2</ele>
      </trkpt>
      <trkpt lat="42.9113300" lon="-8.4143600">
        <ele>372.5</ele>
      </trkpt>
      <trkpt lat="42.9118300" lon="-8.4142700">
        <ele>370.8</ele>
      </trkpt>
      <trkpt lat="42.9123200" lon="-8.4141700">
        <ele>368.5</ele>
      </trkpt>
      <trkpt lat="42.9128000" lon="-8.4141400">
        <ele>366.4</ele>
      </trkpt>
      <trkpt lat="42.9132700" lon="-8.4141000">
        <ele>364.6</ele>
      </trkpt>
      <trkpt lat="42.9137500" lon="-8.4140700">
        <ele>362.6</ele>
      </trkpt>
      <trkpt lat="42.9138500" lon="-8.4149300">
        <ele>360.4</ele>
      </trkpt>
      <trkpt lat="42.9138300" lon="-8.4156200">
        <ele>358.1</ele>
      </trkpt>
      <trkpt lat="42.9138000" lon="-8.4163100">
        <ele>355.6</ele>
      </trkpt>
      <trkpt lat="42.9137800" lon="-8.4170000">
        <ele>352.9</ele>
      </trkpt>
      <trkpt lat="42.9137500" lon="-8.4176900">
        <ele>350.3</ele>
      </trkpt>
      <trkpt lat="42.9135700" lon="-8.4184000">
        <ele>347.9</ele>
      </trkpt>
      <trkpt lat="42.9136200" lon="-8.4190300">
        <ele>346.0</ele>
      </trkpt>
      <trkpt lat="42.9136600" lon="-8.4196500">
        <ele>344.5</ele>
      </trkpt>
      <trkpt lat="42.9136200" lon="-8.4199700">
        <ele>342.6</ele>
      </trkpt>
      <trkpt lat="42.9134600" lon="-8.4202800">
        <ele>340.3</ele>
      </trkpt>
      <trkpt lat="42.9134500" lon="-8.4209000">
        <ele>337.9</ele>
      </trkpt>
      <trkpt lat="42.9134400" lon="-8.4215100">
        <ele>335.4</ele>
      </trkpt>
      <trkpt lat="42.9134300" lon="-8.4221300">
        <ele>332.7</ele>
      </trkpt>
      <trkpt lat="42.9133500" lon="-8.4224900">
        <ele>330.8</ele>
      </trkpt>
      <trkpt lat="42.9129400" lon="-8.4231900">
        <ele>330.7</ele>
      </trkpt>
      <trkpt lat="42.9125700" lon="-8.4235800">
        <ele>331.8</ele>
      </trkpt>
      <trkpt lat="42.9120500" lon="-8.4240000">
        <ele>333.3</ele>
      </trkpt>
      <trkpt lat="42.9115800" lon="-8.4242000">
        <ele>335.3</ele>
      </trkpt>
      <trkpt lat="42.9111700" lon="-8.4241700">
        <ele>337.3</ele>
      </trkpt>
      <trkpt lat="42.9109900" lon="-8.4244100">
        <ele>338.3</ele>
      </trkpt>
      <trkpt lat="42.9104800" lon="-8.4242200">
        <ele>338.7</ele>
      </trkpt>
      <trkpt lat="42.9099600" lon="-8.4240300">
        <ele>338.7</ele>
      </trkpt>
      <trkpt lat="42.9094500" lon="-8.4238400">
        <ele>338.6</ele>
      </trkpt>
      <trkpt lat="42.9089300" lon="-8.4236500">
        <ele>338.3</ele>
      </trkpt>
      <trkpt lat="42.9087700" lon="-8.4236700">
        <ele>337.4</ele>
      </trkpt>
      <trkpt lat="42.9087100" lon="-8.4238100">
        <ele>336.2</ele>
      </trkpt>
      <trkpt lat="42.9087800" lon="-8.4245600">
        <ele>334.8</ele>
      </trkpt>
      <trkpt lat="42.9090000" lon="-8.4255400">
        <ele>333.8</ele>
      </trkpt>
      <trkpt lat="42.9089500" lon="-8.4260000">
        <ele>333.4</ele>
      </trkpt>
      <trkpt lat="42.9087900" lon="-8.4262300">
        <ele>333.7</ele>
      </trkpt>
      <trkpt lat="42.9085700" lon="-8.4262500">
        <ele>334.9</ele>
      </trkpt>
      <trkpt lat="42.9084900" lon="-8.4263100">
        <ele>337.1</ele>
      </trkpt>
      <trkpt lat="42.9083400" lon="-8.4267100">
        <ele>340.3</ele>
      </trkpt>
      <trkpt lat="42.9081400" lon="-8.4270200">
        <ele>343.3</ele>
      </trkpt>
      <trkpt lat="42.9076600" lon="-8.4274700">
        <ele>345.8</ele>
      </trkpt>
      <trkpt lat="42.9071700" lon="-8.4279100">
        <ele>347.5</ele>
      </trkpt>
      <trkpt lat="42.9068900" lon="-8.4285300">
        <ele>347.9</ele>
      </trkpt>
      <trkpt lat="42.9066100" lon="-8.4291400">
        <ele>346.6</ele>
      </trkpt>
      <trkpt lat="42.9063300" lon="-8.4297600">
        <ele>344.7</ele>
      </trkpt>
      <trkpt lat="42.9059100" lon="-8.4300900">
        <ele>342.6</ele>
      </trkpt>
      <trkpt lat="42.9057000" lon="-8.4303400">
        <ele>340.6</ele>
      </trkpt>
      <trkpt lat="42.9054300" lon="-8.4309400">
        <ele>338.6</ele>
      </trkpt>
      <trkpt lat="42.9053800" lon="-8.4315100">
        <ele>337.1</ele>
      </trkpt>
      <trkpt lat="42.9052500" lon="-8.4319700">
        <ele>335.9</ele>
      </trkpt>
      <trkpt lat="42.9050200" lon="-8.4324500">
        <ele>334.7</ele>
      </trkpt>
      <trkpt lat="42.9046500" lon="-8.4329500">
        <ele>333.1</ele>
      </trkpt>
      <trkpt lat="42.9043400" lon="-8.4337700">
        <ele>331.3</ele>
      </trkpt>
      <trkpt lat="42.9041500" lon="-8.4346400">
        <ele>329.4</ele>
      </trkpt>
      <trkpt lat="42.9042000" lon="-8.4351200">
        <ele>327.2</ele>
      </trkpt>
      <trkpt lat="42.9038400" lon="-8.4356300">
        <ele>325.1</ele>
      </trkpt>
      <trkpt lat="42.9034900" lon="-8.4361400">
        <ele>323.0</ele>
      </trkpt>
      <trkpt lat="42.9031300" lon="-8.4366600">
        <ele>321.2</ele>
      </trkpt>
      <trkpt lat="42.9027800" lon="-8.4371700">
        <ele>319.3</ele>
      </trkpt>
      <trkpt lat="42.9024200" lon="-8.4376800">
        <ele>317.3</ele>
      </trkpt>
      <trkpt lat="42.9019800" lon="-8.4384500">
        <ele>315.5</ele>
      </trkpt>
      <trkpt lat="42.9019000" lon="-8.4395700">
        <ele>313.8</ele>
      </trkpt>
      <trkpt lat="42.9018100" lon="-8.4403100">
        <ele>311.9</ele>
      </trkpt>
      <trkpt lat="42.9017200" lon="-8.4410400">
        <ele>309.6</ele>
      </trkpt>
      <trkpt lat="42.9016200" lon="-8.4417800">
        <ele>307.3</ele>
      </trkpt>
      <trkpt lat="42.9015300" lon="-8.4425100">
        <ele>305.0</ele>
      </trkpt>
      <trkpt lat="42.9012900" lon="-8.4430400">
        <ele>303.0</ele>
      </trkpt>
      <trkpt lat="42.9010500" lon="-8.4435600">
        <ele>301.4</ele>
      </trkpt>
      <trkpt lat="42.9008900" lon="-8.4441700">
        <ele>300.3</ele>
      </trkpt>
      <trkpt lat="42.9007300" lon="-8.4447800">
        <ele>299.5</ele>
      </trkpt>
      <trkpt lat="42.9005900" lon="-8.4457400">
        <ele>298.7</ele>
      </trkpt>
      <trkpt lat="42.9003300" lon="-8.4467400">
        <ele>298.0</ele>
      </trkpt>
      <trkpt lat="42.9001500" lon="-8.4468900">
        <ele>297.6</ele>
      </trkpt>
      <trkpt lat="42.8998100" lon="-8.4468200">
        <ele>297.5</ele>
      </trkpt>
      <trkpt lat="42.8997800" lon="-8.4465800">
        <ele>297.8</ele>
      </trkpt>
      <trkpt lat="42.8995600" lon="-8.4464800">
        <ele>298.5</ele>
      </trkpt>
      <trkpt lat="42.8994600" lon="-8.4461900">
        <ele>299.1</ele>
      </trkpt>
      <trkpt lat="42.8994000" lon="-8.4454400">
        <ele>299.4</ele>
      </trkpt>
      <trkpt lat="42.8992300" lon="-8.4448500">
        <ele>299.2</ele>
      </trkpt>
      <trkpt lat="42.8990900" lon="-8.4447200">
        <ele>298.9</ele>
      </trkpt>
      <trkpt lat="42.8985800" lon="-8.4445000">
        <ele>298.1</ele>
      </trkpt>
      <trkpt lat="42.8983200" lon="-8.4441700">
        <ele>297.2</ele>
      </trkpt>
      <trkpt lat="42.8983400" lon="-8.4444600">
        <ele>296.3</ele>
      </trkpt>
      <trkpt lat="42.8981500" lon="-8.4445900">
        <ele>295.8</ele>
      </trkpt>
      <trkpt lat="42.8981800" lon="-8.4448300">
        <ele>296.2</ele>
      </trkpt>
      <trkpt lat="42.8981100" lon="-8.4451000">
        <ele>297.6</ele>
      </trkpt>
      <trkpt lat="42.8976800" lon="-8.4458000">
        <ele>300.5</ele>
      </trkpt>
      <trkpt lat="42.8974900" lon="-8.4463800">
        <ele>305.0</ele>
      </trkpt>
      <trkpt lat="42.8973000" lon="-8.4469600">
        <ele>310.1</ele>
      </trkpt>
      <trkpt lat="42.8971100" lon="-8.4475400">
        <ele>315.9</ele>
      </trkpt>
      <trkpt lat="42.8970000" lon="-8.4476000">
        <ele>320.8</ele>
      </trkpt>
      <trkpt lat="42.8965000" lon="-8.4475800">
        <ele>324.2</ele>
      </trkpt>
      <trkpt lat="42.8959900" lon="-8.4475600">
        <ele>326.0</ele>
      </trkpt>
      <trkpt lat="42.8956100" lon="-8.4478200">
        <ele>327.3</ele>
      </trkpt>
      <trkpt lat="42.8952000" lon="-8.4478300">
        <ele>327.1</ele>
      </trkpt>
      <trkpt lat="42.8950100" lon="-8.4477000">
        <ele>327.5</ele>
      </trkpt>
      <trkpt lat="42.8947200" lon="-8.4471400">
        <ele>328.2</ele>
      </trkpt>
      <trkpt lat="42.8944500" lon="-8.4471400">
        <ele>329.5</ele>
      </trkpt>
      <trkpt lat="42.8943000" lon="-8.4472700">
        <ele>332.7</ele>
      </trkpt>
      <trkpt lat="42.8940200" lon="-8.4477800">
        <ele>336.4</ele>
      </trkpt>
      <trkpt lat="42.8933600" lon="-8.4481700">
        <ele>340.1</ele>
      </trkpt>
      <trkpt lat="42.8930400" lon="-8.4485400">
        <ele>344.2</ele>
      </trkpt>
      <trkpt lat="42.8926400" lon="-8.4490300">
        <ele>348.0</ele>
      </trkpt>
      <trkpt lat="42.8921200" lon="-8.4498600">
        <ele>350.0</ele>
      </trkpt>
      <trkpt lat="42.8918900" lon="-8.4498500">
        <ele>351.3</ele>
      </trkpt>
      <trkpt lat="42.8915600" lon="-8.4496400">
        <ele>352.2</ele>
      </trkpt>
      <trkpt lat="42.8914000" lon="-8.4506400">
        <ele>352.9</ele>
      </trkpt>
      <trkpt lat="42.8914500" lon="-8.4511300">
        <ele>354.2</ele>
      </trkpt>
      <trkpt lat="42.8914100" lon="-8.4518100">
        <ele>355.8</ele>
      </trkpt>
      <trkpt lat="42.8913600" lon="-8.4524900">
        <ele>358.6</ele>
      </trkpt>
      <trkpt lat="42.8909600" lon="-8.4531600">
        <ele>363.0</ele>
      </trkpt>
      <trkpt lat="42.8909000" lon="-8.4539900">
        <ele>367.2</ele>
      </trkpt>
      <trkpt lat="42.8908400" lon="-8.4548300">
        <ele>371.4</ele>
      </trkpt>
      <trkpt lat="42.8904400" lon="-8.4555100">
        <ele>375.3</ele>
      </trkpt>
      <trkpt lat="42.8902400" lon="-8.4560700">
        <ele>378.5</ele>
      </trkpt>
      <trkpt lat="42.8901500" lon="-8.4564800">
        <ele>379.9</ele>
      </trkpt>
      <trkpt lat="42.8901100" lon="-8.4572300">
        <ele>380.8</ele>
      </trkpt>
      <trkpt lat="42.8901400" lon="-8.4576600">
        <ele>381.5</ele>
      </trkpt>
      <trkpt lat="42.8903600" lon="-8.4583500">
        <ele>382.1</ele>
      </trkpt>
      <trkpt lat="42.8904800" lon="-8.4592400">
        <ele>382.6</ele>
      </trkpt>
      <trkpt lat="42.8905900" lon="-8.4601400">
        <ele>383.5</ele>
      </trkpt>
      <trkpt lat="42.8904700" lon="-8.4609600">
        <ele>384.8</ele>
      </trkpt>
      <trkpt lat="42.8903500" lon="-8.4617800">
        <ele>385.7</ele>
      </trkpt>
      <trkpt lat="42.8903700" lon="-8.4624000">
        <ele>386.2</ele>
      </trkpt>
      <trkpt lat="42.8903900" lon="-8.4630200">
        <ele>386.6</ele>
      </trkpt>
      <trkpt lat="42.8904100" lon="-8.4636400">
        <ele>387.0</ele>
      </trkpt>
      <trkpt lat="42.8905000" lon="-8.4642500">
        <ele>387.4</ele>
      </trkpt>
      <trkpt lat="42.8905900" lon="-8.4648500">
        <ele>387.8</ele>
      </trkpt>
      <trkpt lat="42.8906800" lon="-8.4654600">
        <ele>388.5</ele>
      </trkpt>
      <trkpt lat="42.8907700" lon="-8.4660700">
        <ele>388.9</ele>
      </trkpt>
      <trkpt lat="42.8908600" lon="-8.4666700">
        <ele>389.1</ele>
      </trkpt>
      <trkpt lat="42.8909500" lon="-8.4672800">
        <ele>389.5</ele>
      </trkpt>
      <trkpt lat="42.8910400" lon="-8.4678900">
        <ele>390.0</ele>
      </trkpt>
      <trkpt lat="42.8911300" lon="-8.4685000">
        <ele>390.1</ele>
      </trkpt>
      <trkpt lat="42.8912200" lon="-8.4691000">
        <ele>389.9</ele>
      </trkpt>
      <trkpt lat="42.8913100" lon="-8.4697100">
        <ele>389.6</ele>
      </trkpt>
      <trkpt lat="42.8913900" lon="-8.4703300">
        <ele>388.7</ele>
      </trkpt>
      <trkpt lat="42.8914600" lon="-8.4709400">
        <ele>387.1</ele>
      </trkpt>
      <trkpt lat="42.8915400" lon="-8.4715600">
        <ele>385.4</ele>
      </trkpt>
      <trkpt lat="42.8916200" lon="-8.4721800">
        <ele>383.9</ele>
      </trkpt>
      <trkpt lat="42.8917000" lon="-8.4728000">
        <ele>382.5</ele>
      </trkpt>
      <trkpt lat="42.8917700" lon="-8.4734100">
        <ele>381.4</ele>
      </trkpt>
      <trkpt lat="42.8918500" lon="-8.4740300">
        <ele>380.6</ele>
      </trkpt>
      <trkpt lat="42.8919300" lon="-8.4746500">
        <ele>380.0</ele>
      </trkpt>
      <trkpt lat="42.8920000" lon="-8.4752600">
        <ele>379.7</ele>
      </trkpt>
      <trkpt lat="42.8920800" lon="-8.4758800">
        <ele>379.3</ele>
      </trkpt>
      <trkpt lat="42.8921800" lon="-8.4763000">
        <ele>379.1</ele>
      </trkpt>
      <trkpt lat="42.8924600" lon="-8.4766700">
        <ele>379.1</ele>
      </trkpt>
      <trkpt lat="42.8919900" lon="-8.4765500">
        <ele>379.4</ele>
      </trkpt>
      <trkpt lat="42.8915300" lon="-8.4764200">
        <ele>379.8</ele>
      </trkpt>
      <trkpt lat="42.8910600" lon="-8.4763000">
        <ele>380.3</ele>
      </trkpt>
      <trkpt lat="42.8905900" lon="-8.4761700">
        <ele>380.6</ele>
      </trkpt>
      <trkpt lat="42.8905300" lon="-8.4762100">
        <ele>380.5</ele>
      </trkpt>
      <trkpt lat="42.8904900" lon="-8.4764100">
        <ele>379.7</ele>
      </trkpt>
      <trkpt lat="42.8905100" lon="-8.4770400">
        <ele>378.3</ele>
      </trkpt>
      <trkpt lat="42.8905200" lon="-8.4776600">
        <ele>376.7</ele>
      </trkpt>
      <trkpt lat="42.8905400" lon="-8.4782900">
        <ele>375.4</ele>
      </trkpt>
      <trkpt lat="42.8905600" lon="-8.4789100">
        <ele>374.7</ele>
      </trkpt>
      <trkpt lat="42.8905800" lon="-8.4795400">
        <ele>375.1</ele>
      </trkpt>
      <trkpt lat="42.8905900" lon="-8.4801600">
        <ele>376.7</ele>
      </trkpt>
      <trkpt lat="42.8906100" lon="-8.4807900">
        <ele>378.5</ele>
      </trkpt>
      <trkpt lat="42.8906300" lon="-8.4814100">
        <ele>379.8</ele>
      </trkpt>
      <trkpt lat="42.8906500" lon="-8.4820400">
        <ele>380.4</ele>
      </trkpt>
      <trkpt lat="42.8906600" lon="-8.4826600">
        <ele>380.1</ele>
      </trkpt>
      <trkpt lat="42.8906800" lon="-8.4832900">
        <ele>379.0</ele>
      </trkpt>
      <trkpt lat="42.8907000" lon="-8.4839100">
        <ele>377.5</ele>
      </trkpt>
      <trkpt lat="42.8907200" lon="-8.4845400">
        <ele>375.7</ele>
      </trkpt>
      <trkpt lat="42.8907300" lon="-8.4851600">
        <ele>373.8</ele>
      </trkpt>
      <trkpt lat="42.8907500" lon="-8.4857900">
        <ele>371.6</ele>
      </trkpt>
      <trkpt lat="42.8905800" lon="-8.4861600">
        <ele>368.8</ele>
      </trkpt>
      <trkpt lat="42.8906900" lon="-8.4867700">
        <ele>366.1</ele>
      </trkpt>
      <trkpt lat="42.8907900" lon="-8.4873700">
        <ele>363.7</ele>
      </trkpt>
      <trkpt lat="42.8912300" lon="-8.4874700">
        <ele>361.7</ele>
      </trkpt>
      <trkpt lat="42.8915500" lon="-8.4877900">
        <ele>360.8</ele>
      </trkpt>
      <trkpt lat="42.8913500" lon="-8.4889700">
        <ele>361.2</ele>
      </trkpt>
      <trkpt lat="42.8910800" lon="-8.4897600">
        <ele>362.0</ele>
      </trkpt>
      <trkpt lat="42.8909200" lon="-8.4905800">
        <ele>363.4</ele>
      </trkpt>
      <trkpt lat="42.8907500" lon="-8.4914000">
        <ele>364.8</ele>
      </trkpt>
      <trkpt lat="42.8904200" lon="-8.4921400">
        <ele>366.0</ele>
      </trkpt>
      <trkpt lat="42.8901000" lon="-8.4928700">
        <ele>366.1</ele>
      </trkpt>
      <trkpt lat="42.8898700" lon="-8.4936500">
        <ele>366.1</ele>
      </trkpt>
      <trkpt lat="42.8896300" lon="-8.4944200">
        <ele>365.6</ele>
      </trkpt>
      <trkpt lat="42.8894000" lon="-8.4950500">
        <ele>364.3</ele>
      </trkpt>
      <trkpt lat="42.8891700" lon="-8.4956900">
        <ele>362.2</ele>
      </trkpt>
      <trkpt lat="42.8889300" lon="-8.4963200">
        <ele>359.5</ele>
      </trkpt>
      <trkpt lat="42.8887000" lon="-8.4969600">
        <ele>355.9</ele>
      </trkpt>
      <trkpt lat="42.8884700" lon="-8.4975900">
        <ele>351.5</ele>
      </trkpt>
      <trkpt lat="42.8883100" lon="-8.4981800">
        <ele>346.5</ele>
      </trkpt>
      <trkpt lat="42.8881500" lon="-8.4987600">
        <ele>341.0</ele>
      </trkpt>
      <trkpt lat="42.8879900" lon="-8.4993500">
        <ele>335.2</ele>
      </trkpt>
      <trkpt lat="42.8878300" lon="-8.4999300">
        <ele>328.7</ele>
      </trkpt>
      <trkpt lat="42.8878300" lon="-8.5005800">
        <ele>322.1</ele>
      </trkpt>
      <trkpt lat="42.8879200" lon="-8.5012000">
        <ele>315.8</ele>
      </trkpt>
      <trkpt lat="42.8880000" lon="-8.5018200">
        <ele>310.3</ele>
      </trkpt>
      <trkpt lat="42.8877800" lon="-8.5025100">
        <ele>305.4</ele>
      </trkpt>
      <trkpt lat="42.8875600" lon="-8.5032100">
        <ele>300.9</ele>
      </trkpt>
      <trkpt lat="42.8874200" lon="-8.5038100">
        <ele>297.5</ele>
      </trkpt>
      <trkpt lat="42.8872800" lon="-8.5044000">
        <ele>293.7</ele>
      </trkpt>
      <trkpt lat="42.8870500" lon="-8.5046500">
        <ele>288.9</ele>
      </trkpt>
      <trkpt lat="42.8867600" lon="-8.5052900">
        <ele>284.0</ele>
      </trkpt>
      <trkpt lat="42.8866700" lon="-8.5060600">
        <ele>279.8</ele>
      </trkpt>
      <trkpt lat="42.8865800" lon="-8.5068200">
        <ele>275.9</ele>
      </trkpt>
      <trkpt lat="42.8865500" lon="-8.5075400">
        <ele>273.5</ele>
      </trkpt>
      <trkpt lat="42.8865200" lon="-8.5082500">
        <ele>272.6</ele>
      </trkpt>
      <trkpt lat="42.8864900" lon="-8.5089700">
        <ele>272.8</ele>
      </trkpt>
      <trkpt lat="42.8864200" lon="-8.5090000">
        <ele>273.5</ele>
      </trkpt>
      <trkpt lat="42.8862600" lon="-8.5093900">
        <ele>274.0</ele>
      </trkpt>
      <trkpt lat="42.8862900" lon="-8.5099400">
        <ele>274.2</ele>
      </trkpt>
      <trkpt lat="42.8863700" lon="-8.5101900">
        <ele>274.5</ele>
      </trkpt>
      <trkpt lat="42.8861900" lon="-8.5104200">
        <ele>274.7</ele>
      </trkpt>
      <trkpt lat="42.8861500" lon="-8.5109500">
        <ele>274.9</ele>
      </trkpt>
      <trkpt lat="42.8863200" lon="-8.5111300">
        <ele>275.4</ele>
      </trkpt>
      <trkpt lat="42.8863900" lon="-8.5113400">
        <ele>276.0</ele>
      </trkpt>
      <trkpt lat="42.8864100" lon="-8.5118000">
        <ele>276.7</ele>
      </trkpt>
      <trkpt lat="42.8863900" lon="-8.5124700">
        <ele>277.8</ele>
      </trkpt>
      <trkpt lat="42.8863700" lon="-8.5131400">
        <ele>279.1</ele>
      </trkpt>
      <trkpt lat="42.8863400" lon="-8.5138100">
        <ele>280.4</ele>
      </trkpt>
      <trkpt lat="42.8863200" lon="-8.5144800">
        <ele>281.9</ele>
      </trkpt>
      <trkpt lat="42.8863000" lon="-8.5151400">
        <ele>283.9</ele>
      </trkpt>
      <trkpt lat="42.8862800" lon="-8.5158100">
        <ele>285.8</ele>
      </trkpt>
      <trkpt lat="42.8862500" lon="-8.5164800">
        <ele>287.2</ele>
      </trkpt>
      <trkpt lat="42.8862300" lon="-8.5171500">
        <ele>288.5</ele>
      </trkpt>
      <trkpt lat="42.8864000" lon="-8.5173800">
        <ele>289.7</ele>
      </trkpt>
      <trkpt lat="42.8864800" lon="-8.5180400">
        <ele>290.5</ele>
      </trkpt>
      <trkpt lat="42.8865500" lon="-8.5187100">
        <ele>290.8</ele>
      </trkpt>
      <trkpt lat="42.8866300" lon="-8.5193700">
        <ele>291.0</ele>
      </trkpt>
      <trkpt lat="42.8867000" lon="-8.5200400">
        <ele>290.5</ele>
      </trkpt>
      <trkpt lat="42.8867800" lon="-8.5207000">
        <ele>289.9</ele>
      </trkpt>
      <trkpt lat="42.8869100" lon="-8.5213200">
        <ele>289.4</ele>
      </trkpt>
      <trkpt lat="42.8870500" lon="-8.5219300">
        <ele>288.7</ele>
      </trkpt>
      <trkpt lat="42.8871800" lon="-8.5225500">
        <ele>287.9</ele>
      </trkpt>
      <trkpt lat="42.8872200" lon="-8.5234600">
        <ele>287.4</ele>
      </trkpt>
      <trkpt lat="42.8871500" lon="-8.5235500">
        <ele>287.1</ele>
      </trkpt>
      <trkpt lat="42.8871400" lon="-8.5237600">
        <ele>286.5</ele>
      </trkpt>
      <trkpt lat="42.8872100" lon="-8.5237400">
        <ele>286.4</ele>
      </trkpt>
      <trkpt lat="42.8872300" lon="-8.5238600">
        <ele>286.2</ele>
      </trkpt>
      <trkpt lat="42.8872700" lon="-8.5238500">
        <ele>286.1</ele>
      </trkpt>
      <trkpt lat="42.8872600" lon="-8.5245200">
        <ele>285.7</ele>
      </trkpt>
      <trkpt lat="42.8872500" lon="-8.5251900">
        <ele>285.4</ele>
      </trkpt>
      <trkpt lat="42.8869200" lon="-8.5262600">
        <ele>284.6</ele>
      </trkpt>
      <trkpt lat="42.8865900" lon="-8.5270400">
        <ele>284.2</ele>
      </trkpt>
      <trkpt lat="42.8862500" lon="-8.5278100">
        <ele>283.7</ele>
      </trkpt>
      <trkpt lat="42.8861900" lon="-8.5284800">
        <ele>282.3</ele>
      </trkpt>
      <trkpt lat="42.8861200" lon="-8.5291400">
        <ele>280.6</ele>
      </trkpt>
      <trkpt lat="42.8858800" lon="-8.5302800">
        <ele>279.0</ele>
      </trkpt>
      <trkpt lat="42.8857700" lon="-8.5305300">
        <ele>277.0</ele>
      </trkpt>
      <trkpt lat="42.8853800" lon="-8.5310900">
        <ele>276.0</ele>
      </trkpt>
      <trkpt lat="42.8850500" lon="-8.5318600">
        <ele>276.3</ele>
      </trkpt>
      <trkpt lat="42.8852900" lon="-8.5327600">
        <ele>276.8</ele>
      </trkpt>
      <trkpt lat="42.8852600" lon="-8.5329600">
        <ele>278.1</ele>
      </trkpt>
      <trkpt lat="42.8850500" lon="-8.5332200">
        <ele>280.2</ele>
      </trkpt>
      <trkpt lat="42.8850500" lon="-8.5333700">
        <ele>281.3</ele>
      </trkpt>
      <trkpt lat="42.8848500" lon="-8.5337500">
        <ele>282.1</ele>
      </trkpt>
      <trkpt lat="42.8846400" lon="-8.5337900">
        <ele>282.5</ele>
      </trkpt>
      <trkpt lat="42.8847200" lon="-8.5337800">
        <ele>282.7</ele>
      </trkpt>
      <trkpt lat="42.8846700" lon="-8.5336900">
        <ele>282.1</ele>
      </trkpt>
      <trkpt lat="42.8843000" lon="-8.5339400">
        <ele>281.4</ele>
      </trkpt>
      <trkpt lat="42.8838800" lon="-8.5341000">
        <ele>280.5</ele>
      </trkpt>
      <trkpt lat="42.8832500" lon="-8.5342200">
        <ele>280.4</ele>
      </trkpt>
      <trkpt lat="42.8826100" lon="-8.5343300">
        <ele>280.3</ele>
      </trkpt>
      <trkpt lat="42.8819600" lon="-8.5348400">
        <ele>280.3</ele>
      </trkpt>
      <trkpt lat="42.8817700" lon="-8.5352400">
        <ele>280.4</ele>
      </trkpt>
      <trkpt lat="42.8816500" lon="-8.5359400">
        <ele>279.9</ele>
      </trkpt>
      <trkpt lat="42.8815200" lon="-8.5366500">
        <ele>277.8</ele>
      </trkpt>
      <trkpt lat="42.8814000" lon="-8.5373500">
        <ele>275.4</ele>
      </trkpt>
      <trkpt lat="42.8812700" lon="-8.5380500">
        <ele>272.9</ele>
      </trkpt>
      <trkpt lat="42.8813500" lon="-8.5384300">
        <ele>270.8</ele>
      </trkpt>
      <trkpt lat="42.8816300" lon="-8.5391100">
        <ele>269.6</ele>
      </trkpt>
      <trkpt lat="42.8819100" lon="-8.5397900">
        <ele>269.6</ele>
      </trkpt>
      <trkpt lat="42.8819600" lon="-8.5401300">
        <ele>270.7</ele>
      </trkpt>
      <trkpt lat="42.8818500" lon="-8.5403300">
        <ele>272.7</ele>
      </trkpt>
      <trkpt lat="42.8818200" lon="-8.5409900">
        <ele>274.7</ele>
      </trkpt>
      <trkpt lat="42.8816300" lon="-8.5416000">
        <ele>276.7</ele>
      </trkpt>
      <trkpt lat="42.8814800" lon="-8.5418300">
        <ele>278.4</ele>
      </trkpt>
      <trkpt lat="42.8813700" lon="-8.5423100">
        <ele>278.9</ele>
      </trkpt>
      <trkpt lat="42.8812200" lon="-8.5423700">
        <ele>277.8</ele>
      </trkpt>
      <trkpt lat="42.8812300" lon="-8.5430900">
        <ele>275.8</ele>
      </trkpt>
      <trkpt lat="42.8812300" lon="-8.5438000">
        <ele>272.4</ele>
      </trkpt>
      <trkpt lat="42.8811800" lon="-8.5442400">
        <ele>268.7</ele>
      </trkpt>
      <trkpt lat="42.8809600" lon="-8.5451200">
        <ele>264.2</ele>
      </trkpt>
      <trkpt lat="42.8809700" lon="-8.5453600">
        <ele>262.0</ele>
      </trkpt>
      <trkpt lat="42.8804800" lon="-8.5457500">
        <ele>259.5</ele>
      </trkpt>
    </trkseg>
  </trk>
</gpx>