<?xml version='1.0' encoding='utf-8'?>
<gpx xmlns="http://www.topografix.com/GPX/1/1" version="1.1" creator="add_waypoints.py">
  <metadata>
    <name>Camino day01</name>
  </metadata>
  <wpt lat="43.0103220" lon="-1.3193480">
    <name>Albergue de Roncesvalles</name>
    <desc>Roncesvalles | Tel: +34 9 48 76 00 00  | Tel:  +34 9 48 76 00 29 | Website | E-mail | Type: Pelgrimsherberg | Soort LO: L | Prijs: €14 PP/PN | Extra info: Gehele jaar geopend. Slaapzak verplicht - Met NL hospitalero's vanuit het NGSJ - Magnetrons en automaten met eten aanwezig - Avondeten, ontbijt en picknick mogelijk - Was- en droogautomaat - Reservering kan alleen online gedaan worden via eigen website | Dieren: Niet bekend | Taal: fr-en-de-nl-es | Incorrecte informatie? | Accommodation Type: Albergue | Lodging: B | Price: €14 PP/PN | Extra info: Open all year - Sleeping bag required - With NL hospitaleros from the NGSJ - Microwaves and vending machines with food available - Dinner, breakfast and picnic possible - Washing and drying machine - Can be reserved only online through own website | Animals: Not known | Languages spoken: fr-en-de-nl-es | Incorrect information?</desc>
    <sym>Lodging</sym>
    <cmt>Tel: +34 9 48 76 00 00  | Tel:  +34 9 48 76 00 29 | Website | E-mail | Type: Pelgrimsherberg | Soort LO: L | Prijs: €14 PP/PN | Extra info: Gehele jaar geopend. Slaapzak verplicht - Met NL hospitalero's vanuit het NGSJ - Magnetrons en automaten met eten aanwezig - Avondeten, ontbijt en picknick mogelijk - Was- en droogautomaat - Reservering kan alleen online gedaan worden via eigen website | Dieren: Niet bekend | Taal: fr-en-de-nl-es | Incorrecte informatie? | Accommodation Type: Albergue | Lodging: B | Price: €14 PP/PN | Extra info: Open all year - Sleeping bag required - With NL hospitaleros from the NGSJ - Microwaves and vending machines with food available - Dinner, breakfast and picnic possible - Washing and drying machine - Can be reserved only online through own website | Animals: Not known | Languages spoken: fr-en-de-nl-es | Incorrect information?</cmt>
  </wpt>
  <wpt lat="42.9902771" lon="-1.3353379">
    <name>Albergue Lorentx Aterpea</name>
    <desc>C. San Nicolás 56 | Burguete | Tel: +34 623 286 129  | Tel:  +34 948 032 127 | Website | E-mail | Type: Pelgrims herberg | Soort LO: L | Prijs: €16 PP/PN | Extra info: Keuken - Magnetron - Wasmachine - Ontbijt - Fietsenberging - | Dieren: Niet bekend | Incorrecte informatie? | Accommodation Type: Albergue | Lodging: B | Price: €16 PP/PN | Extra info: Kitchen - Microwave - Washing machine - Breakfast - Bicycle storage -. | Animals: Not known | Incorrect information?</desc>
    <sym>Lodging</sym>
    <cmt>Burguete | Tel: +34 623 286 129  | Tel:  +34 948 032 127 | Website | E-mail | Type: Pelgrims herberg | Soort LO: L | Prijs: €16 PP/PN | Extra info: Keuken - Magnetron - Wasmachine - Ontbijt - Fietsenberging - | Dieren: Niet bekend | Incorrecte informatie? | Accommodation Type: Albergue | Lodging: B | Price: €16 PP/PN | Extra info: Kitchen - Microwave - Washing machine - Breakfast - Bicycle storage -. | Animals: Not known | Incorrect information?</cmt>
  </wpt>
  <wpt lat="42.9888291" lon="-1.3361161">
    <name>Casa Rural Txiki Polt</name>
    <desc>Av. Roncesvalles 42 | Burguete | Tel: +34 948 760 019  | Tel:  +34 687 502 340 | Website | Type: Pelgrims herberg | Soort LO: L | Prijs: €60 P2/PN | Dieren: Niet bekend | Incorrecte informatie? | Accommodation Type: Albergue | Lodging: B | Price: €60 P2/PN | Animals: Not known | Incorrect information?</desc>
    <sym>Lodging</sym>
    <cmt>Burguete | Tel: +34 948 760 019  | Tel:  +34 687 502 340 | Website | Type: Pelgrims herberg | Soort LO: L | Prijs: €60 P2/PN | Dieren: Niet bekend | Incorrecte informatie? | Accommodation Type: Albergue | Lodging: B | Price: €60 P2/PN | Animals: Not known | Incorrect information?</cmt>
  </wpt>
  <wpt lat="42.9771780" lon="-1.3649370">
    <name>Albergue Irugoienea</name>
    <desc>c/ Oihanilun 2 | Espinal | Tel: +34 622 606 196 | Website | E-mail | Type: Pelgrims herberg | Soort LO: L | Prijs: €12 PP/PN | Extra info: Ook privékamers - Keuken - Magnetron - Wasmachine en droger - Ontbijt - Credential beschikbaar - Fietsenberging - | Dieren: Toegestaan | Incorrecte informatie? | Accommodation Type: Albergue | Lodging: B | Price: €12 PP/PN | Extra info: Also, private rooms - Kitchen - Microwave - Washer and dryer - Breakfast - Credential available - Bicycle storage -. | Animals: Allowed | Incorrect information?</desc>
    <sym>Lodging</sym>
    <cmt>Espinal | Tel: +34 622 606 196 | Website | E-mail | Type: Pelgrims herberg | Soort LO: L | Prijs: €12 PP/PN | Extra info: Ook privékamers - Keuken - Magnetron - Wasmachine en droger - Ontbijt - Credential beschikbaar - Fietsenberging - | Dieren: Toegestaan | Incorrecte informatie? | Accommodation Type: Albergue | Lodging: B | Price: €12 PP/PN | Extra info: Also, private rooms - Kitchen - Microwave - Washer and dryer - Breakfast - Credential available - Bicycle storage -. | Animals: Allowed | Incorrect information?</cmt>
  </wpt>
  <wpt lat="42.9660817" lon="-1.4185345">
    <name>Casa Rural Rey</name>
    <desc>C. San Pedro 72A | Bizkarreta | Tel: +34 679 270 519 | Website | E-mail | Type: Casa rural | Soort LO: L | Prijs: €15 PP/PN | Extra info: Keuken aanwezig | Dieren: Niet bekend | Incorrecte informatie? | Accommodation Type: Casa rural | Lodging: B | Price: €15 PP/PN | Extra info: Kitchen available | Animals: Not known | Incorrect information?</desc>
    <sym>Lodging</sym>
    <cmt>Bizkarreta | Tel: +34 679 270 519 | Website | E-mail | Type: Casa rural | Soort LO: L | Prijs: €15 PP/PN | Extra info: Keuken aanwezig | Dieren: Niet bekend | Incorrecte informatie? | Accommodation Type: Casa rural | Lodging: B | Price: €15 PP/PN | Extra info: Kitchen available | Animals: Not known | Incorrect information?</cmt>
  </wpt>
  <wpt lat="42.9316087" lon="-1.5045145">
    <name>Albergue municipal de peregrinos de Zubiri</name>
    <desc>Av. De Zubiri | Zubiri | Tel: +34 628 324 186 | E-mail | Type: Pelgrims herberg | Soort LO: L | Prijs: €14 PP/PN | Extra info: Keuken - Wasmachine en droger - Magnetron | Dieren: Niet bekend | Incorrecte informatie? | Accommodation Type: Albergue | Lodging: B | Price: €14 PP/PN | Extra info: Kitchen - Washer and dryer - Microwave. | Animals: Not known | Incorrect information?</desc>
    <sym>Lodging</sym>
    <cmt>Zubiri | Tel: +34 628 324 186 | E-mail | Type: Pelgrims herberg | Soort LO: L | Prijs: €14 PP/PN | Extra info: Keuken - Wasmachine en droger - Magnetron | Dieren: Niet bekend | Incorrecte informatie? | Accommodation Type: Albergue | Lodging: B | Price: €14 PP/PN | Extra info: Kitchen - Washer and dryer - Microwave. | Animals: Not known | Incorrect information?</cmt>
  </wpt>
  <wpt lat="42.9306930" lon="-1.5044230">
    <name>El Palo de Avellano</name>
    <desc>Av. de Roncesvalles 16 | Zubiri | Tel: +34 666 499 175 | Website | E-mail | Type: Pelgrims herberg | Soort LO: L | Prijs: €18 PP/PN | Extra info: Ontbijt en Diner- Ook privékamers - Wasmachine en droger - Diner - Restaurant - Fietsenberging - | Dieren: Nee | Incorrecte informatie? | Accommodation Type: Albergue | Lodging: B | Price: €18 PP/PN | Extra info: Breakfast and Dinner- Also private rooms - Washing machine and dryer - Dinner - Restaurant - Bicycle storage -. | Animals: No | Incorrect information?</desc>
    <sym>Lodging</sym>
    <cmt>Zubiri | Tel: +34 666 499 175 | Website | E-mail | Type: Pelgrims herberg | Soort LO: L | Prijs: €18 PP/PN | Extra info: Ontbijt en Diner- Ook privékamers - Wasmachine en droger - Diner - Restaurant - Fietsenberging - | Dieren: Nee | Incorrecte informatie? | Accommodation Type: Albergue | Lodging: B | Price: €18 PP/PN | Extra info: Breakfast and Dinner- Also private rooms - Washing machine and dryer - Dinner - Restaurant - Bicycle storage -. | Animals: No | Incorrect information?</cmt>
  </wpt>
  <wpt lat="42.9311520" lon="-1.5042022">
    <name>Albergue Segunda Etapa</name>
    <desc>Av. de Roncesvalles 22 | Zubiri | Tel: +34 697 186 560  | Tel:  +34 948 304 170 | Website | E-mail | Type: Pelgrims herberg | Soort LO: L | Prijs: €16 PP/PN | Extra info: Magnetron - Wasmachine en droger - Fietsenberging | Dieren: Niet bekend | Incorrecte informatie? | Accommodation Type: Albergue | Lodging: B | Price: €16 PP/PN | Extra info: Microwave - Washer and dryer - Bicycle storage. | Animals: Not known | Incorrect information?</desc>
    <sym>Lodging</sym>
    <cmt>Zubiri | Tel: +34 697 186 560  | Tel:  +34 948 304 170 | Website | E-mail | Type: Pelgrims herberg | Soort LO: L | Prijs: €16 PP/PN | Extra info: Magnetron - Wasmachine en droger - Fietsenberging | Dieren: Niet bekend | Incorrecte informatie? | Accommodation Type: Albergue | Lodging: B | Price: €16 PP/PN | Extra info: Microwave - Washer and dryer - Bicycle storage. | Animals: Not known | Incorrect information?</cmt>
  </wpt>
  <wpt lat="42.9301351" lon="-1.5040518">
    <name>Albergue Zalldiko</name>
    <desc>c/ Puenta de la Rabia 1 | Zubiri | Tel: +34 609 736 420 | Website | E-mail | Type: Pelgrims herberg | Soort LO: L | Prijs: €14 PP/PN | Extra info: Magnetron - Wasmachine en droger - Credential - Fietsenberging - | Dieren: Niet bekend | Incorrecte informatie? | Accommodation Type: Albergue | Lodging: B | Price: €14 PP/PN | Extra info: Microwave - Washer and dryer - Credential - Bicycle storage -. | Animals: Not known | Incorrect information?</desc>
    <sym>Lodging</sym>
    <cmt>Zubiri | Tel: +34 609 736 420 | Website | E-mail | Type: Pelgrims herberg | Soort LO: L | Prijs: €14 PP/PN | Extra info: Magnetron - Wasmachine en droger - Credential - Fietsenberging - | Dieren: Niet bekend | Incorrecte informatie? | Accommodation Type: Albergue | Lodging: B | Price: €14 PP/PN | Extra info: Microwave - Washer and dryer - Credential - Bicycle storage -. | Animals: Not known | Incorrect information?</cmt>
  </wpt>
  <wpt lat="42.9297946" lon="-1.5036260">
    <name>Río Rio Arga Ibaia</name>
    <desc>c/ Puenta de la Rabia 7 | Zubiri | Tel: +34 948 304 243  | Tel:  +34 680 104 471 | Website | E-mail | Type: Pelgrims herberg | Soort LO: L | Prijs: €17 PP/PN | Extra info: Ook privékamers - Keuken - Wasmachine en droger - Fietsenberging | Dieren: Toegestaan | Incorrecte informatie? | Accommodation Type: Albergue | Lodging: B | Price: €17 PP/PN | Extra info: Also private rooms - Kitchen - Washer and dryer - Bicycle storage room | Animals: Allowed | Incorrect information?</desc>
    <sym>Lodging</sym>
    <cmt>Zubiri | Tel: +34 948 304 243  | Tel:  +34 680 104 471 | Website | E-mail | Type: Pelgrims herberg | Soort LO: L | Prijs: €17 PP/PN | Extra info: Ook privékamers - Keuken - Wasmachine en droger - Fietsenberging | Dieren: Toegestaan | Incorrecte informatie? | Accommodation Type: Albergue | Lodging: B | Price: €17 PP/PN | Extra info: Also private rooms - Kitchen - Washer and dryer - Bicycle storage room | Animals: Allowed | Incorrect information?</cmt>
  </wpt>
  <wpt lat="43.1636575" lon="-1.2343243">
    <name>Porte Saint-Jacques</name>
    <desc>Day 1 | 순례자의 문 (생 자크)</desc>
    <sym>Scenic Area</sym>
    <type>photo</type>
    <cmt>순례자의 문 (생 자크)</cmt>
  </wpt>
  <wpt lat="43.1088098" lon="-1.2392207">
    <name>Refuge Orisson</name>
    <desc>Day 1 | 오리손 산장 · 해발 792 m</desc>
    <sym>Scenic Area</sym>
    <type>photo</type>
    <cmt>오리손 산장 · 해발 792 m</cmt>
  </wpt>
  <wpt lat="43.0098976" lon="-1.3194849">
    <name>Real Colegiata de Santa Maria de Roncesvalles</name>
    <desc>Day 1 | 산타 마리아 왕립 성당</desc>
    <sym>Church</sym>
    <type>photo</type>
    <cmt>산타 마리아 왕립 성당</cmt>
  </wpt>
  <trk>
    <name>Camino day01</name>
    <trkseg>
      <trkpt lat="43.1628100" lon="-1.2369700">
        <ele>171.6</ele>
      </trkpt>
      <trkpt lat="43.1623900" lon="-1.2372100">
        <ele>171.2</ele>
      </trkpt>
      <trkpt lat="43.1619700" lon="-1.2374500">
        <ele>169.2</ele>
      </trkpt>
      <trkpt lat="43.1615500" lon="-1.2376800">
        <ele>170.4</ele>
      </trkpt>
      <trkpt lat="43.1611200" lon="-1.2379200">
        <ele>171.8</ele>
      </trkpt>
      <trkpt lat="43.1607000" lon="-1.2381600">
        <ele>174.4</ele>
      </trkpt>
      <trkpt lat="43.1602800" lon="-1.2384000">
        <ele>178.4</ele>
      </trkpt>
      <trkpt lat="43.1596100" lon="-1.2388500">
        <ele>184.8</ele>
      </trkpt>
      <trkpt lat="43.1590900" lon="-1.2388300">
        <ele>191.6</ele>
      </trkpt>
      <trkpt lat="43.1584400" lon="-1.2393800">
        <ele>200.6</ele>
      </trkpt>
      <trkpt lat="43.1575900" lon="-1.2395700">
        <ele>208.4</ele>
      </trkpt>
      <trkpt lat="43.1574000" lon="-1.2397400">
        <ele>215.8</ele>
      </trkpt>
      <trkpt lat="43.1569500" lon="-1.2399000">
        <ele>220.8</ele>
      </trkpt>
      <trkpt lat="43.1565000" lon="-1.2400600">
        <ele>225.2</ele>
      </trkpt>
      <trkpt lat="43.1561900" lon="-1.2402500">
        <ele>230.0</ele>
      </trkpt>
      <trkpt lat="43.1557900" lon="-1.2406200">
        <ele>234.8</ele>
      </trkpt>
      <trkpt lat="43.1553900" lon="-1.2409800">
        <ele>242.4</ele>
      </trkpt>
      <trkpt lat="43.1551500" lon="-1.2410400">
        <ele>248.6</ele>
      </trkpt>
      <trkpt lat="43.1546300" lon="-1.2413200">
        <ele>253.8</ele>
      </trkpt>
      <trkpt lat="43.1541100" lon="-1.2415900">
        <ele>259.0</ele>
      </trkpt>
      <trkpt lat="43.1536600" lon="-1.2416500">
        <ele>264.2</ele>
      </trkpt>
      <trkpt lat="43.1531300" lon="-1.2418500">
        <ele>264.6</ele>
      </trkpt>
      <trkpt lat="43.1525900" lon="-1.2420600">
        <ele>267.8</ele>
      </trkpt>
      <trkpt lat="43.1520600" lon="-1.2422600">
        <ele>267.4</ele>
      </trkpt>
      <trkpt lat="43.1512200" lon="-1.2426500">
        <ele>263.8</ele>
      </trkpt>
      <trkpt lat="43.1503800" lon="-1.2428000">
        <ele>259.0</ele>
      </trkpt>
      <trkpt lat="43.1495600" lon="-1.2425200">
        <ele>256.4</ele>
      </trkpt>
      <trkpt lat="43.1491000" lon="-1.2425500">
        <ele>250.2</ele>
      </trkpt>
      <trkpt lat="43.1482600" lon="-1.2424100">
        <ele>251.8</ele>
      </trkpt>
      <trkpt lat="43.1476300" lon="-1.2425800">
        <ele>254.8</ele>
      </trkpt>
      <trkpt lat="43.1470500" lon="-1.2424200">
        <ele>261.6</ele>
      </trkpt>
      <trkpt lat="43.1465600" lon="-1.2421100">
        <ele>265.4</ele>
      </trkpt>
      <trkpt lat="43.1460900" lon="-1.2415400">
        <ele>274.0</ele>
      </trkpt>
      <trkpt lat="43.1456100" lon="-1.2409800">
        <ele>277.0</ele>
      </trkpt>
      <trkpt lat="43.1451900" lon="-1.2405900">
        <ele>279.4</ele>
      </trkpt>
      <trkpt lat="43.1444000" lon="-1.2401600">
        <ele>280.0</ele>
      </trkpt>
      <trkpt lat="43.1442300" lon="-1.2401400">
        <ele>281.6</ele>
      </trkpt>
      <trkpt lat="43.1439400" lon="-1.2402900">
        <ele>283.8</ele>
      </trkpt>
      <trkpt lat="43.1434100" lon="-1.2408900">
        <ele>288.8</ele>
      </trkpt>
      <trkpt lat="43.1428200" lon="-1.2414100">
        <ele>293.8</ele>
      </trkpt>
      <trkpt lat="43.1424500" lon="-1.2415400">
        <ele>299.8</ele>
      </trkpt>
      <trkpt lat="43.1421000" lon="-1.2415400">
        <ele>306.2</ele>
      </trkpt>
      <trkpt lat="43.1415200" lon="-1.2414400">
        <ele>308.2</ele>
      </trkpt>
      <trkpt lat="43.1410600" lon="-1.2412900">
        <ele>309.2</ele>
      </trkpt>
      <trkpt lat="43.1406000" lon="-1.2409900">
        <ele>310.2</ele>
      </trkpt>
      <trkpt lat="43.1399600" lon="-1.2404200">
        <ele>311.2</ele>
      </trkpt>
      <trkpt lat="43.1396000" lon="-1.2400400">
        <ele>309.8</ele>
      </trkpt>
      <trkpt lat="43.1392400" lon="-1.2396600">
        <ele>310.6</ele>
      </trkpt>
      <trkpt lat="43.1387900" lon="-1.2393100">
        <ele>311.0</ele>
      </trkpt>
      <trkpt lat="43.1383200" lon="-1.2390600">
        <ele>312.2</ele>
      </trkpt>
      <trkpt lat="43.1378200" lon="-1.2389500">
        <ele>311.8</ele>
      </trkpt>
      <trkpt lat="43.1373200" lon="-1.2388400">
        <ele>313.8</ele>
      </trkpt>
      <trkpt lat="43.1366400" lon="-1.2382900">
        <ele>316.8</ele>
      </trkpt>
      <trkpt lat="43.1360600" lon="-1.2381200">
        <ele>320.6</ele>
      </trkpt>
      <trkpt lat="43.1354200" lon="-1.2381000">
        <ele>328.0</ele>
      </trkpt>
      <trkpt lat="43.1347800" lon="-1.2380800">
        <ele>331.0</ele>
      </trkpt>
      <trkpt lat="43.1342400" lon="-1.2387700">
        <ele>334.0</ele>
      </trkpt>
      <trkpt lat="43.1340200" lon="-1.2389200">
        <ele>335.0</ele>
      </trkpt>
      <trkpt lat="43.1337900" lon="-1.2389400">
        <ele>335.2</ele>
      </trkpt>
      <trkpt lat="43.1335300" lon="-1.2388600">
        <ele>332.2</ele>
      </trkpt>
      <trkpt lat="43.1333500" lon="-1.2387100">
        <ele>329.4</ele>
      </trkpt>
      <trkpt lat="43.1331000" lon="-1.2383700">
        <ele>330.6</ele>
      </trkpt>
      <trkpt lat="43.1328800" lon="-1.2382800">
        <ele>334.8</ele>
      </trkpt>
      <trkpt lat="43.1325800" lon="-1.2383700">
        <ele>339.0</ele>
      </trkpt>
      <trkpt lat="43.1322000" lon="-1.2387300">
        <ele>344.8</ele>
      </trkpt>
      <trkpt lat="43.1318100" lon="-1.2390800">
        <ele>352.0</ele>
      </trkpt>
      <trkpt lat="43.1313700" lon="-1.2393400">
        <ele>354.6</ele>
      </trkpt>
      <trkpt lat="43.1307900" lon="-1.2401900">
        <ele>354.2</ele>
      </trkpt>
      <trkpt lat="43.1306000" lon="-1.2409000">
        <ele>353.4</ele>
      </trkpt>
      <trkpt lat="43.1304700" lon="-1.2411700">
        <ele>349.8</ele>
      </trkpt>
      <trkpt lat="43.1297900" lon="-1.2417400">
        <ele>351.2</ele>
      </trkpt>
      <trkpt lat="43.1297100" lon="-1.2418900">
        <ele>353.2</ele>
      </trkpt>
      <trkpt lat="43.1294800" lon="-1.2427700">
        <ele>358.0</ele>
      </trkpt>
      <trkpt lat="43.1294900" lon="-1.2430200">
        <ele>363.0</ele>
      </trkpt>
      <trkpt lat="43.1297100" lon="-1.2437600">
        <ele>371.8</ele>
      </trkpt>
      <trkpt lat="43.1301000" lon="-1.2446500">
        <ele>378.2</ele>
      </trkpt>
      <trkpt lat="43.1304200" lon="-1.2452000">
        <ele>388.8</ele>
      </trkpt>
      <trkpt lat="43.1303600" lon="-1.2453500">
        <ele>393.0</ele>
      </trkpt>
      <trkpt lat="43.1299900" lon="-1.2450400">
        <ele>401.4</ele>
      </trkpt>
      <trkpt lat="43.1295400" lon="-1.2448300">
        <ele>406.0</ele>
      </trkpt>
      <trkpt lat="43.1290900" lon="-1.2446200">
        <ele>415.6</ele>
      </trkpt>
      <trkpt lat="43.1286400" lon="-1.2444100">
        <ele>423.8</ele>
      </trkpt>
      <trkpt lat="43.1280100" lon="-1.2442200">
        <ele>435.6</ele>
      </trkpt>
      <trkpt lat="43.1273800" lon="-1.2442500">
        <ele>445.4</ele>
      </trkpt>
      <trkpt lat="43.1267500" lon="-1.2442800">
        <ele>457.0</ele>
      </trkpt>
      <trkpt lat="43.1259600" lon="-1.2446000">
        <ele>465.8</ele>
      </trkpt>
      <trkpt lat="43.1254700" lon="-1.2446600">
        <ele>471.8</ele>
      </trkpt>
      <trkpt lat="43.1249800" lon="-1.2447200">
        <ele>483.2</ele>
      </trkpt>
      <trkpt lat="43.1246500" lon="-1.2448700">
        <ele>489.2</ele>
      </trkpt>
      <trkpt lat="43.1240000" lon="-1.2450400">
        <ele>497.6</ele>
      </trkpt>
      <trkpt lat="43.1235900" lon="-1.2448200">
        <ele>507.0</ele>
      </trkpt>
      <trkpt lat="43.1229800" lon="-1.2446900">
        <ele>515.4</ele>
      </trkpt>
      <trkpt lat="43.1224900" lon="-1.2442200">
        <ele>518.4</ele>
      </trkpt>
      <trkpt lat="43.1217300" lon="-1.2437800">
        <ele>528.2</ele>
      </trkpt>
      <trkpt lat="43.1216900" lon="-1.2436900">
        <ele>533.0</ele>
      </trkpt>
      <trkpt lat="43.1211900" lon="-1.2433600">
        <ele>540.2</ele>
      </trkpt>
      <trkpt lat="43.1208800" lon="-1.2428400">
        <ele>548.4</ele>
      </trkpt>
      <trkpt lat="43.1206100" lon="-1.2420900">
        <ele>555.8</ele>
      </trkpt>
      <trkpt lat="43.1204900" lon="-1.2420900">
        <ele>559.8</ele>
      </trkpt>
      <trkpt lat="43.1202000" lon="-1.2425400">
        <ele>569.4</ele>
      </trkpt>
      <trkpt lat="43.1200400" lon="-1.2426500">
        <ele>574.8</ele>
      </trkpt>
      <trkpt lat="43.1199800" lon="-1.2426200">
        <ele>580.2</ele>
      </trkpt>
      <trkpt lat="43.1199300" lon="-1.2424400">
        <ele>586.4</ele>
      </trkpt>
      <trkpt lat="43.1199400" lon="-1.2418400">
        <ele>592.6</ele>
      </trkpt>
      <trkpt lat="43.1199000" lon="-1.2417700">
        <ele>594.0</ele>
      </trkpt>
      <trkpt lat="43.1198100" lon="-1.2417800">
        <ele>597.4</ele>
      </trkpt>
      <trkpt lat="43.1192300" lon="-1.2422200">
        <ele>600.8</ele>
      </trkpt>
      <trkpt lat="43.1190400" lon="-1.2422600">
        <ele>603.2</ele>
      </trkpt>
      <trkpt lat="43.1190300" lon="-1.2421800">
        <ele>605.6</ele>
      </trkpt>
      <trkpt lat="43.1194900" lon="-1.2411600">
        <ele>608.0</ele>
      </trkpt>
      <trkpt lat="43.1194300" lon="-1.2410600">
        <ele>612.2</ele>
      </trkpt>
      <trkpt lat="43.1192300" lon="-1.2412300">
        <ele>616.4</ele>
      </trkpt>
      <trkpt lat="43.1186800" lon="-1.2412900">
        <ele>621.6</ele>
      </trkpt>
      <trkpt lat="43.1185400" lon="-1.2411600">
        <ele>626.8</ele>
      </trkpt>
      <trkpt lat="43.1185800" lon="-1.2410400">
        <ele>636.0</ele>
      </trkpt>
      <trkpt lat="43.1188400" lon="-1.2408400">
        <ele>640.0</ele>
      </trkpt>
      <trkpt lat="43.1189400" lon="-1.2406600">
        <ele>646.4</ele>
      </trkpt>
      <trkpt lat="43.1189700" lon="-1.2401700">
        <ele>652.8</ele>
      </trkpt>
      <trkpt lat="43.1189000" lon="-1.2399800">
        <ele>659.2</ele>
      </trkpt>
      <trkpt lat="43.1187800" lon="-1.2398700">
        <ele>661.6</ele>
      </trkpt>
      <trkpt lat="43.1185400" lon="-1.2400100">
        <ele>668.2</ele>
      </trkpt>
      <trkpt lat="43.1183000" lon="-1.2400600">
        <ele>672.4</ele>
      </trkpt>
      <trkpt lat="43.1181300" lon="-1.2399600">
        <ele>678.6</ele>
      </trkpt>
      <trkpt lat="43.1180300" lon="-1.2394900">
        <ele>684.8</ele>
      </trkpt>
      <trkpt lat="43.1180900" lon="-1.2390200">
        <ele>691.2</ele>
      </trkpt>
      <trkpt lat="43.1178900" lon="-1.2385200">
        <ele>699.0</ele>
      </trkpt>
      <trkpt lat="43.1176200" lon="-1.2382900">
        <ele>713.2</ele>
      </trkpt>
      <trkpt lat="43.1171800" lon="-1.2381500">
        <ele>731.2</ele>
      </trkpt>
      <trkpt lat="43.1163800" lon="-1.2377600">
        <ele>749.2</ele>
      </trkpt>
      <trkpt lat="43.1158200" lon="-1.2376000">
        <ele>769.6</ele>
      </trkpt>
      <trkpt lat="43.1152800" lon="-1.2375700">
        <ele>784.4</ele>
      </trkpt>
      <trkpt lat="43.1148100" lon="-1.2376200">
        <ele>793.0</ele>
      </trkpt>
      <trkpt lat="43.1143400" lon="-1.2376700">
        <ele>795.6</ele>
      </trkpt>
      <trkpt lat="43.1138100" lon="-1.2375200">
        <ele>798.2</ele>
      </trkpt>
      <trkpt lat="43.1132900" lon="-1.2373600">
        <ele>800.2</ele>
      </trkpt>
      <trkpt lat="43.1127600" lon="-1.2372100">
        <ele>805.2</ele>
      </trkpt>
      <trkpt lat="43.1122800" lon="-1.2372500">
        <ele>808.6</ele>
      </trkpt>
      <trkpt lat="43.1117300" lon="-1.2375800">
        <ele>810.0</ele>
      </trkpt>
      <trkpt lat="43.1111700" lon="-1.2379100">
        <ele>811.4</ele>
      </trkpt>
      <trkpt lat="43.1107100" lon="-1.2380700">
        <ele>808.8</ele>
      </trkpt>
      <trkpt lat="43.1101100" lon="-1.2381400">
        <ele>808.0</ele>
      </trkpt>
      <trkpt lat="43.1096600" lon="-1.2383100">
        <ele>805.0</ele>
      </trkpt>
      <trkpt lat="43.1092500" lon="-1.2386400">
        <ele>806.6</ele>
      </trkpt>
      <trkpt lat="43.1089600" lon="-1.2390500">
        <ele>812.8</ele>
      </trkpt>
      <trkpt lat="43.1084900" lon="-1.2392300">
        <ele>823.8</ele>
      </trkpt>
      <trkpt lat="43.1080100" lon="-1.2394200">
        <ele>830.0</ele>
      </trkpt>
      <trkpt lat="43.1074600" lon="-1.2394000">
        <ele>842.6</ele>
      </trkpt>
      <trkpt lat="43.1069000" lon="-1.2393800">
        <ele>852.8</ele>
      </trkpt>
      <trkpt lat="43.1065900" lon="-1.2394700">
        <ele>851.2</ele>
      </trkpt>
      <trkpt lat="43.1065000" lon="-1.2393300">
        <ele>846.8</ele>
      </trkpt>
      <trkpt lat="43.1063600" lon="-1.2381400">
        <ele>846.0</ele>
      </trkpt>
      <trkpt lat="43.1061700" lon="-1.2379700">
        <ele>842.4</ele>
      </trkpt>
      <trkpt lat="43.1058200" lon="-1.2378800">
        <ele>838.8</ele>
      </trkpt>
      <trkpt lat="43.1057100" lon="-1.2379000">
        <ele>844.6</ele>
      </trkpt>
      <trkpt lat="43.1053600" lon="-1.2381800">
        <ele>851.2</ele>
      </trkpt>
      <trkpt lat="43.1050000" lon="-1.2386000">
        <ele>856.8</ele>
      </trkpt>
      <trkpt lat="43.1046500" lon="-1.2390100">
        <ele>860.0</ele>
      </trkpt>
      <trkpt lat="43.1042900" lon="-1.2394300">
        <ele>863.0</ele>
      </trkpt>
      <trkpt lat="43.1038100" lon="-1.2397900">
        <ele>865.8</ele>
      </trkpt>
      <trkpt lat="43.1030800" lon="-1.2399400">
        <ele>867.8</ele>
      </trkpt>
      <trkpt lat="43.1024400" lon="-1.2398200">
        <ele>867.2</ele>
      </trkpt>
      <trkpt lat="43.1022100" lon="-1.2398400">
        <ele>868.2</ele>
      </trkpt>
      <trkpt lat="43.1017200" lon="-1.2399400">
        <ele>870.2</ele>
      </trkpt>
      <trkpt lat="43.1012200" lon="-1.2400400">
        <ele>870.2</ele>
      </trkpt>
      <trkpt lat="43.1006500" lon="-1.2403100">
        <ele>872.6</ele>
      </trkpt>
      <trkpt lat="43.1000700" lon="-1.2405700">
        <ele>875.0</ele>
      </trkpt>
      <trkpt lat="43.0993200" lon="-1.2407500">
        <ele>880.8</ele>
      </trkpt>
      <trkpt lat="43.0988100" lon="-1.2409700">
        <ele>885.8</ele>
      </trkpt>
      <trkpt lat="43.0983100" lon="-1.2411800">
        <ele>894.4</ele>
      </trkpt>
      <trkpt lat="43.0978000" lon="-1.2414000">
        <ele>898.4</ele>
      </trkpt>
      <trkpt lat="43.0974200" lon="-1.2414500">
        <ele>904.6</ele>
      </trkpt>
      <trkpt lat="43.0968500" lon="-1.2417600">
        <ele>908.2</ele>
      </trkpt>
      <trkpt lat="43.0964000" lon="-1.2419500">
        <ele>915.6</ele>
      </trkpt>
      <trkpt lat="43.0959600" lon="-1.2421500">
        <ele>919.4</ele>
      </trkpt>
      <trkpt lat="43.0955100" lon="-1.2423400">
        <ele>928.6</ele>
      </trkpt>
      <trkpt lat="43.0952300" lon="-1.2423800">
        <ele>935.6</ele>
      </trkpt>
      <trkpt lat="43.0947600" lon="-1.2423600">
        <ele>945.0</ele>
      </trkpt>
      <trkpt lat="43.0943000" lon="-1.2423400">
        <ele>946.8</ele>
      </trkpt>
      <trkpt lat="43.0940000" lon="-1.2424000">
        <ele>952.0</ele>
      </trkpt>
      <trkpt lat="43.0934700" lon="-1.2426700">
        <ele>958.4</ele>
      </trkpt>
      <trkpt lat="43.0929400" lon="-1.2429300">
        <ele>962.0</ele>
      </trkpt>
      <trkpt lat="43.0924300" lon="-1.2432900">
        <ele>966.6</ele>
      </trkpt>
      <trkpt lat="43.0920500" lon="-1.2436500">
        <ele>975.0</ele>
      </trkpt>
      <trkpt lat="43.0914000" lon="-1.2439900">
        <ele>980.4</ele>
      </trkpt>
      <trkpt lat="43.0909600" lon="-1.2441300">
        <ele>983.4</ele>
      </trkpt>
      <trkpt lat="43.0905200" lon="-1.2442700">
        <ele>989.2</ele>
      </trkpt>
      <trkpt lat="43.0898600" lon="-1.2443200">
        <ele>993.6</ele>
      </trkpt>
      <trkpt lat="43.0893200" lon="-1.2445700">
        <ele>1000.6</ele>
      </trkpt>
      <trkpt lat="43.0889300" lon="-1.2449700">
        <ele>1007.2</ele>
      </trkpt>
      <trkpt lat="43.0885300" lon="-1.2453700">
        <ele>1011.8</ele>
      </trkpt>
      <trkpt lat="43.0884700" lon="-1.2455500">
        <ele>1016.4</ele>
      </trkpt>
      <trkpt lat="43.0884900" lon="-1.2456200">
        <ele>1019.0</ele>
      </trkpt>
      <trkpt lat="43.0886600" lon="-1.2456500">
        <ele>1021.2</ele>
      </trkpt>
      <trkpt lat="43.0889200" lon="-1.2458200">
        <ele>1023.4</ele>
      </trkpt>
      <trkpt lat="43.0892600" lon="-1.2462900">
        <ele>1023.8</ele>
      </trkpt>
      <trkpt lat="43.0895300" lon="-1.2464900">
        <ele>1027.0</ele>
      </trkpt>
      <trkpt lat="43.0895200" lon="-1.2467400">
        <ele>1027.4</ele>
      </trkpt>
      <trkpt lat="43.0889700" lon="-1.2473600">
        <ele>1029.0</ele>
      </trkpt>
      <trkpt lat="43.0885200" lon="-1.2480200">
        <ele>1029.4</ele>
      </trkpt>
      <trkpt lat="43.0880700" lon="-1.2486700">
        <ele>1030.8</ele>
      </trkpt>
      <trkpt lat="43.0876300" lon="-1.2497200">
        <ele>1029.4</ele>
      </trkpt>
      <trkpt lat="43.0873300" lon="-1.2500100">
        <ele>1035.0</ele>
      </trkpt>
      <trkpt lat="43.0867100" lon="-1.2501500">
        <ele>1033.2</ele>
      </trkpt>
      <trkpt lat="43.0864800" lon="-1.2503500">
        <ele>1032.6</ele>
      </trkpt>
      <trkpt lat="43.0861700" lon="-1.2509600">
        <ele>1038.8</ele>
      </trkpt>
      <trkpt lat="43.0858600" lon="-1.2515700">
        <ele>1048.0</ele>
      </trkpt>
      <trkpt lat="43.0857100" lon="-1.2517200">
        <ele>1053.0</ele>
      </trkpt>
      <trkpt lat="43.0849200" lon="-1.2521700">
        <ele>1062.4</ele>
      </trkpt>
      <trkpt lat="43.0845100" lon="-1.2521900">
        <ele>1071.8</ele>
      </trkpt>
      <trkpt lat="43.0841000" lon="-1.2521300">
        <ele>1075.4</ele>
      </trkpt>
      <trkpt lat="43.0834200" lon="-1.2519100">
        <ele>1077.6</ele>
      </trkpt>
      <trkpt lat="43.0829200" lon="-1.2519400">
        <ele>1079.8</ele>
      </trkpt>
      <trkpt lat="43.0824200" lon="-1.2519600">
        <ele>1083.4</ele>
      </trkpt>
      <trkpt lat="43.0819200" lon="-1.2519900">
        <ele>1087.0</ele>
      </trkpt>
      <trkpt lat="43.0814200" lon="-1.2520100">
        <ele>1091.0</ele>
      </trkpt>
      <trkpt lat="43.0812800" lon="-1.2520700">
        <ele>1094.6</ele>
      </trkpt>
      <trkpt lat="43.0811500" lon="-1.2529500">
        <ele>1101.2</ele>
      </trkpt>
      <trkpt lat="43.0809200" lon="-1.2536700">
        <ele>1108.4</ele>
      </trkpt>
      <trkpt lat="43.0806900" lon="-1.2543900">
        <ele>1115.6</ele>
      </trkpt>
      <trkpt lat="43.0804600" lon="-1.2551100">
        <ele>1122.6</ele>
      </trkpt>
      <trkpt lat="43.0800300" lon="-1.2557200">
        <ele>1129.4</ele>
      </trkpt>
      <trkpt lat="43.0795800" lon="-1.2565900">
        <ele>1133.6</ele>
      </trkpt>
      <trkpt lat="43.0796400" lon="-1.2567800">
        <ele>1135.4</ele>
      </trkpt>
      <trkpt lat="43.0800100" lon="-1.2571000">
        <ele>1135.8</ele>
      </trkpt>
      <trkpt lat="43.0801300" lon="-1.2573800">
        <ele>1133.6</ele>
      </trkpt>
      <trkpt lat="43.0801900" lon="-1.2579400">
        <ele>1129.4</ele>
      </trkpt>
      <trkpt lat="43.0801600" lon="-1.2584400">
        <ele>1122.4</ele>
      </trkpt>
      <trkpt lat="43.0798100" lon="-1.2593600">
        <ele>1117.4</ele>
      </trkpt>
      <trkpt lat="43.0792600" lon="-1.2600200">
        <ele>1111.2</ele>
      </trkpt>
      <trkpt lat="43.0789500" lon="-1.2605200">
        <ele>1109.0</ele>
      </trkpt>
      <trkpt lat="43.0786400" lon="-1.2610200">
        <ele>1104.8</ele>
      </trkpt>
      <trkpt lat="43.0783200" lon="-1.2615200">
        <ele>1099.6</ele>
      </trkpt>
      <trkpt lat="43.0780100" lon="-1.2620200">
        <ele>1096.4</ele>
      </trkpt>
      <trkpt lat="43.0775100" lon="-1.2626400">
        <ele>1098.2</ele>
      </trkpt>
      <trkpt lat="43.0770400" lon="-1.2629400">
        <ele>1098.6</ele>
      </trkpt>
      <trkpt lat="43.0765100" lon="-1.2631400">
        <ele>1101.0</ele>
      </trkpt>
      <trkpt lat="43.0758200" lon="-1.2632700">
        <ele>1106.8</ele>
      </trkpt>
      <trkpt lat="43.0756100" lon="-1.2635000">
        <ele>1109.8</ele>
      </trkpt>
      <trkpt lat="43.0752500" lon="-1.2640600">
        <ele>1109.4</ele>
      </trkpt>
      <trkpt lat="43.0748800" lon="-1.2646100">
        <ele>1108.6</ele>
      </trkpt>
      <trkpt lat="43.0746000" lon="-1.2651300">
        <ele>1111.0</ele>
      </trkpt>
      <trkpt lat="43.0743200" lon="-1.2656500">
        <ele>1113.4</ele>
      </trkpt>
      <trkpt lat="43.0740300" lon="-1.2663200">
        <ele>1114.6</ele>
      </trkpt>
      <trkpt lat="43.0738500" lon="-1.2664600">
        <ele>1117.0</ele>
      </trkpt>
      <trkpt lat="43.0733700" lon="-1.2666200">
        <ele>1121.8</ele>
      </trkpt>
      <trkpt lat="43.0728800" lon="-1.2667900">
        <ele>1127.8</ele>
      </trkpt>
      <trkpt lat="43.0722400" lon="-1.2666900">
        <ele>1133.8</ele>
      </trkpt>
      <trkpt lat="43.0716000" lon="-1.2665900">
        <ele>1139.6</ele>
      </trkpt>
      <trkpt lat="43.0713500" lon="-1.2666600">
        <ele>1145.2</ele>
      </trkpt>
      <trkpt lat="43.0712000" lon="-1.2667800">
        <ele>1149.2</ele>
      </trkpt>
      <trkpt lat="43.0710800" lon="-1.2670100">
        <ele>1149.8</ele>
      </trkpt>
      <trkpt lat="43.0711800" lon="-1.2678800">
        <ele>1150.4</ele>
      </trkpt>
      <trkpt lat="43.0711700" lon="-1.2683500">
        <ele>1151.2</ele>
      </trkpt>
      <trkpt lat="43.0710500" lon="-1.2688100">
        <ele>1156.2</ele>
      </trkpt>
      <trkpt lat="43.0709400" lon="-1.2690100">
        <ele>1159.2</ele>
      </trkpt>
      <trkpt lat="43.0707500" lon="-1.2691700">
        <ele>1164.8</ele>
      </trkpt>
      <trkpt lat="43.0704000" lon="-1.2693300">
        <ele>1171.2</ele>
      </trkpt>
      <trkpt lat="43.0695800" lon="-1.2693800">
        <ele>1178.6</ele>
      </trkpt>
      <trkpt lat="43.0691200" lon="-1.2692700">
        <ele>1182.6</ele>
      </trkpt>
      <trkpt lat="43.0686700" lon="-1.2691500">
        <ele>1187.8</ele>
      </trkpt>
      <trkpt lat="43.0682100" lon="-1.2690400">
        <ele>1191.6</ele>
      </trkpt>
      <trkpt lat="43.0679000" lon="-1.2687700">
        <ele>1192.2</ele>
      </trkpt>
      <trkpt lat="43.0676100" lon="-1.2680500">
        <ele>1191.8</ele>
      </trkpt>
      <trkpt lat="43.0671600" lon="-1.2676700">
        <ele>1191.4</ele>
      </trkpt>
      <trkpt lat="43.0667000" lon="-1.2675400">
        <ele>1190.4</ele>
      </trkpt>
      <trkpt lat="43.0662400" lon="-1.2674100">
        <ele>1188.2</ele>
      </trkpt>
      <trkpt lat="43.0657800" lon="-1.2672800">
        <ele>1189.0</ele>
      </trkpt>
      <trkpt lat="43.0653000" lon="-1.2671000">
        <ele>1189.8</ele>
      </trkpt>
      <trkpt lat="43.0648300" lon="-1.2669200">
        <ele>1190.2</ele>
      </trkpt>
      <trkpt lat="43.0643600" lon="-1.2667300">
        <ele>1191.4</ele>
      </trkpt>
      <trkpt lat="43.0638800" lon="-1.2665500">
        <ele>1192.6</ele>
      </trkpt>
      <trkpt lat="43.0632900" lon="-1.2664600">
        <ele>1192.0</ele>
      </trkpt>
      <trkpt lat="43.0627400" lon="-1.2666500">
        <ele>1191.4</ele>
      </trkpt>
      <trkpt lat="43.0621900" lon="-1.2668300">
        <ele>1190.4</ele>
      </trkpt>
      <trkpt lat="43.0618600" lon="-1.2668700">
        <ele>1189.2</ele>
      </trkpt>
      <trkpt lat="43.0617400" lon="-1.2669800">
        <ele>1189.4</ele>
      </trkpt>
      <trkpt lat="43.0616600" lon="-1.2671900">
        <ele>1190.8</ele>
      </trkpt>
      <trkpt lat="43.0614400" lon="-1.2681000">
        <ele>1191.0</ele>
      </trkpt>
      <trkpt lat="43.0613400" lon="-1.2682900">
        <ele>1195.2</ele>
      </trkpt>
      <trkpt lat="43.0611600" lon="-1.2683400">
        <ele>1200.4</ele>
      </trkpt>
      <trkpt lat="43.0605100" lon="-1.2682400">
        <ele>1204.2</ele>
      </trkpt>
      <trkpt lat="43.0598600" lon="-1.2681400">
        <ele>1210.6</ele>
      </trkpt>
      <trkpt lat="43.0593800" lon="-1.2677900">
        <ele>1218.4</ele>
      </trkpt>
      <trkpt lat="43.0588900" lon="-1.2674300">
        <ele>1222.2</ele>
      </trkpt>
      <trkpt lat="43.0583200" lon="-1.2672600">
        <ele>1226.4</ele>
      </trkpt>
      <trkpt lat="43.0578500" lon="-1.2670200">
        <ele>1231.6</ele>
      </trkpt>
      <trkpt lat="43.0573800" lon="-1.2667800">
        <ele>1236.6</ele>
      </trkpt>
      <trkpt lat="43.0569000" lon="-1.2665300">
        <ele>1245.0</ele>
      </trkpt>
      <trkpt lat="43.0564300" lon="-1.2662900">
        <ele>1253.4</ele>
      </trkpt>
      <trkpt lat="43.0556300" lon="-1.2661200">
        <ele>1260.4</ele>
      </trkpt>
      <trkpt lat="43.0554000" lon="-1.2662600">
        <ele>1267.0</ele>
      </trkpt>
      <trkpt lat="43.0551800" lon="-1.2662800">
        <ele>1271.2</ele>
      </trkpt>
      <trkpt lat="43.0548500" lon="-1.2667600">
        <ele>1272.4</ele>
      </trkpt>
      <trkpt lat="43.0544700" lon="-1.2668800">
        <ele>1273.6</ele>
      </trkpt>
      <trkpt lat="43.0539200" lon="-1.2671400">
        <ele>1276.4</ele>
      </trkpt>
      <trkpt lat="43.0533600" lon="-1.2673900">
        <ele>1271.8</ele>
      </trkpt>
      <trkpt lat="43.0528500" lon="-1.2674100">
        <ele>1267.2</ele>
      </trkpt>
      <trkpt lat="43.0526200" lon="-1.2675300">
        <ele>1263.2</ele>
      </trkpt>
      <trkpt lat="43.0521100" lon="-1.2676700">
        <ele>1259.2</ele>
      </trkpt>
      <trkpt lat="43.0515900" lon="-1.2678200">
        <ele>1253.6</ele>
      </trkpt>
      <trkpt lat="43.0510800" lon="-1.2679600">
        <ele>1260.0</ele>
      </trkpt>
      <trkpt lat="43.0508600" lon="-1.2680600">
        <ele>1266.6</ele>
      </trkpt>
      <trkpt lat="43.0507400" lon="-1.2682800">
        <ele>1272.0</ele>
      </trkpt>
      <trkpt lat="43.0505700" lon="-1.2683900">
        <ele>1280.0</ele>
      </trkpt>
      <trkpt lat="43.0504300" lon="-1.2683900">
        <ele>1290.6</ele>
      </trkpt>
      <trkpt lat="43.0499500" lon="-1.2680900">
        <ele>1294.8</ele>
      </trkpt>
      <trkpt lat="43.0495000" lon="-1.2672100">
        <ele>1298.8</ele>
      </trkpt>
      <trkpt lat="43.0491400" lon="-1.2666600">
        <ele>1303.0</ele>
      </trkpt>
      <trkpt lat="43.0487100" lon="-1.2661400">
        <ele>1304.6</ele>
      </trkpt>
      <trkpt lat="43.0482700" lon="-1.2656300">
        <ele>1301.0</ele>
      </trkpt>
      <trkpt lat="43.0478300" lon="-1.2653500">
        <ele>1303.0</ele>
      </trkpt>
      <trkpt lat="43.0474000" lon="-1.2650600">
        <ele>1305.0</ele>
      </trkpt>
      <trkpt lat="43.0469600" lon="-1.2647800">
        <ele>1306.0</ele>
      </trkpt>
      <trkpt lat="43.0467900" lon="-1.2647300">
        <ele>1307.4</ele>
      </trkpt>
      <trkpt lat="43.0462700" lon="-1.2647800">
        <ele>1311.4</ele>
      </trkpt>
      <trkpt lat="43.0457400" lon="-1.2648200">
        <ele>1312.4</ele>
      </trkpt>
      <trkpt lat="43.0452200" lon="-1.2648700">
        <ele>1312.0</ele>
      </trkpt>
      <trkpt lat="43.0447800" lon="-1.2655200">
        <ele>1312.4</ele>
      </trkpt>
      <trkpt lat="43.0446900" lon="-1.2658700">
        <ele>1310.0</ele>
      </trkpt>
      <trkpt lat="43.0446700" lon="-1.2664500">
        <ele>1309.8</ele>
      </trkpt>
      <trkpt lat="43.0443700" lon="-1.2671000">
        <ele>1304.8</ele>
      </trkpt>
      <trkpt lat="43.0440700" lon="-1.2677500">
        <ele>1301.2</ele>
      </trkpt>
      <trkpt lat="43.0437700" lon="-1.2683900">
        <ele>1303.8</ele>
      </trkpt>
      <trkpt lat="43.0434700" lon="-1.2690400">
        <ele>1306.4</ele>
      </trkpt>
      <trkpt lat="43.0433000" lon="-1.2697200">
        <ele>1304.6</ele>
      </trkpt>
      <trkpt lat="43.0431300" lon="-1.2704100">
        <ele>1303.4</ele>
      </trkpt>
      <trkpt lat="43.0429600" lon="-1.2710900">
        <ele>1302.2</ele>
      </trkpt>
      <trkpt lat="43.0427900" lon="-1.2717700">
        <ele>1292.4</ele>
      </trkpt>
      <trkpt lat="43.0426900" lon="-1.2724900">
        <ele>1290.8</ele>
      </trkpt>
      <trkpt lat="43.0425900" lon="-1.2732000">
        <ele>1288.0</ele>
      </trkpt>
      <trkpt lat="43.0424500" lon="-1.2738600">
        <ele>1285.2</ele>
      </trkpt>
      <trkpt lat="43.0423100" lon="-1.2745200">
        <ele>1282.4</ele>
      </trkpt>
      <trkpt lat="43.0421700" lon="-1.2751800">
        <ele>1279.6</ele>
      </trkpt>
      <trkpt lat="43.0420200" lon="-1.2758300">
        <ele>1267.6</ele>
      </trkpt>
      <trkpt lat="43.0418800" lon="-1.2764900">
        <ele>1268.8</ele>
      </trkpt>
      <trkpt lat="43.0417400" lon="-1.2771500">
        <ele>1268.6</ele>
      </trkpt>
      <trkpt lat="43.0415900" lon="-1.2774600">
        <ele>1268.4</ele>
      </trkpt>
      <trkpt lat="43.0412800" lon="-1.2778200">
        <ele>1266.8</ele>
      </trkpt>
      <trkpt lat="43.0411600" lon="-1.2782900">
        <ele>1275.2</ele>
      </trkpt>
      <trkpt lat="43.0409400" lon="-1.2788300">
        <ele>1272.0</ele>
      </trkpt>
      <trkpt lat="43.0407200" lon="-1.2793700">
        <ele>1273.0</ele>
      </trkpt>
      <trkpt lat="43.0405500" lon="-1.2804700">
        <ele>1272.6</ele>
      </trkpt>
      <trkpt lat="43.0404600" lon="-1.2808200">
        <ele>1280.4</ele>
      </trkpt>
      <trkpt lat="43.0403100" lon="-1.2811100">
        <ele>1278.6</ele>
      </trkpt>
      <trkpt lat="43.0399000" lon="-1.2816600">
        <ele>1278.6</ele>
      </trkpt>
      <trkpt lat="43.0394800" lon="-1.2822000">
        <ele>1280.6</ele>
      </trkpt>
      <trkpt lat="43.0392600" lon="-1.2821600">
        <ele>1281.4</ele>
      </trkpt>
      <trkpt lat="43.0389800" lon="-1.2822900">
        <ele>1283.8</ele>
      </trkpt>
      <trkpt lat="43.0385100" lon="-1.2830500">
        <ele>1289.4</ele>
      </trkpt>
      <trkpt lat="43.0383100" lon="-1.2838000">
        <ele>1295.0</ele>
      </trkpt>
      <trkpt lat="43.0382000" lon="-1.2844100">
        <ele>1297.6</ele>
      </trkpt>
      <trkpt lat="43.0380900" lon="-1.2850100">
        <ele>1301.0</ele>
      </trkpt>
      <trkpt lat="43.0379800" lon="-1.2856200">
        <ele>1296.8</ele>
      </trkpt>
      <trkpt lat="43.0378600" lon="-1.2862300">
        <ele>1292.4</ele>
      </trkpt>
      <trkpt lat="43.0377500" lon="-1.2868300">
        <ele>1294.4</ele>
      </trkpt>
      <trkpt lat="43.0376400" lon="-1.2874400">
        <ele>1300.0</ele>
      </trkpt>
      <trkpt lat="43.0372800" lon="-1.2885500">
        <ele>1311.2</ele>
      </trkpt>
      <trkpt lat="43.0369200" lon="-1.2892300">
        <ele>1327.0</ele>
      </trkpt>
      <trkpt lat="43.0366900" lon="-1.2901900">
        <ele>1342.8</ele>
      </trkpt>
      <trkpt lat="43.0363400" lon="-1.2908900">
        <ele>1356.8</ele>
      </trkpt>
      <trkpt lat="43.0359900" lon="-1.2916000">
        <ele>1366.2</ele>
      </trkpt>
      <trkpt lat="43.0358400" lon="-1.2917300">
        <ele>1369.4</ele>
      </trkpt>
      <trkpt lat="43.0353700" lon="-1.2918900">
        <ele>1369.6</ele>
      </trkpt>
      <trkpt lat="43.0348400" lon="-1.2909900">
        <ele>1369.8</ele>
      </trkpt>
      <trkpt lat="43.0347700" lon="-1.2909700">
        <ele>1365.4</ele>
      </trkpt>
      <trkpt lat="43.0346400" lon="-1.2911300">
        <ele>1365.8</ele>
      </trkpt>
      <trkpt lat="43.0345000" lon="-1.2916000">
        <ele>1371.0</ele>
      </trkpt>
      <trkpt lat="43.0343700" lon="-1.2917700">
        <ele>1376.2</ele>
      </trkpt>
      <trkpt lat="43.0339900" lon="-1.2918900">
        <ele>1381.4</ele>
      </trkpt>
      <trkpt lat="43.0337500" lon="-1.2918800">
        <ele>1384.0</ele>
      </trkpt>
      <trkpt lat="43.0334100" lon="-1.2917100">
        <ele>1389.6</ele>
      </trkpt>
      <trkpt lat="43.0331200" lon="-1.2916600">
        <ele>1392.0</ele>
      </trkpt>
      <trkpt lat="43.0328500" lon="-1.2917300">
        <ele>1401.4</ele>
      </trkpt>
      <trkpt lat="43.0324300" lon="-1.2921300">
        <ele>1410.8</ele>
      </trkpt>
      <trkpt lat="43.0320000" lon="-1.2925300">
        <ele>1423.4</ele>
      </trkpt>
      <trkpt lat="43.0316700" lon="-1.2929700">
        <ele>1430.2</ele>
      </trkpt>
      <trkpt lat="43.0313300" lon="-1.2934100">
        <ele>1434.0</ele>
      </trkpt>
      <trkpt lat="43.0308900" lon="-1.2938800">
        <ele>1434.0</ele>
      </trkpt>
      <trkpt lat="43.0307900" lon="-1.2944800">
        <ele>1438.6</ele>
      </trkpt>
      <trkpt lat="43.0306100" lon="-1.2951000">
        <ele>1437.6</ele>
      </trkpt>
      <trkpt lat="43.0300400" lon="-1.2959500">
        <ele>1436.6</ele>
      </trkpt>
      <trkpt lat="43.0297500" lon="-1.2961600">
        <ele>1440.2</ele>
      </trkpt>
      <trkpt lat="43.0292400" lon="-1.2962400">
        <ele>1440.6</ele>
      </trkpt>
      <trkpt lat="43.0289300" lon="-1.2961600">
        <ele>1433.4</ele>
      </trkpt>
      <trkpt lat="43.0284100" lon="-1.2959300">
        <ele>1432.0</ele>
      </trkpt>
      <trkpt lat="43.0278800" lon="-1.2956900">
        <ele>1431.6</ele>
      </trkpt>
      <trkpt lat="43.0270500" lon="-1.2954100">
        <ele>1430.4</ele>
      </trkpt>
      <trkpt lat="43.0265600" lon="-1.2953300">
        <ele>1429.2</ele>
      </trkpt>
      <trkpt lat="43.0261900" lon="-1.2954600">
        <ele>1431.0</ele>
      </trkpt>
      <trkpt lat="43.0261800" lon="-1.2956700">
        <ele>1432.0</ele>
      </trkpt>
      <trkpt lat="43.0261000" lon="-1.2958100">
        <ele>1431.0</ele>
      </trkpt>
      <trkpt lat="43.0259900" lon="-1.2958400">
        <ele>1425.6</ele>
      </trkpt>
      <trkpt lat="43.0259300" lon="-1.2960700">
        <ele>1416.2</ele>
      </trkpt>
      <trkpt lat="43.0256800" lon="-1.2964000">
        <ele>1405.6</ele>
      </trkpt>
      <trkpt lat="43.0252800" lon="-1.2967900">
        <ele>1387.4</ele>
      </trkpt>
      <trkpt lat="43.0248800" lon="-1.2971900">
        <ele>1370.6</ele>
      </trkpt>
      <trkpt lat="43.0244800" lon="-1.2975800">
        <ele>1358.2</ele>
      </trkpt>
      <trkpt lat="43.0241400" lon="-1.2978000">
        <ele>1347.8</ele>
      </trkpt>
      <trkpt lat="43.0233800" lon="-1.2981800">
        <ele>1329.8</ele>
      </trkpt>
      <trkpt lat="43.0228900" lon="-1.2983300">
        <ele>1319.4</ele>
      </trkpt>
      <trkpt lat="43.0224000" lon="-1.2984700">
        <ele>1308.6</ele>
      </trkpt>
      <trkpt lat="43.0220100" lon="-1.2984800">
        <ele>1297.8</ele>
      </trkpt>
      <trkpt lat="43.0218500" lon="-1.2983900">
        <ele>1284.2</ele>
      </trkpt>
      <trkpt lat="43.0216600" lon="-1.2985000">
        <ele>1279.4</ele>
      </trkpt>
      <trkpt lat="43.0211500" lon="-1.2992400">
        <ele>1271.2</ele>
      </trkpt>
      <trkpt lat="43.0207300" lon="-1.2999900">
        <ele>1263.0</ele>
      </trkpt>
      <trkpt lat="43.0205200" lon="-1.3001400">
        <ele>1258.2</ele>
      </trkpt>
      <trkpt lat="43.0202000" lon="-1.3000700">
        <ele>1258.2</ele>
      </trkpt>
      <trkpt lat="43.0200500" lon="-1.2999300">
        <ele>1258.0</ele>
      </trkpt>
      <trkpt lat="43.0200600" lon="-1.2994700">
        <ele>1261.2</ele>
      </trkpt>
      <trkpt lat="43.0202800" lon="-1.2989000">
        <ele>1264.4</ele>
      </trkpt>
      <trkpt lat="43.0202100" lon="-1.2987200">
        <ele>1263.2</ele>
      </trkpt>
      <trkpt lat="43.0201300" lon="-1.2987200">
        <ele>1262.0</ele>
      </trkpt>
      <trkpt lat="43.0197000" lon="-1.2991800">
        <ele>1256.2</ele>
      </trkpt>
      <trkpt lat="43.0192300" lon="-1.2994000">
        <ele>1250.4</ele>
      </trkpt>
      <trkpt lat="43.0186800" lon="-1.2995300">
        <ele>1235.8</ele>
      </trkpt>
      <trkpt lat="43.0183600" lon="-1.2997700">
        <ele>1221.8</ele>
      </trkpt>
      <trkpt lat="43.0182100" lon="-1.3003800">
        <ele>1207.8</ele>
      </trkpt>
      <trkpt lat="43.0180500" lon="-1.3010000">
        <ele>1196.8</ele>
      </trkpt>
      <trkpt lat="43.0179000" lon="-1.3016100">
        <ele>1185.8</ele>
      </trkpt>
      <trkpt lat="43.0178800" lon="-1.3021300">
        <ele>1179.6</ele>
      </trkpt>
      <trkpt lat="43.0176200" lon="-1.3022700">
        <ele>1173.8</ele>
      </trkpt>
      <trkpt lat="43.0174500" lon="-1.3025000">
        <ele>1168.0</ele>
      </trkpt>
      <trkpt lat="43.0173900" lon="-1.3024800">
        <ele>1164.0</ele>
      </trkpt>
      <trkpt lat="43.0173200" lon="-1.3022200">
        <ele>1158.4</ele>
      </trkpt>
      <trkpt lat="43.0171500" lon="-1.3021300">
        <ele>1155.6</ele>
      </trkpt>
      <trkpt lat="43.0168100" lon="-1.3030100">
        <ele>1152.0</ele>
      </trkpt>
      <trkpt lat="43.0165900" lon="-1.3038500">
        <ele>1151.8</ele>
      </trkpt>
      <trkpt lat="43.0163500" lon="-1.3044700">
        <ele>1150.4</ele>
      </trkpt>
      <trkpt lat="43.0158100" lon="-1.3050700">
        <ele>1150.6</ele>
      </trkpt>
      <trkpt lat="43.0154700" lon="-1.3059200">
        <ele>1151.2</ele>
      </trkpt>
      <trkpt lat="43.0152200" lon="-1.3063300">
        <ele>1152.6</ele>
      </trkpt>
      <trkpt lat="43.0147400" lon="-1.3070700">
        <ele>1150.0</ele>
      </trkpt>
      <trkpt lat="43.0145400" lon="-1.3072900">
        <ele>1148.6</ele>
      </trkpt>
      <trkpt lat="43.0139900" lon="-1.3076300">
        <ele>1145.0</ele>
      </trkpt>
      <trkpt lat="43.0134300" lon="-1.3078900">
        <ele>1143.6</ele>
      </trkpt>
      <trkpt lat="43.0131900" lon="-1.3081400">
        <ele>1142.2</ele>
      </trkpt>
      <trkpt lat="43.0128800" lon="-1.3086600">
        <ele>1138.2</ele>
      </trkpt>
      <trkpt lat="43.0125800" lon="-1.3089800">
        <ele>1134.2</ele>
      </trkpt>
      <trkpt lat="43.0122100" lon="-1.3089800">
        <ele>1126.2</ele>
      </trkpt>
      <trkpt lat="43.0119900" lon="-1.3088400">
        <ele>1116.8</ele>
      </trkpt>
      <trkpt lat="43.0113600" lon="-1.3081600">
        <ele>1107.4</ele>
      </trkpt>
      <trkpt lat="43.0111400" lon="-1.3079900">
        <ele>1100.6</ele>
      </trkpt>
      <trkpt lat="43.0109300" lon="-1.3079200">
        <ele>1089.4</ele>
      </trkpt>
      <trkpt lat="43.0103900" lon="-1.3080100">
        <ele>1087.4</ele>
      </trkpt>
      <trkpt lat="43.0098500" lon="-1.3081000">
        <ele>1078.4</ele>
      </trkpt>
      <trkpt lat="43.0092400" lon="-1.3084300">
        <ele>1069.4</ele>
      </trkpt>
      <trkpt lat="43.0089500" lon="-1.3083700">
        <ele>1062.8</ele>
      </trkpt>
      <trkpt lat="43.0088600" lon="-1.3084800">
        <ele>1060.6</ele>
      </trkpt>
      <trkpt lat="43.0085600" lon="-1.3094000">
        <ele>1049.2</ele>
      </trkpt>
      <trkpt lat="43.0083700" lon="-1.3096700">
        <ele>1044.8</ele>
      </trkpt>
      <trkpt lat="43.0081800" lon="-1.3098000">
        <ele>1041.0</ele>
      </trkpt>
      <trkpt lat="43.0077800" lon="-1.3099400">
        <ele>1035.4</ele>
      </trkpt>
      <trkpt lat="43.0077100" lon="-1.3100800">
        <ele>1023.8</ele>
      </trkpt>
      <trkpt lat="43.0075900" lon="-1.3107600">
        <ele>1017.4</ele>
      </trkpt>
      <trkpt lat="43.0074600" lon="-1.3114300">
        <ele>1011.0</ele>
      </trkpt>
      <trkpt lat="43.0073400" lon="-1.3121100">
        <ele>1002.4</ele>
      </trkpt>
      <trkpt lat="43.0071900" lon="-1.3122800">
        <ele>993.8</ele>
      </trkpt>
      <trkpt lat="43.0070500" lon="-1.3128000">
        <ele>989.4</ele>
      </trkpt>
      <trkpt lat="43.0068000" lon="-1.3131900">
        <ele>983.6</ele>
      </trkpt>
      <trkpt lat="43.0066900" lon="-1.3137200">
        <ele>977.8</ele>
      </trkpt>
      <trkpt lat="43.0068800" lon="-1.3143300">
        <ele>972.0</ele>
      </trkpt>
      <trkpt lat="43.0070300" lon="-1.3145800">
        <ele>964.8</ele>
      </trkpt>
      <trkpt lat="43.0071900" lon="-1.3153900">
        <ele>959.2</ele>
      </trkpt>
      <trkpt lat="43.0073400" lon="-1.3161900">
        <ele>956.0</ele>
      </trkpt>
      <trkpt lat="43.0076600" lon="-1.3169700">
        <ele>951.2</ele>
      </trkpt>
      <trkpt lat="43.0079600" lon="-1.3174900">
        <ele>948.4</ele>
      </trkpt>
      <trkpt lat="43.0085200" lon="-1.3181400">
        <ele>948.4</ele>
      </trkpt>
      <trkpt lat="43.0089600" lon="-1.3189300">
        <ele>948.6</ele>
      </trkpt>
      <trkpt lat="43.0088700" lon="-1.3193300">
        <ele>948.8</ele>
      </trkpt>
      <trkpt lat="43.0086700" lon="-1.3192700">
        <ele>950.6</ele>
      </trkpt>
      <trkpt lat="43.0087500" lon="-1.3193100">
        <ele>952.0</ele>
      </trkpt>
      <trkpt lat="43.0085800" lon="-1.3193200">
        <ele>952.0</ele>
      </trkpt>
      <trkpt lat="43.0085600" lon="-1.3196000">
        <ele>952.0</ele>
      </trkpt>
      <trkpt lat="43.0085100" lon="-1.3196400">
        <ele>952.0</ele>
      </trkpt>
      <trkpt lat="43.0086500" lon="-1.3197300">
        <ele>952.0</ele>
      </trkpt>
      <trkpt lat="43.0086200" lon="-1.3198300">
        <ele>952.0</ele>
      </trkpt>
      <trkpt lat="43.0086600" lon="-1.3198600">
        <ele>953.8</ele>
      </trkpt>
      <trkpt lat="43.0087500" lon="-1.3197800">
        <ele>955.6</ele>
      </trkpt>
      <trkpt lat="43.0092400" lon="-1.3197600">
        <ele>957.4</ele>
      </trkpt>
      <trkpt lat="43.0097200" lon="-1.3197400">
        <ele>957.4</ele>
      </trkpt>
      <trkpt lat="43.0092400" lon="-1.3197600">
        <ele>957.4</ele>
      </trkpt>
      <trkpt lat="43.0087500" lon="-1.3197800">
        <ele>955.6</ele>
      </trkpt>
      <trkpt lat="43.0084900" lon="-1.3199300">
        <ele>952.4</ele>
      </trkpt>
      <trkpt lat="43.0084400" lon="-1.3197600">
        <ele>948.8</ele>
      </trkpt>
      <trkpt lat="43.0080400" lon="-1.3195700">
        <ele>947.0</ele>
      </trkpt>
      <trkpt lat="43.0073800" lon="-1.3194800">
        <ele>944.8</ele>
      </trkpt>
      <trkpt lat="43.0067100" lon="-1.3193800">
        <ele>941.8</ele>
      </trkpt>
      <trkpt lat="43.0061600" lon="-1.3193500">
        <ele>940.2</ele>
      </trkpt>
      <trkpt lat="43.0056100" lon="-1.3193100">
        <ele>939.2</ele>
      </trkpt>
      <trkpt lat="43.0050400" lon="-1.3195900">
        <ele>937.0</ele>
      </trkpt>
      <trkpt lat="43.0045700" lon="-1.3199100">
        <ele>935.2</ele>
      </trkpt>
      <trkpt lat="43.0041000" lon="-1.3202400">
        <ele>936.2</ele>
      </trkpt>
      <trkpt lat="43.0036200" lon="-1.3205600">
        <ele>937.2</ele>
      </trkpt>
      <trkpt lat="43.0031500" lon="-1.3208800">
        <ele>936.4</ele>
      </trkpt>
      <trkpt lat="43.0027600" lon="-1.3214000">
        <ele>936.8</ele>
      </trkpt>
      <trkpt lat="43.0023600" lon="-1.3219200">
        <ele>936.2</ele>
      </trkpt>
      <trkpt lat="43.0019700" lon="-1.3224400">
        <ele>933.8</ele>
      </trkpt>
      <trkpt lat="43.0018900" lon="-1.3232800">
        <ele>930.0</ele>
      </trkpt>
      <trkpt lat="43.0016500" lon="-1.3240500">
        <ele>925.8</ele>
      </trkpt>
      <trkpt lat="43.0014100" lon="-1.3248200">
        <ele>922.0</ele>
      </trkpt>
      <trkpt lat="43.0009900" lon="-1.3252100">
        <ele>919.2</ele>
      </trkpt>
      <trkpt lat="43.0005600" lon="-1.3259600">
        <ele>916.4</ele>
      </trkpt>
      <trkpt lat="43.0002900" lon="-1.3266100">
        <ele>915.8</ele>
      </trkpt>
      <trkpt lat="43.0000200" lon="-1.3272600">
        <ele>916.8</ele>
      </trkpt>
      <trkpt lat="42.9998900" lon="-1.3274100">
        <ele>917.8</ele>
      </trkpt>
      <trkpt lat="42.9995500" lon="-1.3275100">
        <ele>920.8</ele>
      </trkpt>
      <trkpt lat="42.9993600" lon="-1.3275000">
        <ele>923.0</ele>
      </trkpt>
      <trkpt lat="42.9986200" lon="-1.3277700">
        <ele>925.2</ele>
      </trkpt>
      <trkpt lat="42.9980800" lon="-1.3280900">
        <ele>927.0</ele>
      </trkpt>
      <trkpt lat="42.9975300" lon="-1.3284200">
        <ele>928.0</ele>
      </trkpt>
      <trkpt lat="42.9971000" lon="-1.3290700">
        <ele>922.8</ele>
      </trkpt>
      <trkpt lat="42.9968100" lon="-1.3297200">
        <ele>918.2</ele>
      </trkpt>
      <trkpt lat="42.9965100" lon="-1.3303800">
        <ele>912.2</ele>
      </trkpt>
      <trkpt lat="42.9961100" lon="-1.3303300">
        <ele>907.0</ele>
      </trkpt>
      <trkpt lat="42.9955400" lon="-1.3301800">
        <ele>903.4</ele>
      </trkpt>
      <trkpt lat="42.9949800" lon="-1.3300200">
        <ele>904.0</ele>
      </trkpt>
      <trkpt lat="42.9944100" lon="-1.3298700">
        <ele>904.2</ele>
      </trkpt>
      <trkpt lat="42.9942300" lon="-1.3297800">
        <ele>905.0</ele>
      </trkpt>
      <trkpt lat="42.9940200" lon="-1.3294800">
        <ele>904.8</ele>
      </trkpt>
      <trkpt lat="42.9936100" lon="-1.3299000">
        <ele>903.4</ele>
      </trkpt>
      <trkpt lat="42.9932000" lon="-1.3303200">
        <ele>901.0</ele>
      </trkpt>
      <trkpt lat="42.9927800" lon="-1.3307300">
        <ele>898.8</ele>
      </trkpt>
      <trkpt lat="42.9923700" lon="-1.3311500">
        <ele>896.6</ele>
      </trkpt>
      <trkpt lat="42.9921000" lon="-1.3317600">
        <ele>895.0</ele>
      </trkpt>
      <trkpt lat="42.9918200" lon="-1.3323600">
        <ele>893.6</ele>
      </trkpt>
      <trkpt lat="42.9915500" lon="-1.3329700">
        <ele>892.6</ele>
      </trkpt>
      <trkpt lat="42.9912800" lon="-1.3335700">
        <ele>893.2</ele>
      </trkpt>
      <trkpt lat="42.9910000" lon="-1.3341800">
        <ele>891.8</ele>
      </trkpt>
      <trkpt lat="42.9907300" lon="-1.3347800">
        <ele>892.2</ele>
      </trkpt>
      <trkpt lat="42.9902900" lon="-1.3351300">
        <ele>892.4</ele>
      </trkpt>
      <trkpt lat="42.9898400" lon="-1.3354800">
        <ele>892.0</ele>
      </trkpt>
      <trkpt lat="42.9894000" lon="-1.3358300">
        <ele>890.2</ele>
      </trkpt>
      <trkpt lat="42.9888900" lon="-1.3361600">
        <ele>888.8</ele>
      </trkpt>
      <trkpt lat="42.9883800" lon="-1.3364800">
        <ele>886.0</ele>
      </trkpt>
      <trkpt lat="42.9885800" lon="-1.3371900">
        <ele>883.0</ele>
      </trkpt>
      <trkpt lat="42.9884900" lon="-1.3372700">
        <ele>881.4</ele>
      </trkpt>
      <trkpt lat="42.9885900" lon="-1.3380600">
        <ele>880.0</ele>
      </trkpt>
      <trkpt lat="42.9886900" lon="-1.3388600">
        <ele>880.4</ele>
      </trkpt>
      <trkpt lat="42.9889300" lon="-1.3395900">
        <ele>880.2</ele>
      </trkpt>
      <trkpt lat="42.9891700" lon="-1.3403100">
        <ele>880.2</ele>
      </trkpt>
      <trkpt lat="42.9894100" lon="-1.3410400">
        <ele>880.8</ele>
      </trkpt>
      <trkpt lat="42.9895400" lon="-1.3412500">
        <ele>881.2</ele>
      </trkpt>
      <trkpt lat="42.9894400" lon="-1.3419700">
        <ele>881.2</ele>
      </trkpt>
      <trkpt lat="42.9897000" lon="-1.3425900">
        <ele>881.6</ele>
      </trkpt>
      <trkpt lat="42.9895900" lon="-1.3434500">
        <ele>882.0</ele>
      </trkpt>
      <trkpt lat="42.9896400" lon="-1.3442000">
        <ele>881.6</ele>
      </trkpt>
      <trkpt lat="42.9896800" lon="-1.3449500">
        <ele>881.0</ele>
      </trkpt>
      <trkpt lat="42.9892800" lon="-1.3456200">
        <ele>880.8</ele>
      </trkpt>
      <trkpt lat="42.9893000" lon="-1.3462900">
        <ele>880.8</ele>
      </trkpt>
      <trkpt lat="42.9893100" lon="-1.3469500">
        <ele>880.8</ele>
      </trkpt>
      <trkpt lat="42.9893300" lon="-1.3476200">
        <ele>880.8</ele>
      </trkpt>
      <trkpt lat="42.9893400" lon="-1.3482800">
        <ele>881.0</ele>
      </trkpt>
      <trkpt lat="42.9894700" lon="-1.3489200">
        <ele>880.8</ele>
      </trkpt>
      <trkpt lat="42.9896000" lon="-1.3495600">
        <ele>881.0</ele>
      </trkpt>
      <trkpt lat="42.9897300" lon="-1.3502100">
        <ele>881.2</ele>
      </trkpt>
      <trkpt lat="42.9898600" lon="-1.3508500">
        <ele>881.4</ele>
      </trkpt>
      <trkpt lat="42.9899900" lon="-1.3514900">
        <ele>881.8</ele>
      </trkpt>
      <trkpt lat="42.9899100" lon="-1.3521800">
        <ele>882.4</ele>
      </trkpt>
      <trkpt lat="42.9898300" lon="-1.3528700">
        <ele>882.4</ele>
      </trkpt>
      <trkpt lat="42.9897500" lon="-1.3535600">
        <ele>882.6</ele>
      </trkpt>
      <trkpt lat="42.9896700" lon="-1.3542500">
        <ele>882.8</ele>
      </trkpt>
      <trkpt lat="42.9896300" lon="-1.3552300">
        <ele>882.8</ele>
      </trkpt>
      <trkpt lat="42.9894700" lon="-1.3554800">
        <ele>882.8</ele>
      </trkpt>
      <trkpt lat="42.9893300" lon="-1.3555800">
        <ele>883.2</ele>
      </trkpt>
      <trkpt lat="42.9892700" lon="-1.3557500">
        <ele>883.4</ele>
      </trkpt>
      <trkpt lat="42.9893100" lon="-1.3558900">
        <ele>886.2</ele>
      </trkpt>
      <trkpt lat="42.9892700" lon="-1.3564800">
        <ele>889.0</ele>
      </trkpt>
      <trkpt lat="42.9895000" lon="-1.3575800">
        <ele>891.4</ele>
      </trkpt>
      <trkpt lat="42.9895900" lon="-1.3583400">
        <ele>893.2</ele>
      </trkpt>
      <trkpt lat="42.9896000" lon="-1.3589900">
        <ele>895.0</ele>
      </trkpt>
      <trkpt lat="42.9895100" lon="-1.3596100">
        <ele>894.6</ele>
      </trkpt>
      <trkpt lat="42.9893500" lon="-1.3599400">
        <ele>894.2</ele>
      </trkpt>
      <trkpt lat="42.9891200" lon="-1.3602300">
        <ele>894.2</ele>
      </trkpt>
      <trkpt lat="42.9891000" lon="-1.3607000">
        <ele>894.6</ele>
      </trkpt>
      <trkpt lat="42.9887600" lon="-1.3607200">
        <ele>895.8</ele>
      </trkpt>
      <trkpt lat="42.9886000" lon="-1.3608400">
        <ele>897.4</ele>
      </trkpt>
      <trkpt lat="42.9883900" lon="-1.3608600">
        <ele>901.2</ele>
      </trkpt>
      <trkpt lat="42.9880400" lon="-1.3611600">
        <ele>907.8</ele>
      </trkpt>
      <trkpt lat="42.9874600" lon="-1.3615100">
        <ele>915.2</ele>
      </trkpt>
      <trkpt lat="42.9868700" lon="-1.3618500">
        <ele>921.8</ele>
      </trkpt>
      <trkpt lat="42.9866000" lon="-1.3619400">
        <ele>928.4</ele>
      </trkpt>
      <trkpt lat="42.9864400" lon="-1.3622000">
        <ele>932.2</ele>
      </trkpt>
      <trkpt lat="42.9862500" lon="-1.3629400">
        <ele>932.6</ele>
      </trkpt>
      <trkpt lat="42.9857400" lon="-1.3632600">
        <ele>929.2</ele>
      </trkpt>
      <trkpt lat="42.9852200" lon="-1.3635700">
        <ele>924.8</ele>
      </trkpt>
      <trkpt lat="42.9847700" lon="-1.3639300">
        <ele>918.0</ele>
      </trkpt>
      <trkpt lat="42.9843200" lon="-1.3642800">
        <ele>911.0</ele>
      </trkpt>
      <trkpt lat="42.9839200" lon="-1.3647300">
        <ele>903.0</ele>
      </trkpt>
      <trkpt lat="42.9835200" lon="-1.3651800">
        <ele>898.8</ele>
      </trkpt>
      <trkpt lat="42.9831100" lon="-1.3656400">
        <ele>893.4</ele>
      </trkpt>
      <trkpt lat="42.9827100" lon="-1.3660900">
        <ele>890.0</ele>
      </trkpt>
      <trkpt lat="42.9823100" lon="-1.3665400">
        <ele>885.2</ele>
      </trkpt>
      <trkpt lat="42.9818200" lon="-1.3669900">
        <ele>882.6</ele>
      </trkpt>
      <trkpt lat="42.9813800" lon="-1.3672100">
        <ele>878.6</ele>
      </trkpt>
      <trkpt lat="42.9809600" lon="-1.3676800">
        <ele>876.8</ele>
      </trkpt>
      <trkpt lat="42.9806300" lon="-1.3683700">
        <ele>873.8</ele>
      </trkpt>
      <trkpt lat="42.9802900" lon="-1.3690600">
        <ele>874.4</ele>
      </trkpt>
      <trkpt lat="42.9807300" lon="-1.3699000">
        <ele>874.4</ele>
      </trkpt>
      <trkpt lat="42.9809000" lon="-1.3704700">
        <ele>875.0</ele>
      </trkpt>
      <trkpt lat="42.9810800" lon="-1.3710400">
        <ele>875.4</ele>
      </trkpt>
      <trkpt lat="42.9812500" lon="-1.3716100">
        <ele>876.2</ele>
      </trkpt>
      <trkpt lat="42.9808700" lon="-1.3719100">
        <ele>875.8</ele>
      </trkpt>
      <trkpt lat="42.9803900" lon="-1.3721900">
        <ele>875.2</ele>
      </trkpt>
      <trkpt lat="42.9799000" lon="-1.3724600">
        <ele>874.6</ele>
      </trkpt>
      <trkpt lat="42.9799300" lon="-1.3725700">
        <ele>874.2</ele>
      </trkpt>
      <trkpt lat="42.9797300" lon="-1.3726100">
        <ele>873.2</ele>
      </trkpt>
      <trkpt lat="42.9795300" lon="-1.3729100">
        <ele>872.4</ele>
      </trkpt>
      <trkpt lat="42.9791400" lon="-1.3732900">
        <ele>871.8</ele>
      </trkpt>
      <trkpt lat="42.9787600" lon="-1.3736600">
        <ele>874.6</ele>
      </trkpt>
      <trkpt lat="42.9783700" lon="-1.3740400">
        <ele>879.4</ele>
      </trkpt>
      <trkpt lat="42.9780600" lon="-1.3745500">
        <ele>885.2</ele>
      </trkpt>
      <trkpt lat="42.9778500" lon="-1.3751400">
        <ele>890.6</ele>
      </trkpt>
      <trkpt lat="42.9776300" lon="-1.3757200">
        <ele>897.6</ele>
      </trkpt>
      <trkpt lat="42.9773700" lon="-1.3763100">
        <ele>901.2</ele>
      </trkpt>
      <trkpt lat="42.9771100" lon="-1.3769000">
        <ele>903.0</ele>
      </trkpt>
      <trkpt lat="42.9768600" lon="-1.3775000">
        <ele>907.0</ele>
      </trkpt>
      <trkpt lat="42.9766000" lon="-1.3780900">
        <ele>911.0</ele>
      </trkpt>
      <trkpt lat="42.9763400" lon="-1.3786800">
        <ele>913.4</ele>
      </trkpt>
      <trkpt lat="42.9762200" lon="-1.3789000">
        <ele>919.2</ele>
      </trkpt>
      <trkpt lat="42.9760700" lon="-1.3790300">
        <ele>926.2</ele>
      </trkpt>
      <trkpt lat="42.9759300" lon="-1.3796200">
        <ele>931.0</ele>
      </trkpt>
      <trkpt lat="42.9758000" lon="-1.3802100">
        <ele>937.0</ele>
      </trkpt>
      <trkpt lat="42.9756600" lon="-1.3807900">
        <ele>940.8</ele>
      </trkpt>
      <trkpt lat="42.9755200" lon="-1.3813800">
        <ele>942.8</ele>
      </trkpt>
      <trkpt lat="42.9755300" lon="-1.3817000">
        <ele>943.4</ele>
      </trkpt>
      <trkpt lat="42.9764000" lon="-1.3819300">
        <ele>944.0</ele>
      </trkpt>
      <trkpt lat="42.9764400" lon="-1.3820300">
        <ele>944.2</ele>
      </trkpt>
      <trkpt lat="42.9765400" lon="-1.3820500">
        <ele>945.2</ele>
      </trkpt>
      <trkpt lat="42.9771000" lon="-1.3825200">
        <ele>945.0</ele>
      </trkpt>
      <trkpt lat="42.9775100" lon="-1.3831100">
        <ele>943.6</ele>
      </trkpt>
      <trkpt lat="42.9780200" lon="-1.3835700">
        <ele>941.4</ele>
      </trkpt>
      <trkpt lat="42.9785300" lon="-1.3840300">
        <ele>937.6</ele>
      </trkpt>
      <trkpt lat="42.9789200" lon="-1.3846200">
        <ele>935.2</ele>
      </trkpt>
      <trkpt lat="42.9793000" lon="-1.3852100">
        <ele>931.8</ele>
      </trkpt>
      <trkpt lat="42.9796900" lon="-1.3858000">
        <ele>929.6</ele>
      </trkpt>
      <trkpt lat="42.9798900" lon="-1.3867100">
        <ele>931.0</ele>
      </trkpt>
      <trkpt lat="42.9799900" lon="-1.3869100">
        <ele>934.2</ele>
      </trkpt>
      <trkpt lat="42.9802700" lon="-1.3872200">
        <ele>934.0</ele>
      </trkpt>
      <trkpt lat="42.9802700" lon="-1.3877000">
        <ele>932.6</ele>
      </trkpt>
      <trkpt lat="42.9799700" lon="-1.3882200">
        <ele>929.4</ele>
      </trkpt>
      <trkpt lat="42.9796700" lon="-1.3887400">
        <ele>925.0</ele>
      </trkpt>
      <trkpt lat="42.9794200" lon="-1.3894700">
        <ele>914.8</ele>
      </trkpt>
      <trkpt lat="42.9791600" lon="-1.3902000">
        <ele>911.2</ele>
      </trkpt>
      <trkpt lat="42.9786900" lon="-1.3911100">
        <ele>902.6</ele>
      </trkpt>
      <trkpt lat="42.9784800" lon="-1.3918500">
        <ele>898.8</ele>
      </trkpt>
      <trkpt lat="42.9782200" lon="-1.3924600">
        <ele>894.0</ele>
      </trkpt>
      <trkpt lat="42.9779600" lon="-1.3930700">
        <ele>893.2</ele>
      </trkpt>
      <trkpt lat="42.9778700" lon="-1.3936900">
        <ele>888.6</ele>
      </trkpt>
      <trkpt lat="42.9777700" lon="-1.3943000">
        <ele>890.8</ele>
      </trkpt>
      <trkpt lat="42.9777500" lon="-1.3950200">
        <ele>887.6</ele>
      </trkpt>
      <trkpt lat="42.9777200" lon="-1.3957300">
        <ele>877.6</ele>
      </trkpt>
      <trkpt lat="42.9776500" lon="-1.3960900">
        <ele>868.4</ele>
      </trkpt>
      <trkpt lat="42.9773200" lon="-1.3968100">
        <ele>859.8</ele>
      </trkpt>
      <trkpt lat="42.9772500" lon="-1.3971700">
        <ele>848.8</ele>
      </trkpt>
      <trkpt lat="42.9772600" lon="-1.3973700">
        <ele>839.4</ele>
      </trkpt>
      <trkpt lat="42.9775100" lon="-1.3978100">
        <ele>837.6</ele>
      </trkpt>
      <trkpt lat="42.9774800" lon="-1.3980400">
        <ele>835.2</ele>
      </trkpt>
      <trkpt lat="42.9775600" lon="-1.3984800">
        <ele>832.8</ele>
      </trkpt>
      <trkpt lat="42.9770300" lon="-1.3983800">
        <ele>832.8</ele>
      </trkpt>
      <trkpt lat="42.9767800" lon="-1.3984800">
        <ele>832.0</ele>
      </trkpt>
      <trkpt lat="42.9767000" lon="-1.3986800">
        <ele>832.2</ele>
      </trkpt>
      <trkpt lat="42.9764900" lon="-1.3986200">
        <ele>833.6</ele>
      </trkpt>
      <trkpt lat="42.9759200" lon="-1.3994400">
        <ele>835.0</ele>
      </trkpt>
      <trkpt lat="42.9753100" lon="-1.4001100">
        <ele>834.8</ele>
      </trkpt>
      <trkpt lat="42.9751700" lon="-1.4004000">
        <ele>837.8</ele>
      </trkpt>
      <trkpt lat="42.9748200" lon="-1.4007800">
        <ele>835.8</ele>
      </trkpt>
      <trkpt lat="42.9744600" lon="-1.4011600">
        <ele>832.0</ele>
      </trkpt>
      <trkpt lat="42.9741100" lon="-1.4015400">
        <ele>825.6</ele>
      </trkpt>
      <trkpt lat="42.9737100" lon="-1.4024900">
        <ele>819.2</ele>
      </trkpt>
      <trkpt lat="42.9731300" lon="-1.4032800">
        <ele>810.0</ele>
      </trkpt>
      <trkpt lat="42.9727700" lon="-1.4039000">
        <ele>803.4</ele>
      </trkpt>
      <trkpt lat="42.9724600" lon="-1.4040800">
        <ele>792.4</ele>
      </trkpt>
      <trkpt lat="42.9719100" lon="-1.4041300">
        <ele>783.0</ele>
      </trkpt>
      <trkpt lat="42.9717200" lon="-1.4050500">
        <ele>773.4</ele>
      </trkpt>
      <trkpt lat="42.9713000" lon="-1.4051600">
        <ele>765.0</ele>
      </trkpt>
      <trkpt lat="42.9707700" lon="-1.4059200">
        <ele>757.4</ele>
      </trkpt>
      <trkpt lat="42.9708700" lon="-1.4062000">
        <ele>755.4</ele>
      </trkpt>
      <trkpt lat="42.9709000" lon="-1.4068300">
        <ele>754.4</ele>
      </trkpt>
      <trkpt lat="42.9709900" lon="-1.4070800">
        <ele>757.2</ele>
      </trkpt>
      <trkpt lat="42.9711600" lon="-1.4072400">
        <ele>762.0</ele>
      </trkpt>
      <trkpt lat="42.9713100" lon="-1.4078500">
        <ele>768.8</ele>
      </trkpt>
      <trkpt lat="42.9710500" lon="-1.4087700">
        <ele>772.8</ele>
      </trkpt>
      <trkpt lat="42.9708600" lon="-1.4097700">
        <ele>778.2</ele>
      </trkpt>
      <trkpt lat="42.9705700" lon="-1.4105000">
        <ele>782.6</ele>
      </trkpt>
      <trkpt lat="42.9702800" lon="-1.4112300">
        <ele>785.4</ele>
      </trkpt>
      <trkpt lat="42.9702000" lon="-1.4120100">
        <ele>786.2</ele>
      </trkpt>
      <trkpt lat="42.9702100" lon="-1.4127300">
        <ele>789.8</ele>
      </trkpt>
      <trkpt lat="42.9700200" lon="-1.4134600">
        <ele>789.8</ele>
      </trkpt>
      <trkpt lat="42.9700200" lon="-1.4137900">
        <ele>789.6</ele>
      </trkpt>
      <trkpt lat="42.9697600" lon="-1.4144600">
        <ele>789.0</ele>
      </trkpt>
      <trkpt lat="42.9696200" lon="-1.4150500">
        <ele>787.6</ele>
      </trkpt>
      <trkpt lat="42.9694900" lon="-1.4151900">
        <ele>786.2</ele>
      </trkpt>
      <trkpt lat="42.9694900" lon="-1.4154100">
        <ele>786.6</ele>
      </trkpt>
      <trkpt lat="42.9692500" lon="-1.4159600">
        <ele>786.2</ele>
      </trkpt>
      <trkpt lat="42.9690200" lon="-1.4168000">
        <ele>785.8</ele>
      </trkpt>
      <trkpt lat="42.9687900" lon="-1.4169500">
        <ele>784.4</ele>
      </trkpt>
      <trkpt lat="42.9683800" lon="-1.4170100">
        <ele>783.0</ele>
      </trkpt>
      <trkpt lat="42.9682600" lon="-1.4170800">
        <ele>781.6</ele>
      </trkpt>
      <trkpt lat="42.9679100" lon="-1.4174700">
        <ele>780.8</ele>
      </trkpt>
      <trkpt lat="42.9676500" lon="-1.4179400">
        <ele>779.2</ele>
      </trkpt>
      <trkpt lat="42.9673000" lon="-1.4182900">
        <ele>778.8</ele>
      </trkpt>
      <trkpt lat="42.9675600" lon="-1.4187100">
        <ele>776.8</ele>
      </trkpt>
      <trkpt lat="42.9675200" lon="-1.4193400">
        <ele>776.4</ele>
      </trkpt>
      <trkpt lat="42.9674700" lon="-1.4199700">
        <ele>777.2</ele>
      </trkpt>
      <trkpt lat="42.9675500" lon="-1.4207100">
        <ele>780.2</ele>
      </trkpt>
      <trkpt lat="42.9675300" lon="-1.4213700">
        <ele>781.4</ele>
      </trkpt>
      <trkpt lat="42.9675000" lon="-1.4220300">
        <ele>783.6</ele>
      </trkpt>
      <trkpt lat="42.9673600" lon="-1.4226500">
        <ele>784.0</ele>
      </trkpt>
      <trkpt lat="42.9673000" lon="-1.4236100">
        <ele>782.6</ele>
      </trkpt>
      <trkpt lat="42.9671200" lon="-1.4242200">
        <ele>778.8</ele>
      </trkpt>
      <trkpt lat="42.9669300" lon="-1.4248300">
        <ele>774.4</ele>
      </trkpt>
      <trkpt lat="42.9667100" lon="-1.4254100">
        <ele>770.6</ele>
      </trkpt>
      <trkpt lat="42.9664900" lon="-1.4259900">
        <ele>767.0</ele>
      </trkpt>
      <trkpt lat="42.9662700" lon="-1.4265700">
        <ele>762.6</ele>
      </trkpt>
      <trkpt lat="42.9660300" lon="-1.4273600">
        <ele>759.2</ele>
      </trkpt>
      <trkpt lat="42.9657900" lon="-1.4281500">
        <ele>756.8</ele>
      </trkpt>
      <trkpt lat="42.9656900" lon="-1.4283100">
        <ele>757.2</ele>
      </trkpt>
      <trkpt lat="42.9657100" lon="-1.4285400">
        <ele>756.2</ele>
      </trkpt>
      <trkpt lat="42.9659200" lon="-1.4288200">
        <ele>755.6</ele>
      </trkpt>
      <trkpt lat="42.9655600" lon="-1.4298400">
        <ele>756.2</ele>
      </trkpt>
      <trkpt lat="42.9654400" lon="-1.4304500">
        <ele>758.0</ele>
      </trkpt>
      <trkpt lat="42.9653200" lon="-1.4310500">
        <ele>754.8</ele>
      </trkpt>
      <trkpt lat="42.9651400" lon="-1.4315800">
        <ele>755.0</ele>
      </trkpt>
      <trkpt lat="42.9648600" lon="-1.4321700">
        <ele>753.4</ele>
      </trkpt>
      <trkpt lat="42.9646200" lon="-1.4325100">
        <ele>749.8</ele>
      </trkpt>
      <trkpt lat="42.9641100" lon="-1.4334600">
        <ele>746.2</ele>
      </trkpt>
      <trkpt lat="42.9636900" lon="-1.4344100">
        <ele>745.2</ele>
      </trkpt>
      <trkpt lat="42.9636000" lon="-1.4348800">
        <ele>742.6</ele>
      </trkpt>
      <trkpt lat="42.9636300" lon="-1.4354200">
        <ele>740.6</ele>
      </trkpt>
      <trkpt lat="42.9635900" lon="-1.4356500">
        <ele>739.2</ele>
      </trkpt>
      <trkpt lat="42.9631600" lon="-1.4363300">
        <ele>739.4</ele>
      </trkpt>
      <trkpt lat="42.9629900" lon="-1.4367100">
        <ele>739.2</ele>
      </trkpt>
      <trkpt lat="42.9627400" lon="-1.4376600">
        <ele>739.8</ele>
      </trkpt>
      <trkpt lat="42.9626600" lon="-1.4377400">
        <ele>745.0</ele>
      </trkpt>
      <trkpt lat="42.9623700" lon="-1.4378000">
        <ele>750.4</ele>
      </trkpt>
      <trkpt lat="42.9621000" lon="-1.4385100">
        <ele>754.8</ele>
      </trkpt>
      <trkpt lat="42.9619300" lon="-1.4391100">
        <ele>760.0</ele>
      </trkpt>
      <trkpt lat="42.9617700" lon="-1.4399400">
        <ele>768.0</ele>
      </trkpt>
      <trkpt lat="42.9616100" lon="-1.4407600">
        <ele>775.0</ele>
      </trkpt>
      <trkpt lat="42.9612900" lon="-1.4418000">
        <ele>782.0</ele>
      </trkpt>
      <trkpt lat="42.9611700" lon="-1.4428600">
        <ele>788.4</ele>
      </trkpt>
      <trkpt lat="42.9610900" lon="-1.4428300">
        <ele>795.4</ele>
      </trkpt>
      <trkpt lat="42.9610500" lon="-1.4429200">
        <ele>799.6</ele>
      </trkpt>
      <trkpt lat="42.9609100" lon="-1.4434500">
        <ele>803.4</ele>
      </trkpt>
      <trkpt lat="42.9609500" lon="-1.4445000">
        <ele>810.6</ele>
      </trkpt>
      <trkpt lat="42.9607500" lon="-1.4449900">
        <ele>817.8</ele>
      </trkpt>
      <trkpt lat="42.9606700" lon="-1.4450300">
        <ele>824.6</ele>
      </trkpt>
      <trkpt lat="42.9606100" lon="-1.4451600">
        <ele>830.6</ele>
      </trkpt>
      <trkpt lat="42.9604800" lon="-1.4460100">
        <ele>831.8</ele>
      </trkpt>
      <trkpt lat="42.9603300" lon="-1.4464800">
        <ele>827.6</ele>
      </trkpt>
      <trkpt lat="42.9603500" lon="-1.4467700">
        <ele>827.6</ele>
      </trkpt>
      <trkpt lat="42.9600300" lon="-1.4475500">
        <ele>825.2</ele>
      </trkpt>
      <trkpt lat="42.9598900" lon="-1.4484100">
        <ele>825.6</ele>
      </trkpt>
      <trkpt lat="42.9600800" lon="-1.4488400">
        <ele>829.2</ele>
      </trkpt>
      <trkpt lat="42.9601000" lon="-1.4493000">
        <ele>835.2</ele>
      </trkpt>
      <trkpt lat="42.9601900" lon="-1.4497300">
        <ele>837.0</ele>
      </trkpt>
      <trkpt lat="42.9603400" lon="-1.4501400">
        <ele>843.0</ele>
      </trkpt>
      <trkpt lat="42.9604800" lon="-1.4502600">
        <ele>846.2</ele>
      </trkpt>
      <trkpt lat="42.9609500" lon="-1.4504500">
        <ele>849.2</ele>
      </trkpt>
      <trkpt lat="42.9611100" lon="-1.4507400">
        <ele>851.8</ele>
      </trkpt>
      <trkpt lat="42.9612200" lon="-1.4509500">
        <ele>853.8</ele>
      </trkpt>
      <trkpt lat="42.9613000" lon="-1.4513200">
        <ele>853.0</ele>
      </trkpt>
      <trkpt lat="42.9612900" lon="-1.4517400">
        <ele>848.0</ele>
      </trkpt>
      <trkpt lat="42.9610800" lon="-1.4521900">
        <ele>843.2</ele>
      </trkpt>
      <trkpt lat="42.9608100" lon="-1.4525200">
        <ele>838.4</ele>
      </trkpt>
      <trkpt lat="42.9604800" lon="-1.4525800">
        <ele>833.6</ele>
      </trkpt>
      <trkpt lat="42.9600900" lon="-1.4527700">
        <ele>828.8</ele>
      </trkpt>
      <trkpt lat="42.9596400" lon="-1.4528100">
        <ele>828.4</ele>
      </trkpt>
      <trkpt lat="42.9591800" lon="-1.4528500">
        <ele>828.0</ele>
      </trkpt>
      <trkpt lat="42.9589300" lon="-1.4529300">
        <ele>827.2</ele>
      </trkpt>
      <trkpt lat="42.9587300" lon="-1.4531500">
        <ele>828.0</ele>
      </trkpt>
      <trkpt lat="42.9586400" lon="-1.4536700">
        <ele>828.8</ele>
      </trkpt>
      <trkpt lat="42.9587100" lon="-1.4548000">
        <ele>829.4</ele>
      </trkpt>
      <trkpt lat="42.9586000" lon="-1.4549900">
        <ele>831.4</ele>
      </trkpt>
      <trkpt lat="42.9584100" lon="-1.4549000">
        <ele>833.8</ele>
      </trkpt>
      <trkpt lat="42.9580900" lon="-1.4548700">
        <ele>833.4</ele>
      </trkpt>
      <trkpt lat="42.9576500" lon="-1.4549300">
        <ele>833.0</ele>
      </trkpt>
      <trkpt lat="42.9569500" lon="-1.4548500">
        <ele>832.6</ele>
      </trkpt>
      <trkpt lat="42.9560900" lon="-1.4548900">
        <ele>831.2</ele>
      </trkpt>
      <trkpt lat="42.9560000" lon="-1.4549300">
        <ele>831.0</ele>
      </trkpt>
      <trkpt lat="42.9555800" lon="-1.4554100">
        <ele>835.2</ele>
      </trkpt>
      <trkpt lat="42.9554500" lon="-1.4561200">
        <ele>839.4</ele>
      </trkpt>
      <trkpt lat="42.9553100" lon="-1.4568300">
        <ele>841.2</ele>
      </trkpt>
      <trkpt lat="42.9552300" lon="-1.4570200">
        <ele>844.4</ele>
      </trkpt>
      <trkpt lat="42.9548400" lon="-1.4574900">
        <ele>845.0</ele>
      </trkpt>
      <trkpt lat="42.9544500" lon="-1.4579700">
        <ele>843.0</ele>
      </trkpt>
      <trkpt lat="42.9540500" lon="-1.4584400">
        <ele>837.0</ele>
      </trkpt>
      <trkpt lat="42.9536600" lon="-1.4589100">
        <ele>833.4</ele>
      </trkpt>
      <trkpt lat="42.9538800" lon="-1.4600800">
        <ele>828.6</ele>
      </trkpt>
      <trkpt lat="42.9538900" lon="-1.4607200">
        <ele>825.6</ele>
      </trkpt>
      <trkpt lat="42.9539000" lon="-1.4613500">
        <ele>822.4</ele>
      </trkpt>
      <trkpt lat="42.9537000" lon="-1.4620100">
        <ele>824.4</ele>
      </trkpt>
      <trkpt lat="42.9535500" lon="-1.4628300">
        <ele>829.0</ele>
      </trkpt>
      <trkpt lat="42.9532000" lon="-1.4632900">
        <ele>832.2</ele>
      </trkpt>
      <trkpt lat="42.9528600" lon="-1.4637500">
        <ele>836.0</ele>
      </trkpt>
      <trkpt lat="42.9525100" lon="-1.4642000">
        <ele>841.8</ele>
      </trkpt>
      <trkpt lat="42.9521600" lon="-1.4646600">
        <ele>846.4</ele>
      </trkpt>
      <trkpt lat="42.9514000" lon="-1.4651000">
        <ele>848.4</ele>
      </trkpt>
      <trkpt lat="42.9512700" lon="-1.4651500">
        <ele>849.0</ele>
      </trkpt>
      <trkpt lat="42.9510700" lon="-1.4650900">
        <ele>848.6</ele>
      </trkpt>
      <trkpt lat="42.9506300" lon="-1.4646900">
        <ele>843.8</ele>
      </trkpt>
      <trkpt lat="42.9503600" lon="-1.4643400">
        <ele>839.0</ele>
      </trkpt>
      <trkpt lat="42.9501500" lon="-1.4637300">
        <ele>834.2</ele>
      </trkpt>
      <trkpt lat="42.9500900" lon="-1.4636900">
        <ele>836.0</ele>
      </trkpt>
      <trkpt lat="42.9500100" lon="-1.4637300">
        <ele>840.4</ele>
      </trkpt>
      <trkpt lat="42.9499200" lon="-1.4638100">
        <ele>850.8</ele>
      </trkpt>
      <trkpt lat="42.9496800" lon="-1.4646000">
        <ele>861.2</ele>
      </trkpt>
      <trkpt lat="42.9494300" lon="-1.4653900">
        <ele>870.0</ele>
      </trkpt>
      <trkpt lat="42.9492900" lon="-1.4656500">
        <ele>870.8</ele>
      </trkpt>
      <trkpt lat="42.9487400" lon="-1.4664300">
        <ele>869.0</ele>
      </trkpt>
      <trkpt lat="42.9482700" lon="-1.4669300">
        <ele>856.8</ele>
      </trkpt>
      <trkpt lat="42.9476900" lon="-1.4672400">
        <ele>845.8</ele>
      </trkpt>
      <trkpt lat="42.9471100" lon="-1.4675500">
        <ele>836.4</ele>
      </trkpt>
      <trkpt lat="42.9466300" lon="-1.4676700">
        <ele>830.8</ele>
      </trkpt>
      <trkpt lat="42.9461300" lon="-1.4679100">
        <ele>822.4</ele>
      </trkpt>
      <trkpt lat="42.9456200" lon="-1.4679800">
        <ele>822.0</ele>
      </trkpt>
      <trkpt lat="42.9452100" lon="-1.4685200">
        <ele>820.4</ele>
      </trkpt>
      <trkpt lat="42.9447000" lon="-1.4688500">
        <ele>819.4</ele>
      </trkpt>
      <trkpt lat="42.9442600" lon="-1.4690500">
        <ele>818.2</ele>
      </trkpt>
      <trkpt lat="42.9438300" lon="-1.4692400">
        <ele>818.8</ele>
      </trkpt>
      <trkpt lat="42.9433900" lon="-1.4694400">
        <ele>816.0</ele>
      </trkpt>
      <trkpt lat="42.9429500" lon="-1.4696300">
        <ele>813.2</ele>
      </trkpt>
      <trkpt lat="42.9424600" lon="-1.4700200">
        <ele>809.8</ele>
      </trkpt>
      <trkpt lat="42.9419700" lon="-1.4704000">
        <ele>803.6</ele>
      </trkpt>
      <trkpt lat="42.9417700" lon="-1.4703800">
        <ele>799.6</ele>
      </trkpt>
      <trkpt lat="42.9410700" lon="-1.4709200">
        <ele>794.0</ele>
      </trkpt>
      <trkpt lat="42.9403200" lon="-1.4712400">
        <ele>788.4</ele>
      </trkpt>
      <trkpt lat="42.9398000" lon="-1.4716800">
        <ele>781.0</ele>
      </trkpt>
      <trkpt lat="42.9392800" lon="-1.4721200">
        <ele>776.4</ele>
      </trkpt>
      <trkpt lat="42.9389400" lon="-1.4726300">
        <ele>766.2</ele>
      </trkpt>
      <trkpt lat="42.9385900" lon="-1.4731300">
        <ele>763.0</ele>
      </trkpt>
      <trkpt lat="42.9383300" lon="-1.4737800">
        <ele>758.6</ele>
      </trkpt>
      <trkpt lat="42.9380700" lon="-1.4744200">
        <ele>756.0</ele>
      </trkpt>
      <trkpt lat="42.9379100" lon="-1.4750800">
        <ele>753.6</ele>
      </trkpt>
      <trkpt lat="42.9377500" lon="-1.4757300">
        <ele>759.8</ele>
      </trkpt>
      <trkpt lat="42.9377100" lon="-1.4762700">
        <ele>764.0</ele>
      </trkpt>
      <trkpt lat="42.9374700" lon="-1.4772200">
        <ele>770.4</ele>
      </trkpt>
      <trkpt lat="42.9375500" lon="-1.4779500">
        <ele>775.6</ele>
      </trkpt>
      <trkpt lat="42.9376300" lon="-1.4786700">
        <ele>780.6</ele>
      </trkpt>
      <trkpt lat="42.9377700" lon="-1.4792900">
        <ele>779.8</ele>
      </trkpt>
      <trkpt lat="42.9379100" lon="-1.4799200">
        <ele>776.2</ele>
      </trkpt>
      <trkpt lat="42.9380400" lon="-1.4805400">
        <ele>770.6</ele>
      </trkpt>
      <trkpt lat="42.9381800" lon="-1.4811600">
        <ele>764.0</ele>
      </trkpt>
      <trkpt lat="42.9383600" lon="-1.4823100">
        <ele>757.4</ele>
      </trkpt>
      <trkpt lat="42.9384900" lon="-1.4828600">
        <ele>749.6</ele>
      </trkpt>
      <trkpt lat="42.9387200" lon="-1.4831900">
        <ele>742.4</ele>
      </trkpt>
      <trkpt lat="42.9387300" lon="-1.4834700">
        <ele>736.2</ele>
      </trkpt>
      <trkpt lat="42.9384800" lon="-1.4842700">
        <ele>731.2</ele>
      </trkpt>
      <trkpt lat="42.9385500" lon="-1.4848800">
        <ele>726.4</ele>
      </trkpt>
      <trkpt lat="42.9388500" lon="-1.4856400">
        <ele>721.2</ele>
      </trkpt>
      <trkpt lat="42.9391400" lon="-1.4864000">
        <ele>717.2</ele>
      </trkpt>
      <trkpt lat="42.9393300" lon="-1.4867900">
        <ele>709.2</ele>
      </trkpt>
      <trkpt lat="42.9395900" lon="-1.4870500">
        <ele>702.2</ele>
      </trkpt>
      <trkpt lat="42.9396800" lon="-1.4876500">
        <ele>691.4</ele>
      </trkpt>
      <trkpt lat="42.9394600" lon="-1.4882100">
        <ele>682.8</ele>
      </trkpt>
      <trkpt lat="42.9392400" lon="-1.4887700">
        <ele>674.2</ele>
      </trkpt>
      <trkpt lat="42.9388100" lon="-1.4892200">
        <ele>671.0</ele>
      </trkpt>
      <trkpt lat="42.9384200" lon="-1.4899100">
        <ele>666.4</ele>
      </trkpt>
      <trkpt lat="42.9381900" lon="-1.4906900">
        <ele>663.2</ele>
      </trkpt>
      <trkpt lat="42.9380900" lon="-1.4913000">
        <ele>658.4</ele>
      </trkpt>
      <trkpt lat="42.9379900" lon="-1.4919000">
        <ele>653.6</ele>
      </trkpt>
      <trkpt lat="42.9378800" lon="-1.4925100">
        <ele>643.4</ele>
      </trkpt>
      <trkpt lat="42.9377800" lon="-1.4931100">
        <ele>638.0</ele>
      </trkpt>
      <trkpt lat="42.9376400" lon="-1.4934100">
        <ele>635.2</ele>
      </trkpt>
      <trkpt lat="42.9369100" lon="-1.4940900">
        <ele>635.0</ele>
      </trkpt>
      <trkpt lat="42.9365700" lon="-1.4943000">
        <ele>634.8</ele>
      </trkpt>
      <trkpt lat="42.9364100" lon="-1.4945300">
        <ele>639.0</ele>
      </trkpt>
      <trkpt lat="42.9359100" lon="-1.4949100">
        <ele>638.0</ele>
      </trkpt>
      <trkpt lat="42.9354000" lon="-1.4952900">
        <ele>636.6</ele>
      </trkpt>
      <trkpt lat="42.9349600" lon="-1.4954900">
        <ele>633.8</ele>
      </trkpt>
      <trkpt lat="42.9345300" lon="-1.4956900">
        <ele>631.0</ele>
      </trkpt>
      <trkpt lat="42.9340900" lon="-1.4958900">
        <ele>628.2</ele>
      </trkpt>
      <trkpt lat="42.9335000" lon="-1.4960400">
        <ele>627.2</ele>
      </trkpt>
      <trkpt lat="42.9330900" lon="-1.4964100">
        <ele>622.4</ele>
      </trkpt>
      <trkpt lat="42.9328300" lon="-1.4964700">
        <ele>618.2</ele>
      </trkpt>
      <trkpt lat="42.9326800" lon="-1.4967500">
        <ele>614.0</ele>
      </trkpt>
      <trkpt lat="42.9322100" lon="-1.4969200">
        <ele>605.4</ele>
      </trkpt>
      <trkpt lat="42.9320100" lon="-1.4973400">
        <ele>596.8</ele>
      </trkpt>
      <trkpt lat="42.9315200" lon="-1.4979300">
        <ele>592.0</ele>
      </trkpt>
      <trkpt lat="42.9314900" lon="-1.4981200">
        <ele>584.8</ele>
      </trkpt>
      <trkpt lat="42.9313600" lon="-1.4983200">
        <ele>574.4</ele>
      </trkpt>
      <trkpt lat="42.9309300" lon="-1.4987100">
        <ele>568.0</ele>
      </trkpt>
      <trkpt lat="42.9306400" lon="-1.4993700">
        <ele>560.0</ele>
      </trkpt>
      <trkpt lat="42.9305800" lon="-1.4996600">
        <ele>551.0</ele>
      </trkpt>
      <trkpt lat="42.9303800" lon="-1.5001200">
        <ele>543.4</ele>
      </trkpt>
      <trkpt lat="42.9302600" lon="-1.5009100">
        <ele>539.0</ele>
      </trkpt>
      <trkpt lat="42.9301400" lon="-1.5017000">
        <ele>533.8</ele>
      </trkpt>
      <trkpt lat="42.9301800" lon="-1.5023200">
        <ele>530.2</ele>
      </trkpt>
      <trkpt lat="42.9298200" lon="-1.5028600">
        <ele>527.6</ele>
      </trkpt>
    </trkseg>
  </trk>
</gpx>