<?xml version="1.0" encoding="UTF-8"?>
<gpx version="1.1" creator="camino-2027 split of compostelle.fr CAMINO_FRANCES.gpx" xmlns="http://www.topografix.com/GPX/1/1">
  <metadata><name>도보 v2 DAY 1 생장 → 수비리</name><desc>compostelle.fr (VisuGPX) 도보 노선을 자전거 일정 경계로 잘라 낸 것 · 2026-09-12</desc></metadata>
  <trk><name>도보 v2 DAY 1 · 생장 → 수비리</name><trkseg>
      <trkpt lat="43.162530" lon="-1.237150"><ele>173.0</ele></trkpt>
      <trkpt lat="43.159680" lon="-1.238770"><ele>168.9</ele></trkpt>
      <trkpt lat="43.158890" lon="-1.239000"><ele>177.5</ele></trkpt>
      <trkpt lat="43.158230" lon="-1.239440"><ele>191.4</ele></trkpt>
      <trkpt lat="43.157640" lon="-1.239510"><ele>204.9</ele></trkpt>
      <trkpt lat="43.156400" lon="-1.240130"><ele>215.0</ele></trkpt>
      <trkpt lat="43.154760" lon="-1.241280"><ele>233.3</ele></trkpt>
      <trkpt lat="43.152230" lon="-1.242110"><ele>249.6</ele></trkpt>
      <trkpt lat="43.151030" lon="-1.242720"><ele>242.4</ele></trkpt>
      <trkpt lat="43.150270" lon="-1.242790"><ele>243.4</ele></trkpt>
      <trkpt lat="43.149600" lon="-1.242510"><ele>245.3</ele></trkpt>
      <trkpt lat="43.147510" lon="-1.242510"><ele>258.7</ele></trkpt>
      <trkpt lat="43.146900" lon="-1.242300"><ele>266.9</ele></trkpt>
      <trkpt lat="43.145280" lon="-1.240670"><ele>279.9</ele></trkpt>
      <trkpt lat="43.144540" lon="-1.240180"><ele>284.7</ele></trkpt>
      <trkpt lat="43.144230" lon="-1.240110"><ele>287.1</ele></trkpt>
      <trkpt lat="43.144000" lon="-1.240230"><ele>288.5</ele></trkpt>
      <trkpt lat="43.142710" lon="-1.241440"><ele>303.4</ele></trkpt>
      <trkpt lat="43.141460" lon="-1.241410"><ele>312.1</ele></trkpt>
      <trkpt lat="43.140850" lon="-1.241180"><ele>315.5</ele></trkpt>
      <trkpt lat="43.138670" lon="-1.239230"><ele>311.6</ele></trkpt>
      <trkpt lat="43.137270" lon="-1.238880"><ele>313.1</ele></trkpt>
      <trkpt lat="43.136490" lon="-1.238240"><ele>314.0</ele></trkpt>
      <trkpt lat="43.135860" lon="-1.238100"><ele>316.4</ele></trkpt>
      <trkpt lat="43.134760" lon="-1.238110"><ele>321.7</ele></trkpt>
      <trkpt lat="43.133910" lon="-1.238980"><ele>319.3</ele></trkpt>
      <trkpt lat="43.133460" lon="-1.238800"><ele>320.3</ele></trkpt>
      <trkpt lat="43.133090" lon="-1.238340"><ele>322.7</ele></trkpt>
      <trkpt lat="43.132780" lon="-1.238330"><ele>328.9</ele></trkpt>
      <trkpt lat="43.132290" lon="-1.238580"><ele>334.2</ele></trkpt>
      <trkpt lat="43.131210" lon="-1.239560"><ele>338.0</ele></trkpt>
      <trkpt lat="43.130770" lon="-1.240280"><ele>341.9</ele></trkpt>
      <trkpt lat="43.130550" lon="-1.241020"><ele>345.7</ele></trkpt>
      <trkpt lat="43.129820" lon="-1.241730"><ele>348.6</ele></trkpt>
      <trkpt lat="43.129620" lon="-1.242210"><ele>351.0</ele></trkpt>
      <trkpt lat="43.129490" lon="-1.243190"><ele>365.0</ele></trkpt>
      <trkpt lat="43.130360" lon="-1.245180"><ele>385.2</ele></trkpt>
      <trkpt lat="43.130330" lon="-1.245380"><ele>388.0</ele></trkpt>
      <trkpt lat="43.129810" lon="-1.244900"><ele>394.3</ele></trkpt>
      <trkpt lat="43.128080" lon="-1.244190"><ele>419.3</ele></trkpt>
      <trkpt lat="43.127020" lon="-1.244220"><ele>439.9</ele></trkpt>
      <trkpt lat="43.126040" lon="-1.244570"><ele>457.2</ele></trkpt>
      <trkpt lat="43.124890" lon="-1.244710"><ele>478.9</ele></trkpt>
      <trkpt lat="43.124070" lon="-1.245040"><ele>494.3</ele></trkpt>
      <trkpt lat="43.122840" lon="-1.244520"><ele>520.7</ele></trkpt>
      <trkpt lat="43.121150" lon="-1.243330"><ele>555.3</ele></trkpt>
      <trkpt lat="43.120590" lon="-1.242090"><ele>576.5</ele></trkpt>
      <trkpt lat="43.120020" lon="-1.242730"><ele>590.9</ele></trkpt>
      <trkpt lat="43.119870" lon="-1.241730"><ele>607.7</ele></trkpt>
      <trkpt lat="43.119260" lon="-1.242210"><ele>620.2</ele></trkpt>
      <trkpt lat="43.119020" lon="-1.242240"><ele>614.3</ele></trkpt>
      <trkpt lat="43.119040" lon="-1.241240"><ele>647.1</ele></trkpt>
      <trkpt lat="43.118550" lon="-1.241170"><ele>656.7</ele></trkpt>
      <trkpt lat="43.118930" lon="-1.240590"><ele>656.7</ele></trkpt>
      <trkpt lat="43.118900" lon="-1.240010"><ele>665.5</ele></trkpt>
      <trkpt lat="43.118790" lon="-1.239860"><ele>677.9</ele></trkpt>
      <trkpt lat="43.118370" lon="-1.240020"><ele>686.5</ele></trkpt>
      <trkpt lat="43.118140" lon="-1.239960"><ele>691.8</ele></trkpt>
      <trkpt lat="43.118090" lon="-1.238930"><ele>708.6</ele></trkpt>
      <trkpt lat="43.117870" lon="-1.238470"><ele>717.8</ele></trkpt>
      <trkpt lat="43.117580" lon="-1.238230"><ele>724.0</ele></trkpt>
      <trkpt lat="43.115810" lon="-1.237570"><ele>758.6</ele></trkpt>
      <trkpt lat="43.114660" lon="-1.237570"><ele>775.4</ele></trkpt>
      <trkpt lat="43.114440" lon="-1.237670"><ele>778.8</ele></trkpt>
      <trkpt lat="43.113750" lon="-1.237570"><ele>789.9</ele></trkpt>
      <trkpt lat="43.112970" lon="-1.237230"><ele>799.0</ele></trkpt>
      <trkpt lat="43.112410" lon="-1.237220"><ele>804.8</ele></trkpt>
      <trkpt lat="43.111080" lon="-1.237940"><ele>800.0</ele></trkpt>
      <trkpt lat="43.109560" lon="-1.238380"><ele>794.2</ele></trkpt>
      <trkpt lat="43.108890" lon="-1.239060"><ele>796.1</ele></trkpt>
      <trkpt lat="43.107900" lon="-1.239420"><ele>804.3</ele></trkpt>
      <trkpt lat="43.106600" lon="-1.239360"><ele>825.0</ele></trkpt>
      <trkpt lat="43.106400" lon="-1.238200"><ele>833.6</ele></trkpt>
      <trkpt lat="43.106210" lon="-1.237960"><ele>837.0</ele></trkpt>
      <trkpt lat="43.105770" lon="-1.237910"><ele>842.7</ele></trkpt>
      <trkpt lat="43.105480" lon="-1.238070"><ele>846.1</ele></trkpt>
      <trkpt lat="43.104260" lon="-1.239460"><ele>855.2</ele></trkpt>
      <trkpt lat="43.103620" lon="-1.239870"><ele>857.6</ele></trkpt>
      <trkpt lat="43.103100" lon="-1.239960"><ele>863.9</ele></trkpt>
      <trkpt lat="43.102340" lon="-1.239830"><ele>874.9</ele></trkpt>
      <trkpt lat="43.101360" lon="-1.240030"><ele>881.2</ele></trkpt>
      <trkpt lat="43.098480" lon="-1.241050"><ele>903.8</ele></trkpt>
      <trkpt lat="43.097860" lon="-1.241410"><ele>913.4</ele></trkpt>
      <trkpt lat="43.097470" lon="-1.241420"><ele>920.1</ele></trkpt>
      <trkpt lat="43.095530" lon="-1.242340"><ele>948.5</ele></trkpt>
      <trkpt lat="43.094110" lon="-1.242390"><ele>967.7</ele></trkpt>
      <trkpt lat="43.092990" lon="-1.242920"><ele>981.2</ele></trkpt>
      <trkpt lat="43.091700" lon="-1.243900"><ele>992.2</ele></trkpt>
      <trkpt lat="43.089420" lon="-1.244510"><ele>1009.0</ele></trkpt>
      <trkpt lat="43.088640" lon="-1.245250"><ele>1015.8</ele></trkpt>
      <trkpt lat="43.088470" lon="-1.245590"><ele>1018.2</ele></trkpt>
      <trkpt lat="43.088910" lon="-1.245810"><ele>1023.0</ele></trkpt>
      <trkpt lat="43.089540" lon="-1.246530"><ele>1032.6</ele></trkpt>
      <trkpt lat="43.089550" lon="-1.246740"><ele>1036.0</ele></trkpt>
      <trkpt lat="43.088070" lon="-1.248720"><ele>1052.3</ele></trkpt>
      <trkpt lat="43.087580" lon="-1.249830"><ele>1061.0</ele></trkpt>
      <trkpt lat="43.086550" lon="-1.250290"><ele>1072.0</ele></trkpt>
      <trkpt lat="43.085640" lon="-1.251840"><ele>1087.9</ele></trkpt>
      <trkpt lat="43.084700" lon="-1.252190"><ele>1092.7</ele></trkpt>
      <trkpt lat="43.083240" lon="-1.251910"><ele>1094.1</ele></trkpt>
      <trkpt lat="43.081460" lon="-1.252030"><ele>1097.0</ele></trkpt>
      <trkpt lat="43.080570" lon="-1.251790"><ele>1083.3</ele></trkpt>
      <trkpt lat="43.080950" lon="-1.252710"><ele>1100.0</ele></trkpt>
      <trkpt lat="43.081020" lon="-1.253430"><ele>1105.7</ele></trkpt>
      <trkpt lat="43.080400" lon="-1.255170"><ele>1118.6</ele></trkpt>
      <trkpt lat="43.079630" lon="-1.256510"><ele>1131.1</ele></trkpt>
      <trkpt lat="43.079660" lon="-1.256760"><ele>1132.6</ele></trkpt>
      <trkpt lat="43.080130" lon="-1.257320"><ele>1137.9</ele></trkpt>
      <trkpt lat="43.080220" lon="-1.258050"><ele>1137.9</ele></trkpt>
      <trkpt lat="43.080180" lon="-1.258450"><ele>1135.9</ele></trkpt>
      <trkpt lat="43.079730" lon="-1.259480"><ele>1128.7</ele></trkpt>
      <trkpt lat="43.077680" lon="-1.262500"><ele>1115.3</ele></trkpt>
      <trkpt lat="43.077240" lon="-1.262850"><ele>1116.7</ele></trkpt>
      <trkpt lat="43.076440" lon="-1.263150"><ele>1115.8</ele></trkpt>
      <trkpt lat="43.073990" lon="-1.266410"><ele>1132.1</ele></trkpt>
      <trkpt lat="43.073040" lon="-1.266780"><ele>1142.7</ele></trkpt>
      <trkpt lat="43.072590" lon="-1.266820"><ele>1145.6</ele></trkpt>
      <trkpt lat="43.071700" lon="-1.266620"><ele>1151.3</ele></trkpt>
      <trkpt lat="43.071180" lon="-1.266860"><ele>1156.1</ele></trkpt>
      <trkpt lat="43.071130" lon="-1.268670"><ele>1172.5</ele></trkpt>
      <trkpt lat="43.070950" lon="-1.269050"><ele>1175.4</ele></trkpt>
      <trkpt lat="43.070540" lon="-1.269330"><ele>1179.7</ele></trkpt>
      <trkpt lat="43.069720" lon="-1.269450"><ele>1188.3</ele></trkpt>
      <trkpt lat="43.068190" lon="-1.269030"><ele>1197.5</ele></trkpt>
      <trkpt lat="43.067700" lon="-1.268150"><ele>1197.0</ele></trkpt>
      <trkpt lat="43.067290" lon="-1.267780"><ele>1192.7</ele></trkpt>
      <trkpt lat="43.063740" lon="-1.266560"><ele>1196.0</ele></trkpt>
      <trkpt lat="43.063160" lon="-1.266550"><ele>1195.1</ele></trkpt>
      <trkpt lat="43.061860" lon="-1.266990"><ele>1197.0</ele></trkpt>
      <trkpt lat="43.061350" lon="-1.268280"><ele>1207.1</ele></trkpt>
      <trkpt lat="43.061040" lon="-1.268410"><ele>1210.0</ele></trkpt>
      <trkpt lat="43.059880" lon="-1.268210"><ele>1221.5</ele></trkpt>
      <trkpt lat="43.058310" lon="-1.267160"><ele>1233.5</ele></trkpt>
      <trkpt lat="43.056490" lon="-1.266340"><ele>1254.2</ele></trkpt>
      <trkpt lat="43.055670" lon="-1.266140"><ele>1267.9</ele></trkpt>
      <trkpt lat="43.055190" lon="-1.266370"><ele>1281.6</ele></trkpt>
      <trkpt lat="43.054780" lon="-1.266870"><ele>1290.2</ele></trkpt>
      <trkpt lat="43.053240" lon="-1.267490"><ele>1286.4</ele></trkpt>
      <trkpt lat="43.051650" lon="-1.267800"><ele>1283.0</ele></trkpt>
      <trkpt lat="43.050390" lon="-1.268470"><ele>1291.7</ele></trkpt>
      <trkpt lat="43.049860" lon="-1.268010"><ele>1297.4</ele></trkpt>
      <trkpt lat="43.049580" lon="-1.267280"><ele>1299.8</ele></trkpt>
      <trkpt lat="43.048600" lon="-1.265930"><ele>1303.2</ele></trkpt>
      <trkpt lat="43.047930" lon="-1.265390"><ele>1304.7</ele></trkpt>
      <trkpt lat="43.046820" lon="-1.264740"><ele>1316.0</ele></trkpt>
      <trkpt lat="43.045220" lon="-1.264940"><ele>1322.0</ele></trkpt>
      <trkpt lat="43.044740" lon="-1.265830"><ele>1323.8</ele></trkpt>
      <trkpt lat="43.044640" lon="-1.266640"><ele>1319.2</ele></trkpt>
      <trkpt lat="43.043470" lon="-1.268840"><ele>1332.9</ele></trkpt>
      <trkpt lat="43.042690" lon="-1.271910"><ele>1327.3</ele></trkpt>
      <trkpt lat="43.042570" lon="-1.273240"><ele>1311.0</ele></trkpt>
      <trkpt lat="43.041830" lon="-1.276820"><ele>1287.8</ele></trkpt>
      <trkpt lat="43.041630" lon="-1.277500"><ele>1289.8</ele></trkpt>
      <trkpt lat="43.041360" lon="-1.277810"><ele>1295.0</ele></trkpt>
      <trkpt lat="43.040700" lon="-1.279280"><ele>1288.3</ele></trkpt>
      <trkpt lat="43.040400" lon="-1.280810"><ele>1282.1</ele></trkpt>
      <trkpt lat="43.039610" lon="-1.282130"><ele>1280.1</ele></trkpt>
      <trkpt lat="43.039230" lon="-1.282120"><ele>1283.5</ele></trkpt>
      <trkpt lat="43.038900" lon="-1.282440"><ele>1282.5</ele></trkpt>
      <trkpt lat="43.038150" lon="-1.283980"><ele>1290.2</ele></trkpt>
      <trkpt lat="43.037870" lon="-1.285440"><ele>1301.8</ele></trkpt>
      <trkpt lat="43.037880" lon="-1.286630"><ele>1303.7</ele></trkpt>
      <trkpt lat="43.037350" lon="-1.288490"><ele>1311.4</ele></trkpt>
      <trkpt lat="43.036860" lon="-1.289450"><ele>1315.2</ele></trkpt>
      <trkpt lat="43.036820" lon="-1.290370"><ele>1331.6</ele></trkpt>
      <trkpt lat="43.036620" lon="-1.290880"><ele>1335.9</ele></trkpt>
      <trkpt lat="43.036180" lon="-1.291230"><ele>1334.0</ele></trkpt>
      <trkpt lat="43.035940" lon="-1.291660"><ele>1340.7</ele></trkpt>
      <trkpt lat="43.035560" lon="-1.291820"><ele>1346.9</ele></trkpt>
      <trkpt lat="43.035340" lon="-1.291750"><ele>1349.4</ele></trkpt>
      <trkpt lat="43.034820" lon="-1.290900"><ele>1359.9</ele></trkpt>
      <trkpt lat="43.034340" lon="-1.291790"><ele>1365.7</ele></trkpt>
      <trkpt lat="43.033980" lon="-1.291870"><ele>1367.6</ele></trkpt>
      <trkpt lat="43.033230" lon="-1.291640"><ele>1370.5</ele></trkpt>
      <trkpt lat="43.032880" lon="-1.291690"><ele>1374.3</ele></trkpt>
      <trkpt lat="43.030950" lon="-1.293840"><ele>1406.6</ele></trkpt>
      <trkpt lat="43.030650" lon="-1.295100"><ele>1409.4</ele></trkpt>
      <trkpt lat="43.030060" lon="-1.295920"><ele>1408.5</ele></trkpt>
      <trkpt lat="43.029770" lon="-1.296120"><ele>1411.4</ele></trkpt>
      <trkpt lat="43.028990" lon="-1.296160"><ele>1418.6</ele></trkpt>
      <trkpt lat="43.027210" lon="-1.295400"><ele>1420.0</ele></trkpt>
      <trkpt lat="43.026560" lon="-1.295290"><ele>1427.7</ele></trkpt>
      <trkpt lat="43.025910" lon="-1.295690"><ele>1428.7</ele></trkpt>
      <trkpt lat="43.025900" lon="-1.296150"><ele>1416.2</ele></trkpt>
      <trkpt lat="43.025630" lon="-1.296510"><ele>1403.7</ele></trkpt>
      <trkpt lat="43.024540" lon="-1.297460"><ele>1366.7</ele></trkpt>
      <trkpt lat="43.023000" lon="-1.298280"><ele>1315.2</ele></trkpt>
      <trkpt lat="43.021670" lon="-1.298460"><ele>1277.3</ele></trkpt>
      <trkpt lat="43.020670" lon="-1.300060"><ele>1259.9</ele></trkpt>
      <trkpt lat="43.020380" lon="-1.300140"><ele>1257.1</ele></trkpt>
      <trkpt lat="43.020070" lon="-1.299930"><ele>1252.3</ele></trkpt>
      <trkpt lat="43.020310" lon="-1.298720"><ele>1235.0</ele></trkpt>
      <trkpt lat="43.019370" lon="-1.299330"><ele>1213.3</ele></trkpt>
      <trkpt lat="43.018690" lon="-1.299400"><ele>1201.3</ele></trkpt>
      <trkpt lat="43.018340" lon="-1.299920"><ele>1189.3</ele></trkpt>
      <trkpt lat="43.017940" lon="-1.302090"><ele>1158.5</ele></trkpt>
      <trkpt lat="43.017130" lon="-1.302210"><ele>1138.8</ele></trkpt>
      <trkpt lat="43.016340" lon="-1.304490"><ele>1137.4</ele></trkpt>
      <trkpt lat="43.015530" lon="-1.305450"><ele>1150.4</ele></trkpt>
      <trkpt lat="43.015460" lon="-1.305970"><ele>1150.4</ele></trkpt>
      <trkpt lat="43.014750" lon="-1.307190"><ele>1139.8</ele></trkpt>
      <trkpt lat="43.013790" lon="-1.307630"><ele>1128.2</ele></trkpt>
      <trkpt lat="43.012530" lon="-1.309020"><ele>1105.7</ele></trkpt>
      <trkpt lat="43.012240" lon="-1.308990"><ele>1101.3</ele></trkpt>
      <trkpt lat="43.011820" lon="-1.308690"><ele>1091.2</ele></trkpt>
      <trkpt lat="43.011170" lon="-1.307820"><ele>1073.5</ele></trkpt>
      <trkpt lat="43.010020" lon="-1.307920"><ele>1047.5</ele></trkpt>
      <trkpt lat="43.009250" lon="-1.308360"><ele>1036.0</ele></trkpt>
      <trkpt lat="43.008970" lon="-1.308320"><ele>1031.2</ele></trkpt>
      <trkpt lat="43.008490" lon="-1.309600"><ele>1018.2</ele></trkpt>
      <trkpt lat="43.007970" lon="-1.309870"><ele>1007.1</ele></trkpt>
      <trkpt lat="43.007710" lon="-1.310210"><ele>1004.7</ele></trkpt>
      <trkpt lat="43.007430" lon="-1.311920"><ele>993.7</ele></trkpt>
      <trkpt lat="43.006720" lon="-1.313650"><ele>963.9</ele></trkpt>
      <trkpt lat="43.007090" lon="-1.314460"><ele>959.1</ele></trkpt>
      <trkpt lat="43.007290" lon="-1.315820"><ele>951.8</ele></trkpt>
      <trkpt lat="43.008310" lon="-1.317840"><ele>936.0</ele></trkpt>
      <trkpt lat="43.008830" lon="-1.318480"><ele>935.0</ele></trkpt>
      <trkpt lat="43.009050" lon="-1.319210"><ele>947.1</ele></trkpt>
      <trkpt lat="43.010070" lon="-1.318990"><ele>952.8</ele></trkpt>
      <trkpt lat="43.010470" lon="-1.319040"><ele>957.9</ele></trkpt>
      <trkpt lat="43.010510" lon="-1.319490"><ele>965.6</ele></trkpt>
      <trkpt lat="43.009770" lon="-1.319720"><ele>956.8</ele></trkpt>
      <trkpt lat="43.008550" lon="-1.319850"><ele>945.5</ele></trkpt>
      <trkpt lat="43.007950" lon="-1.319600"><ele>942.1</ele></trkpt>
      <trkpt lat="43.005630" lon="-1.319360"><ele>941.7</ele></trkpt>
      <trkpt lat="43.004950" lon="-1.319640"><ele>938.8</ele></trkpt>
      <trkpt lat="43.003410" lon="-1.320630"><ele>937.9</ele></trkpt>
      <trkpt lat="43.002500" lon="-1.321660"><ele>934.0</ele></trkpt>
      <trkpt lat="43.002100" lon="-1.322380"><ele>930.7</ele></trkpt>
      <trkpt lat="43.001440" lon="-1.324740"><ele>922.8</ele></trkpt>
      <trkpt lat="43.000530" lon="-1.326130"><ele>920.5</ele></trkpt>
      <trkpt lat="42.999980" lon="-1.327360"><ele>920.6</ele></trkpt>
      <trkpt lat="42.998820" lon="-1.327640"><ele>923.1</ele></trkpt>
      <trkpt lat="42.997560" lon="-1.328410"><ele>922.6</ele></trkpt>
      <trkpt lat="42.996500" lon="-1.330310"><ele>910.6</ele></trkpt>
      <trkpt lat="42.994430" lon="-1.329830"><ele>907.8</ele></trkpt>
      <trkpt lat="42.994040" lon="-1.329600"><ele>906.4</ele></trkpt>
      <trkpt lat="42.993470" lon="-1.329690"><ele>904.6</ele></trkpt>
      <trkpt lat="42.992440" lon="-1.330800"><ele>899.7</ele></trkpt>
      <trkpt lat="42.990720" lon="-1.334770"><ele>896.7</ele></trkpt>
      <trkpt lat="42.988420" lon="-1.336520"><ele>891.0</ele></trkpt>
      <trkpt lat="42.988680" lon="-1.338830"><ele>879.8</ele></trkpt>
      <trkpt lat="42.989510" lon="-1.341240"><ele>881.5</ele></trkpt>
      <trkpt lat="42.989440" lon="-1.341980"><ele>882.2</ele></trkpt>
      <trkpt lat="42.989680" lon="-1.342560"><ele>883.3</ele></trkpt>
      <trkpt lat="42.989690" lon="-1.344930"><ele>882.2</ele></trkpt>
      <trkpt lat="42.989310" lon="-1.345550"><ele>881.7</ele></trkpt>
      <trkpt lat="42.989320" lon="-1.347550"><ele>881.2</ele></trkpt>
      <trkpt lat="42.989990" lon="-1.351550"><ele>882.4</ele></trkpt>
      <trkpt lat="42.989630" lon="-1.355220"><ele>884.4</ele></trkpt>
      <trkpt lat="42.989290" lon="-1.355740"><ele>885.2</ele></trkpt>
      <trkpt lat="42.989580" lon="-1.358170"><ele>891.6</ele></trkpt>
      <trkpt lat="42.989550" lon="-1.359590"><ele>893.0</ele></trkpt>
      <trkpt lat="42.989130" lon="-1.360190"><ele>893.3</ele></trkpt>
      <trkpt lat="42.989140" lon="-1.360670"><ele>894.4</ele></trkpt>
      <trkpt lat="42.988350" lon="-1.360910"><ele>899.7</ele></trkpt>
      <trkpt lat="42.988030" lon="-1.361240"><ele>906.1</ele></trkpt>
      <trkpt lat="42.986630" lon="-1.361950"><ele>930.2</ele></trkpt>
      <trkpt lat="42.986220" lon="-1.362980"><ele>931.5</ele></trkpt>
      <trkpt lat="42.984530" lon="-1.364140"><ele>909.0</ele></trkpt>
      <trkpt lat="42.982160" lon="-1.366750"><ele>884.4</ele></trkpt>
      <trkpt lat="42.980960" lon="-1.367660"><ele>873.9</ele></trkpt>
      <trkpt lat="42.980320" lon="-1.369060"><ele>871.8</ele></trkpt>
      <trkpt lat="42.979170" lon="-1.369600"><ele>871.6</ele></trkpt>
      <trkpt lat="42.979960" lon="-1.372550"><ele>874.4</ele></trkpt>
      <trkpt lat="42.978180" lon="-1.374310"><ele>881.7</ele></trkpt>
      <trkpt lat="42.976040" lon="-1.379270"><ele>919.3</ele></trkpt>
      <trkpt lat="42.975580" lon="-1.381410"><ele>942.3</ele></trkpt>
      <trkpt lat="42.975700" lon="-1.381610"><ele>942.1</ele></trkpt>
      <trkpt lat="42.976880" lon="-1.382210"><ele>944.2</ele></trkpt>
      <trkpt lat="42.977480" lon="-1.383010"><ele>946.4</ele></trkpt>
      <trkpt lat="42.978530" lon="-1.384010"><ele>941.6</ele></trkpt>
      <trkpt lat="42.979730" lon="-1.385750"><ele>928.5</ele></trkpt>
      <trkpt lat="42.979940" lon="-1.387040"><ele>927.7</ele></trkpt>
      <trkpt lat="42.980240" lon="-1.387460"><ele>928.3</ele></trkpt>
      <trkpt lat="42.980270" lon="-1.387860"><ele>927.7</ele></trkpt>
      <trkpt lat="42.979610" lon="-1.388960"><ele>912.9</ele></trkpt>
      <trkpt lat="42.979240" lon="-1.390180"><ele>900.3</ele></trkpt>
      <trkpt lat="42.978790" lon="-1.390960"><ele>887.3</ele></trkpt>
      <trkpt lat="42.977990" lon="-1.393020"><ele>867.4</ele></trkpt>
      <trkpt lat="42.977690" lon="-1.396140"><ele>852.4</ele></trkpt>
      <trkpt lat="42.977320" lon="-1.397010"><ele>840.2</ele></trkpt>
      <trkpt lat="42.977590" lon="-1.398420"><ele>832.3</ele></trkpt>
      <trkpt lat="42.976970" lon="-1.398450"><ele>825.2</ele></trkpt>
      <trkpt lat="42.976700" lon="-1.398680"><ele>822.2</ele></trkpt>
      <trkpt lat="42.976490" lon="-1.398670"><ele>820.2</ele></trkpt>
      <trkpt lat="42.975960" lon="-1.399530"><ele>826.0</ele></trkpt>
      <trkpt lat="42.974110" lon="-1.401590"><ele>822.9</ele></trkpt>
      <trkpt lat="42.973710" lon="-1.402590"><ele>815.9</ele></trkpt>
      <trkpt lat="42.973130" lon="-1.403250"><ele>804.9</ele></trkpt>
      <trkpt lat="42.972810" lon="-1.403880"><ele>796.1</ele></trkpt>
      <trkpt lat="42.972450" lon="-1.404100"><ele>790.4</ele></trkpt>
      <trkpt lat="42.971960" lon="-1.404160"><ele>782.9</ele></trkpt>
      <trkpt lat="42.971780" lon="-1.404980"><ele>772.3</ele></trkpt>
      <trkpt lat="42.971310" lon="-1.405150"><ele>765.9</ele></trkpt>
      <trkpt lat="42.970830" lon="-1.405850"><ele>757.6</ele></trkpt>
      <trkpt lat="42.970930" lon="-1.406900"><ele>757.3</ele></trkpt>
      <trkpt lat="42.971360" lon="-1.407800"><ele>762.5</ele></trkpt>
      <trkpt lat="42.970900" lon="-1.409710"><ele>772.5</ele></trkpt>
      <trkpt lat="42.970310" lon="-1.411220"><ele>777.3</ele></trkpt>
      <trkpt lat="42.970000" lon="-1.413910"><ele>783.8</ele></trkpt>
      <trkpt lat="42.969080" lon="-1.416710"><ele>779.8</ele></trkpt>
      <trkpt lat="42.968920" lon="-1.416890"><ele>780.1</ele></trkpt>
      <trkpt lat="42.968190" lon="-1.417130"><ele>779.8</ele></trkpt>
      <trkpt lat="42.967320" lon="-1.418240"><ele>781.0</ele></trkpt>
      <trkpt lat="42.967600" lon="-1.418740"><ele>778.9</ele></trkpt>
      <trkpt lat="42.967560" lon="-1.421770"><ele>780.2</ele></trkpt>
      <trkpt lat="42.967220" lon="-1.423870"><ele>785.6</ele></trkpt>
      <trkpt lat="42.965760" lon="-1.428240"><ele>763.7</ele></trkpt>
      <trkpt lat="42.965900" lon="-1.429030"><ele>756.3</ele></trkpt>
      <trkpt lat="42.965600" lon="-1.429720"><ele>752.5</ele></trkpt>
      <trkpt lat="42.965240" lon="-1.431390"><ele>747.5</ele></trkpt>
      <trkpt lat="42.963720" lon="-1.434360"><ele>741.9</ele></trkpt>
      <trkpt lat="42.963640" lon="-1.435610"><ele>736.9</ele></trkpt>
      <trkpt lat="42.963160" lon="-1.436340"><ele>732.5</ele></trkpt>
      <trkpt lat="42.962690" lon="-1.437700"><ele>738.7</ele></trkpt>
      <trkpt lat="42.962320" lon="-1.437840"><ele>742.2</ele></trkpt>
      <trkpt lat="42.962040" lon="-1.438660"><ele>750.6</ele></trkpt>
      <trkpt lat="42.961320" lon="-1.441690"><ele>776.8</ele></trkpt>
      <trkpt lat="42.961200" lon="-1.442790"><ele>784.6</ele></trkpt>
      <trkpt lat="42.960930" lon="-1.443420"><ele>786.1</ele></trkpt>
      <trkpt lat="42.960960" lon="-1.444460"><ele>801.7</ele></trkpt>
      <trkpt lat="42.960620" lon="-1.445180"><ele>812.6</ele></trkpt>
      <trkpt lat="42.960350" lon="-1.446740"><ele>833.7</ele></trkpt>
      <trkpt lat="42.960000" lon="-1.447720"><ele>835.9</ele></trkpt>
      <trkpt lat="42.959930" lon="-1.448500"><ele>830.6</ele></trkpt>
      <trkpt lat="42.960260" lon="-1.449870"><ele>830.5</ele></trkpt>
      <trkpt lat="42.960440" lon="-1.450210"><ele>833.4</ele></trkpt>
      <trkpt lat="42.961070" lon="-1.450620"><ele>841.6</ele></trkpt>
      <trkpt lat="42.961260" lon="-1.451250"><ele>846.0</ele></trkpt>
      <trkpt lat="42.961160" lon="-1.452090"><ele>844.9</ele></trkpt>
      <trkpt lat="42.960780" lon="-1.452490"><ele>840.1</ele></trkpt>
      <trkpt lat="42.959210" lon="-1.452750"><ele>835.0</ele></trkpt>
      <trkpt lat="42.958920" lon="-1.452970"><ele>834.6</ele></trkpt>
      <trkpt lat="42.958670" lon="-1.453450"><ele>836.4</ele></trkpt>
      <trkpt lat="42.958580" lon="-1.454930"><ele>829.3</ele></trkpt>
      <trkpt lat="42.956160" lon="-1.454830"><ele>826.0</ele></trkpt>
      <trkpt lat="42.955670" lon="-1.455300"><ele>825.9</ele></trkpt>
      <trkpt lat="42.955220" lon="-1.457010"><ele>829.5</ele></trkpt>
      <trkpt lat="42.953720" lon="-1.458890"><ele>819.3</ele></trkpt>
      <trkpt lat="42.953930" lon="-1.460070"><ele>816.6</ele></trkpt>
      <trkpt lat="42.953930" lon="-1.460940"><ele>813.5</ele></trkpt>
      <trkpt lat="42.953600" lon="-1.462730"><ele>817.7</ele></trkpt>
      <trkpt lat="42.952110" lon="-1.464660"><ele>827.3</ele></trkpt>
      <trkpt lat="42.951150" lon="-1.465100"><ele>839.8</ele></trkpt>
      <trkpt lat="42.950540" lon="-1.464600"><ele>842.1</ele></trkpt>
      <trkpt lat="42.950210" lon="-1.463840"><ele>840.5</ele></trkpt>
      <trkpt lat="42.950050" lon="-1.463750"><ele>839.4</ele></trkpt>
      <trkpt lat="42.949220" lon="-1.465860"><ele>854.6</ele></trkpt>
      <trkpt lat="42.948370" lon="-1.466950"><ele>845.5</ele></trkpt>
      <trkpt lat="42.947440" lon="-1.467410"><ele>835.8</ele></trkpt>
      <trkpt lat="42.945640" lon="-1.467970"><ele>820.2</ele></trkpt>
      <trkpt lat="42.944950" lon="-1.468730"><ele>809.0</ele></trkpt>
      <trkpt lat="42.943580" lon="-1.469300"><ele>808.6</ele></trkpt>
      <trkpt lat="42.942050" lon="-1.470340"><ele>802.5</ele></trkpt>
      <trkpt lat="42.941630" lon="-1.470440"><ele>799.0</ele></trkpt>
      <trkpt lat="42.939800" lon="-1.471650"><ele>797.0</ele></trkpt>
      <trkpt lat="42.938720" lon="-1.472900"><ele>788.9</ele></trkpt>
      <trkpt lat="42.938050" lon="-1.474450"><ele>779.7</ele></trkpt>
      <trkpt lat="42.937480" lon="-1.477360"><ele>776.8</ele></trkpt>
      <trkpt lat="42.938490" lon="-1.482840"><ele>746.5</ele></trkpt>
      <trkpt lat="42.938800" lon="-1.483180"><ele>743.5</ele></trkpt>
      <trkpt lat="42.938540" lon="-1.484240"><ele>730.8</ele></trkpt>
      <trkpt lat="42.938550" lon="-1.484820"><ele>724.6</ele></trkpt>
      <trkpt lat="42.939190" lon="-1.486520"><ele>716.8</ele></trkpt>
      <trkpt lat="42.939630" lon="-1.487050"><ele>708.3</ele></trkpt>
      <trkpt lat="42.939660" lon="-1.487420"><ele>705.8</ele></trkpt>
      <trkpt lat="42.939200" lon="-1.488860"><ele>691.2</ele></trkpt>
      <trkpt lat="42.938360" lon="-1.490110"><ele>668.6</ele></trkpt>
      <trkpt lat="42.937770" lon="-1.493230"><ele>642.9</ele></trkpt>
      <trkpt lat="42.936840" lon="-1.494220"><ele>633.0</ele></trkpt>
      <trkpt lat="42.935770" lon="-1.495080"><ele>632.9</ele></trkpt>
      <trkpt lat="42.933570" lon="-1.496020"><ele>626.6</ele></trkpt>
      <trkpt lat="42.932110" lon="-1.497070"><ele>605.4</ele></trkpt>
      <trkpt lat="42.931330" lon="-1.498310"><ele>577.9</ele></trkpt>
      <trkpt lat="42.930790" lon="-1.498840"><ele>566.7</ele></trkpt>
      <trkpt lat="42.930440" lon="-1.499960"><ele>551.4</ele></trkpt>
      <trkpt lat="42.930170" lon="-1.501600"><ele>540.4</ele></trkpt>
      <trkpt lat="42.930190" lon="-1.502280"><ele>534.9</ele></trkpt>
      <trkpt lat="42.929850" lon="-1.502810"><ele>531.2</ele></trkpt>
      <trkpt lat="42.929220" lon="-1.502800"><ele>533.4</ele></trkpt>
      <trkpt lat="42.928680" lon="-1.502280"><ele>536.7</ele></trkpt>
      <trkpt lat="42.928220" lon="-1.502170"><ele>539.9</ele></trkpt>
    </trkseg></trk>
</gpx>
