<?xml version="1.0" encoding="UTF-8"?>
<gpx version="1.1" creator="camino-2027 split of compostelle.fr CAMINO_FRANCES.gpx" xmlns="http://www.topografix.com/GPX/1/1">
  <metadata><name>도보 v2 DAY 5 벨로라도 → 카스트로헤리스</name><desc>compostelle.fr (VisuGPX) 도보 노선을 자전거 일정 경계로 잘라 낸 것 · 2026-09-12</desc></metadata>
  <trk><name>도보 v2 DAY 5 · 벨로라도 → 카스트로헤리스</name><trkseg>
      <trkpt lat="42.420370" lon="-3.192880"><ele>768.6</ele></trkpt>
      <trkpt lat="42.419390" lon="-3.194980"><ele>767.8</ele></trkpt>
      <trkpt lat="42.418820" lon="-3.195790"><ele>767.7</ele></trkpt>
      <trkpt lat="42.418840" lon="-3.196500"><ele>766.4</ele></trkpt>
      <trkpt lat="42.418360" lon="-3.197980"><ele>766.6</ele></trkpt>
      <trkpt lat="42.418090" lon="-3.200000"><ele>765.1</ele></trkpt>
      <trkpt lat="42.417700" lon="-3.201030"><ele>764.9</ele></trkpt>
      <trkpt lat="42.417780" lon="-3.201650"><ele>763.3</ele></trkpt>
      <trkpt lat="42.418620" lon="-3.203470"><ele>763.5</ele></trkpt>
      <trkpt lat="42.418570" lon="-3.204150"><ele>766.3</ele></trkpt>
      <trkpt lat="42.418090" lon="-3.205420"><ele>769.9</ele></trkpt>
      <trkpt lat="42.417360" lon="-3.206240"><ele>772.2</ele></trkpt>
      <trkpt lat="42.416980" lon="-3.206940"><ele>773.9</ele></trkpt>
      <trkpt lat="42.415890" lon="-3.210290"><ele>778.5</ele></trkpt>
      <trkpt lat="42.415020" lon="-3.211980"><ele>788.2</ele></trkpt>
      <trkpt lat="42.414240" lon="-3.214950"><ele>789.5</ele></trkpt>
      <trkpt lat="42.413020" lon="-3.218130"><ele>791.8</ele></trkpt>
      <trkpt lat="42.412720" lon="-3.219750"><ele>792.7</ele></trkpt>
      <trkpt lat="42.412690" lon="-3.221160"><ele>792.7</ele></trkpt>
      <trkpt lat="42.412320" lon="-3.224170"><ele>797.5</ele></trkpt>
      <trkpt lat="42.411430" lon="-3.228140"><ele>801.0</ele></trkpt>
      <trkpt lat="42.411330" lon="-3.230670"><ele>805.5</ele></trkpt>
      <trkpt lat="42.411500" lon="-3.233450"><ele>806.5</ele></trkpt>
      <trkpt lat="42.412170" lon="-3.235670"><ele>809.8</ele></trkpt>
      <trkpt lat="42.413170" lon="-3.243820"><ele>823.5</ele></trkpt>
      <trkpt lat="42.412550" lon="-3.244580"><ele>827.1</ele></trkpt>
      <trkpt lat="42.411750" lon="-3.246070"><ele>834.2</ele></trkpt>
      <trkpt lat="42.411490" lon="-3.246840"><ele>837.1</ele></trkpt>
      <trkpt lat="42.408930" lon="-3.251210"><ele>845.5</ele></trkpt>
      <trkpt lat="42.406610" lon="-3.253950"><ele>847.1</ele></trkpt>
      <trkpt lat="42.404790" lon="-3.259000"><ele>861.5</ele></trkpt>
      <trkpt lat="42.404670" lon="-3.261220"><ele>864.0</ele></trkpt>
      <trkpt lat="42.404420" lon="-3.261910"><ele>864.0</ele></trkpt>
      <trkpt lat="42.404710" lon="-3.263430"><ele>860.0</ele></trkpt>
      <trkpt lat="42.404390" lon="-3.264310"><ele>862.4</ele></trkpt>
      <trkpt lat="42.404590" lon="-3.265840"><ele>863.8</ele></trkpt>
      <trkpt lat="42.404700" lon="-3.272790"><ele>881.3</ele></trkpt>
      <trkpt lat="42.405070" lon="-3.274210"><ele>879.4</ele></trkpt>
      <trkpt lat="42.404970" lon="-3.275070"><ele>881.4</ele></trkpt>
      <trkpt lat="42.405260" lon="-3.276720"><ele>887.4</ele></trkpt>
      <trkpt lat="42.405130" lon="-3.278220"><ele>891.9</ele></trkpt>
      <trkpt lat="42.405710" lon="-3.280640"><ele>897.1</ele></trkpt>
      <trkpt lat="42.405750" lon="-3.281420"><ele>897.4</ele></trkpt>
      <trkpt lat="42.405950" lon="-3.281730"><ele>896.3</ele></trkpt>
      <trkpt lat="42.406360" lon="-3.281950"><ele>893.6</ele></trkpt>
      <trkpt lat="42.405210" lon="-3.283610"><ele>892.7</ele></trkpt>
      <trkpt lat="42.405030" lon="-3.284090"><ele>892.9</ele></trkpt>
      <trkpt lat="42.404130" lon="-3.288050"><ele>913.9</ele></trkpt>
      <trkpt lat="42.404310" lon="-3.289340"><ele>919.5</ele></trkpt>
      <trkpt lat="42.404030" lon="-3.291380"><ele>927.5</ele></trkpt>
      <trkpt lat="42.403250" lon="-3.293450"><ele>936.6</ele></trkpt>
      <trkpt lat="42.401470" lon="-3.300940"><ele>922.5</ele></trkpt>
      <trkpt lat="42.396770" lon="-3.302890"><ele>927.3</ele></trkpt>
      <trkpt lat="42.396390" lon="-3.302840"><ele>928.8</ele></trkpt>
      <trkpt lat="42.395900" lon="-3.302250"><ele>933.3</ele></trkpt>
      <trkpt lat="42.395730" lon="-3.302280"><ele>934.1</ele></trkpt>
      <trkpt lat="42.394730" lon="-3.303310"><ele>934.3</ele></trkpt>
      <trkpt lat="42.393980" lon="-3.303730"><ele>936.6</ele></trkpt>
      <trkpt lat="42.391960" lon="-3.305410"><ele>938.1</ele></trkpt>
      <trkpt lat="42.390790" lon="-3.307030"><ele>936.9</ele></trkpt>
      <trkpt lat="42.390390" lon="-3.307840"><ele>940.6</ele></trkpt>
      <trkpt lat="42.389700" lon="-3.308410"><ele>945.1</ele></trkpt>
      <trkpt lat="42.389170" lon="-3.308660"><ele>946.5</ele></trkpt>
      <trkpt lat="42.388750" lon="-3.309290"><ele>952.4</ele></trkpt>
      <trkpt lat="42.388380" lon="-3.309520"><ele>954.8</ele></trkpt>
      <trkpt lat="42.387640" lon="-3.310410"><ele>969.9</ele></trkpt>
      <trkpt lat="42.387570" lon="-3.310790"><ele>976.3</ele></trkpt>
      <trkpt lat="42.388110" lon="-3.312600"><ele>984.9</ele></trkpt>
      <trkpt lat="42.388010" lon="-3.313430"><ele>989.8</ele></trkpt>
      <trkpt lat="42.388590" lon="-3.315880"><ele>1016.8</ele></trkpt>
      <trkpt lat="42.387970" lon="-3.318610"><ele>1039.7</ele></trkpt>
      <trkpt lat="42.386690" lon="-3.322050"><ele>1073.2</ele></trkpt>
      <trkpt lat="42.386350" lon="-3.322500"><ele>1071.7</ele></trkpt>
      <trkpt lat="42.385790" lon="-3.325140"><ele>1095.0</ele></trkpt>
      <trkpt lat="42.385520" lon="-3.325280"><ele>1097.6</ele></trkpt>
      <trkpt lat="42.384760" lon="-3.325040"><ele>1096.0</ele></trkpt>
      <trkpt lat="42.384160" lon="-3.325350"><ele>1101.5</ele></trkpt>
      <trkpt lat="42.383580" lon="-3.326240"><ele>1112.7</ele></trkpt>
      <trkpt lat="42.382860" lon="-3.326920"><ele>1115.9</ele></trkpt>
      <trkpt lat="42.381450" lon="-3.329040"><ele>1129.3</ele></trkpt>
      <trkpt lat="42.380110" lon="-3.330120"><ele>1132.6</ele></trkpt>
      <trkpt lat="42.378810" lon="-3.331820"><ele>1141.7</ele></trkpt>
      <trkpt lat="42.378050" lon="-3.332510"><ele>1144.0</ele></trkpt>
      <trkpt lat="42.376290" lon="-3.335390"><ele>1150.2</ele></trkpt>
      <trkpt lat="42.374860" lon="-3.336950"><ele>1152.8</ele></trkpt>
      <trkpt lat="42.373510" lon="-3.340060"><ele>1148.9</ele></trkpt>
      <trkpt lat="42.372870" lon="-3.342060"><ele>1148.9</ele></trkpt>
      <trkpt lat="42.371900" lon="-3.343980"><ele>1134.3</ele></trkpt>
      <trkpt lat="42.370400" lon="-3.347540"><ele>1121.1</ele></trkpt>
      <trkpt lat="42.369900" lon="-3.348240"><ele>1126.7</ele></trkpt>
      <trkpt lat="42.369080" lon="-3.348730"><ele>1131.3</ele></trkpt>
      <trkpt lat="42.368090" lon="-3.349920"><ele>1138.2</ele></trkpt>
      <trkpt lat="42.366500" lon="-3.353630"><ele>1150.6</ele></trkpt>
      <trkpt lat="42.365980" lon="-3.357730"><ele>1156.1</ele></trkpt>
      <trkpt lat="42.366150" lon="-3.364160"><ele>1145.6</ele></trkpt>
      <trkpt lat="42.367030" lon="-3.367920"><ele>1140.6</ele></trkpt>
      <trkpt lat="42.367910" lon="-3.369110"><ele>1138.0</ele></trkpt>
      <trkpt lat="42.368730" lon="-3.370890"><ele>1137.7</ele></trkpt>
      <trkpt lat="42.369110" lon="-3.373410"><ele>1138.0</ele></trkpt>
      <trkpt lat="42.369630" lon="-3.375140"><ele>1133.4</ele></trkpt>
      <trkpt lat="42.370020" lon="-3.379160"><ele>1129.3</ele></trkpt>
      <trkpt lat="42.370610" lon="-3.381250"><ele>1122.8</ele></trkpt>
      <trkpt lat="42.374110" lon="-3.391520"><ele>1098.5</ele></trkpt>
      <trkpt lat="42.374270" lon="-3.394040"><ele>1095.9</ele></trkpt>
      <trkpt lat="42.374860" lon="-3.396060"><ele>1093.0</ele></trkpt>
      <trkpt lat="42.377190" lon="-3.409350"><ele>1073.2</ele></trkpt>
      <trkpt lat="42.377330" lon="-3.410440"><ele>1068.9</ele></trkpt>
      <trkpt lat="42.377270" lon="-3.412540"><ele>1059.4</ele></trkpt>
      <trkpt lat="42.377980" lon="-3.417660"><ele>1050.4</ele></trkpt>
      <trkpt lat="42.377980" lon="-3.418590"><ele>1049.9</ele></trkpt>
      <trkpt lat="42.377680" lon="-3.420080"><ele>1043.8</ele></trkpt>
      <trkpt lat="42.377630" lon="-3.421910"><ele>1038.1</ele></trkpt>
      <trkpt lat="42.377750" lon="-3.423190"><ele>1033.4</ele></trkpt>
      <trkpt lat="42.377420" lon="-3.426110"><ele>1016.3</ele></trkpt>
      <trkpt lat="42.377450" lon="-3.429310"><ele>1008.3</ele></trkpt>
      <trkpt lat="42.377190" lon="-3.430410"><ele>1006.3</ele></trkpt>
      <trkpt lat="42.377020" lon="-3.432130"><ele>1005.1</ele></trkpt>
      <trkpt lat="42.376580" lon="-3.433300"><ele>1004.6</ele></trkpt>
      <trkpt lat="42.376040" lon="-3.433970"><ele>1005.5</ele></trkpt>
      <trkpt lat="42.375860" lon="-3.435180"><ele>1005.4</ele></trkpt>
      <trkpt lat="42.375770" lon="-3.437130"><ele>1004.9</ele></trkpt>
      <trkpt lat="42.376340" lon="-3.440890"><ele>999.8</ele></trkpt>
      <trkpt lat="42.376020" lon="-3.441540"><ele>1004.8</ele></trkpt>
      <trkpt lat="42.375800" lon="-3.443250"><ele>1011.4</ele></trkpt>
      <trkpt lat="42.375130" lon="-3.445830"><ele>1013.6</ele></trkpt>
      <trkpt lat="42.374720" lon="-3.448410"><ele>1013.3</ele></trkpt>
      <trkpt lat="42.374570" lon="-3.452030"><ele>1012.6</ele></trkpt>
      <trkpt lat="42.374280" lon="-3.452790"><ele>1013.9</ele></trkpt>
      <trkpt lat="42.374210" lon="-3.454400"><ele>1011.7</ele></trkpt>
      <trkpt lat="42.373250" lon="-3.458630"><ele>1003.8</ele></trkpt>
      <trkpt lat="42.372220" lon="-3.461490"><ele>997.8</ele></trkpt>
      <trkpt lat="42.371960" lon="-3.463070"><ele>998.5</ele></trkpt>
      <trkpt lat="42.371840" lon="-3.465370"><ele>997.9</ele></trkpt>
      <trkpt lat="42.372270" lon="-3.468440"><ele>993.6</ele></trkpt>
      <trkpt lat="42.372140" lon="-3.469510"><ele>992.3</ele></trkpt>
      <trkpt lat="42.372360" lon="-3.470440"><ele>992.3</ele></trkpt>
      <trkpt lat="42.372350" lon="-3.471650"><ele>990.8</ele></trkpt>
      <trkpt lat="42.371990" lon="-3.473350"><ele>982.9</ele></trkpt>
      <trkpt lat="42.370290" lon="-3.476400"><ele>965.8</ele></trkpt>
      <trkpt lat="42.369890" lon="-3.477440"><ele>965.4</ele></trkpt>
      <trkpt lat="42.369760" lon="-3.478310"><ele>966.6</ele></trkpt>
      <trkpt lat="42.369970" lon="-3.479130"><ele>966.6</ele></trkpt>
      <trkpt lat="42.370230" lon="-3.479550"><ele>965.6</ele></trkpt>
      <trkpt lat="42.370310" lon="-3.480620"><ele>963.3</ele></trkpt>
      <trkpt lat="42.371200" lon="-3.482830"><ele>952.4</ele></trkpt>
      <trkpt lat="42.371670" lon="-3.484420"><ele>948.7</ele></trkpt>
      <trkpt lat="42.371680" lon="-3.488980"><ele>948.7</ele></trkpt>
      <trkpt lat="42.374050" lon="-3.501580"><ele>952.5</ele></trkpt>
      <trkpt lat="42.375260" lon="-3.505530"><ele>954.8</ele></trkpt>
      <trkpt lat="42.377650" lon="-3.509700"><ele>954.5</ele></trkpt>
      <trkpt lat="42.377320" lon="-3.510380"><ele>952.8</ele></trkpt>
      <trkpt lat="42.377180" lon="-3.512460"><ele>954.5</ele></trkpt>
      <trkpt lat="42.377920" lon="-3.515310"><ele>965.1</ele></trkpt>
      <trkpt lat="42.377970" lon="-3.516570"><ele>970.4</ele></trkpt>
      <trkpt lat="42.378890" lon="-3.519490"><ele>977.0</ele></trkpt>
      <trkpt lat="42.379120" lon="-3.521950"><ele>994.8</ele></trkpt>
      <trkpt lat="42.379000" lon="-3.523030"><ele>1006.2</ele></trkpt>
      <trkpt lat="42.378740" lon="-3.523900"><ele>1015.7</ele></trkpt>
      <trkpt lat="42.379320" lon="-3.526180"><ele>1029.9</ele></trkpt>
      <trkpt lat="42.379240" lon="-3.527480"><ele>1041.3</ele></trkpt>
      <trkpt lat="42.379570" lon="-3.528670"><ele>1052.9</ele></trkpt>
      <trkpt lat="42.380110" lon="-3.529530"><ele>1055.6</ele></trkpt>
      <trkpt lat="42.380260" lon="-3.530820"><ele>1059.7</ele></trkpt>
      <trkpt lat="42.379510" lon="-3.534650"><ele>1072.2</ele></trkpt>
      <trkpt lat="42.378920" lon="-3.535820"><ele>1070.1</ele></trkpt>
      <trkpt lat="42.378140" lon="-3.536800"><ele>1058.4</ele></trkpt>
      <trkpt lat="42.377550" lon="-3.538030"><ele>1043.6</ele></trkpt>
      <trkpt lat="42.377250" lon="-3.540060"><ele>1023.6</ele></trkpt>
      <trkpt lat="42.377290" lon="-3.541500"><ele>1015.2</ele></trkpt>
      <trkpt lat="42.377170" lon="-3.542270"><ele>1012.0</ele></trkpt>
      <trkpt lat="42.376380" lon="-3.542680"><ele>1002.3</ele></trkpt>
      <trkpt lat="42.375860" lon="-3.543300"><ele>991.6</ele></trkpt>
      <trkpt lat="42.375300" lon="-3.544720"><ele>976.1</ele></trkpt>
      <trkpt lat="42.374200" lon="-3.546630"><ele>965.7</ele></trkpt>
      <trkpt lat="42.373370" lon="-3.547460"><ele>963.0</ele></trkpt>
      <trkpt lat="42.372280" lon="-3.548190"><ele>959.3</ele></trkpt>
      <trkpt lat="42.370470" lon="-3.549740"><ele>949.7</ele></trkpt>
      <trkpt lat="42.369650" lon="-3.550650"><ele>948.3</ele></trkpt>
      <trkpt lat="42.369600" lon="-3.551610"><ele>948.8</ele></trkpt>
      <trkpt lat="42.369070" lon="-3.552750"><ele>945.9</ele></trkpt>
      <trkpt lat="42.368650" lon="-3.554250"><ele>943.9</ele></trkpt>
      <trkpt lat="42.368850" lon="-3.555250"><ele>942.3</ele></trkpt>
      <trkpt lat="42.368110" lon="-3.556740"><ele>939.7</ele></trkpt>
      <trkpt lat="42.367770" lon="-3.557100"><ele>938.7</ele></trkpt>
      <trkpt lat="42.367040" lon="-3.557430"><ele>937.8</ele></trkpt>
      <trkpt lat="42.365540" lon="-3.557410"><ele>934.3</ele></trkpt>
      <trkpt lat="42.364410" lon="-3.556770"><ele>932.4</ele></trkpt>
      <trkpt lat="42.363230" lon="-3.555530"><ele>929.3</ele></trkpt>
      <trkpt lat="42.362530" lon="-3.555430"><ele>926.8</ele></trkpt>
      <trkpt lat="42.361820" lon="-3.555630"><ele>926.5</ele></trkpt>
      <trkpt lat="42.361340" lon="-3.555970"><ele>926.5</ele></trkpt>
      <trkpt lat="42.360320" lon="-3.557120"><ele>926.4</ele></trkpt>
      <trkpt lat="42.358560" lon="-3.561800"><ele>922.9</ele></trkpt>
      <trkpt lat="42.358470" lon="-3.562640"><ele>921.3</ele></trkpt>
      <trkpt lat="42.358770" lon="-3.564850"><ele>918.9</ele></trkpt>
      <trkpt lat="42.358500" lon="-3.566040"><ele>917.4</ele></trkpt>
      <trkpt lat="42.358460" lon="-3.567690"><ele>916.6</ele></trkpt>
      <trkpt lat="42.358970" lon="-3.569570"><ele>915.1</ele></trkpt>
      <trkpt lat="42.359220" lon="-3.571710"><ele>912.9</ele></trkpt>
      <trkpt lat="42.359510" lon="-3.572920"><ele>913.5</ele></trkpt>
      <trkpt lat="42.359660" lon="-3.575160"><ele>912.4</ele></trkpt>
      <trkpt lat="42.359470" lon="-3.577090"><ele>911.0</ele></trkpt>
      <trkpt lat="42.359660" lon="-3.580710"><ele>909.5</ele></trkpt>
      <trkpt lat="42.359890" lon="-3.581920"><ele>909.9</ele></trkpt>
      <trkpt lat="42.360410" lon="-3.583270"><ele>912.2</ele></trkpt>
      <trkpt lat="42.359990" lon="-3.585140"><ele>909.4</ele></trkpt>
      <trkpt lat="42.360260" lon="-3.587720"><ele>905.0</ele></trkpt>
      <trkpt lat="42.360980" lon="-3.590410"><ele>904.5</ele></trkpt>
      <trkpt lat="42.361090" lon="-3.591770"><ele>904.3</ele></trkpt>
      <trkpt lat="42.362030" lon="-3.593960"><ele>902.5</ele></trkpt>
      <trkpt lat="42.362080" lon="-3.595600"><ele>903.7</ele></trkpt>
      <trkpt lat="42.363020" lon="-3.598070"><ele>899.5</ele></trkpt>
      <trkpt lat="42.363630" lon="-3.600810"><ele>899.6</ele></trkpt>
      <trkpt lat="42.364420" lon="-3.601710"><ele>896.8</ele></trkpt>
      <trkpt lat="42.364950" lon="-3.601800"><ele>896.1</ele></trkpt>
      <trkpt lat="42.365540" lon="-3.601540"><ele>896.0</ele></trkpt>
      <trkpt lat="42.366110" lon="-3.601510"><ele>896.3</ele></trkpt>
      <trkpt lat="42.366680" lon="-3.601850"><ele>897.0</ele></trkpt>
      <trkpt lat="42.367330" lon="-3.602810"><ele>894.0</ele></trkpt>
      <trkpt lat="42.367470" lon="-3.603880"><ele>893.2</ele></trkpt>
      <trkpt lat="42.367120" lon="-3.604710"><ele>892.2</ele></trkpt>
      <trkpt lat="42.364100" lon="-3.608560"><ele>894.6</ele></trkpt>
      <trkpt lat="42.363880" lon="-3.609150"><ele>894.5</ele></trkpt>
      <trkpt lat="42.363830" lon="-3.609800"><ele>894.5</ele></trkpt>
      <trkpt lat="42.364270" lon="-3.611650"><ele>893.5</ele></trkpt>
      <trkpt lat="42.364280" lon="-3.613040"><ele>891.7</ele></trkpt>
      <trkpt lat="42.363870" lon="-3.614260"><ele>892.2</ele></trkpt>
      <trkpt lat="42.362860" lon="-3.615470"><ele>895.3</ele></trkpt>
      <trkpt lat="42.362980" lon="-3.615860"><ele>895.2</ele></trkpt>
      <trkpt lat="42.363930" lon="-3.616510"><ele>892.2</ele></trkpt>
      <trkpt lat="42.364220" lon="-3.617080"><ele>891.6</ele></trkpt>
      <trkpt lat="42.364530" lon="-3.620360"><ele>889.9</ele></trkpt>
      <trkpt lat="42.364290" lon="-3.620780"><ele>891.4</ele></trkpt>
      <trkpt lat="42.364340" lon="-3.621740"><ele>891.8</ele></trkpt>
      <trkpt lat="42.363390" lon="-3.626010"><ele>891.2</ele></trkpt>
      <trkpt lat="42.361160" lon="-3.638230"><ele>883.4</ele></trkpt>
      <trkpt lat="42.361010" lon="-3.638810"><ele>881.6</ele></trkpt>
      <trkpt lat="42.360560" lon="-3.639370"><ele>878.6</ele></trkpt>
      <trkpt lat="42.360450" lon="-3.641910"><ele>882.5</ele></trkpt>
      <trkpt lat="42.359450" lon="-3.647200"><ele>882.0</ele></trkpt>
      <trkpt lat="42.358440" lon="-3.650800"><ele>880.2</ele></trkpt>
      <trkpt lat="42.358130" lon="-3.651160"><ele>879.3</ele></trkpt>
      <trkpt lat="42.357990" lon="-3.652430"><ele>880.6</ele></trkpt>
      <trkpt lat="42.356310" lon="-3.658560"><ele>874.3</ele></trkpt>
      <trkpt lat="42.354120" lon="-3.666570"><ele>874.4</ele></trkpt>
      <trkpt lat="42.353900" lon="-3.667230"><ele>872.6</ele></trkpt>
      <trkpt lat="42.353490" lon="-3.667770"><ele>871.1</ele></trkpt>
      <trkpt lat="42.353240" lon="-3.669020"><ele>875.7</ele></trkpt>
      <trkpt lat="42.350320" lon="-3.674580"><ele>869.5</ele></trkpt>
      <trkpt lat="42.349530" lon="-3.675570"><ele>867.9</ele></trkpt>
      <trkpt lat="42.349330" lon="-3.676280"><ele>868.1</ele></trkpt>
      <trkpt lat="42.348970" lon="-3.676890"><ele>866.8</ele></trkpt>
      <trkpt lat="42.348940" lon="-3.677860"><ele>867.0</ele></trkpt>
      <trkpt lat="42.348450" lon="-3.680790"><ele>866.6</ele></trkpt>
      <trkpt lat="42.346500" lon="-3.683030"><ele>866.1</ele></trkpt>
      <trkpt lat="42.345440" lon="-3.685040"><ele>863.9</ele></trkpt>
      <trkpt lat="42.345730" lon="-3.685720"><ele>860.4</ele></trkpt>
      <trkpt lat="42.345520" lon="-3.686490"><ele>862.9</ele></trkpt>
      <trkpt lat="42.345960" lon="-3.686970"><ele>864.3</ele></trkpt>
      <trkpt lat="42.345920" lon="-3.687270"><ele>865.9</ele></trkpt>
      <trkpt lat="42.345310" lon="-3.687140"><ele>866.2</ele></trkpt>
      <trkpt lat="42.344000" lon="-3.691650"><ele>864.4</ele></trkpt>
      <trkpt lat="42.343690" lon="-3.693530"><ele>872.9</ele></trkpt>
      <trkpt lat="42.342890" lon="-3.696710"><ele>865.1</ele></trkpt>
      <trkpt lat="42.342830" lon="-3.699280"><ele>865.5</ele></trkpt>
      <trkpt lat="42.343310" lon="-3.701110"><ele>865.7</ele></trkpt>
      <trkpt lat="42.343130" lon="-3.702200"><ele>868.6</ele></trkpt>
      <trkpt lat="42.342230" lon="-3.703850"><ele>873.0</ele></trkpt>
      <trkpt lat="42.341700" lon="-3.704100"><ele>872.1</ele></trkpt>
      <trkpt lat="42.340790" lon="-3.705000"><ele>869.7</ele></trkpt>
      <trkpt lat="42.340200" lon="-3.706560"><ele>873.2</ele></trkpt>
      <trkpt lat="42.341270" lon="-3.710740"><ele>877.6</ele></trkpt>
      <trkpt lat="42.341500" lon="-3.711190"><ele>875.8</ele></trkpt>
      <trkpt lat="42.341740" lon="-3.712900"><ele>862.7</ele></trkpt>
      <trkpt lat="42.342660" lon="-3.714460"><ele>854.6</ele></trkpt>
      <trkpt lat="42.341970" lon="-3.714860"><ele>853.2</ele></trkpt>
      <trkpt lat="42.341500" lon="-3.715950"><ele>856.5</ele></trkpt>
      <trkpt lat="42.341010" lon="-3.716330"><ele>858.5</ele></trkpt>
      <trkpt lat="42.340390" lon="-3.718040"><ele>852.7</ele></trkpt>
      <trkpt lat="42.340360" lon="-3.719010"><ele>851.6</ele></trkpt>
      <trkpt lat="42.341080" lon="-3.726730"><ele>849.4</ele></trkpt>
      <trkpt lat="42.341230" lon="-3.727340"><ele>849.5</ele></trkpt>
      <trkpt lat="42.341630" lon="-3.727410"><ele>848.3</ele></trkpt>
      <trkpt lat="42.341750" lon="-3.727820"><ele>847.8</ele></trkpt>
      <trkpt lat="42.342480" lon="-3.733120"><ele>844.0</ele></trkpt>
      <trkpt lat="42.342330" lon="-3.733790"><ele>843.1</ele></trkpt>
      <trkpt lat="42.342510" lon="-3.734070"><ele>843.4</ele></trkpt>
      <trkpt lat="42.342770" lon="-3.736040"><ele>844.5</ele></trkpt>
      <trkpt lat="42.343150" lon="-3.736620"><ele>843.1</ele></trkpt>
      <trkpt lat="42.343420" lon="-3.737650"><ele>845.0</ele></trkpt>
      <trkpt lat="42.343670" lon="-3.739280"><ele>844.3</ele></trkpt>
      <trkpt lat="42.343600" lon="-3.744710"><ele>841.1</ele></trkpt>
      <trkpt lat="42.343840" lon="-3.745530"><ele>841.1</ele></trkpt>
      <trkpt lat="42.344810" lon="-3.747590"><ele>840.5</ele></trkpt>
      <trkpt lat="42.345400" lon="-3.749860"><ele>839.7</ele></trkpt>
      <trkpt lat="42.346500" lon="-3.751930"><ele>841.0</ele></trkpt>
      <trkpt lat="42.346670" lon="-3.753200"><ele>844.0</ele></trkpt>
      <trkpt lat="42.347300" lon="-3.754930"><ele>843.1</ele></trkpt>
      <trkpt lat="42.348270" lon="-3.758990"><ele>835.3</ele></trkpt>
      <trkpt lat="42.348410" lon="-3.763840"><ele>834.0</ele></trkpt>
      <trkpt lat="42.349100" lon="-3.765500"><ele>831.3</ele></trkpt>
      <trkpt lat="42.349430" lon="-3.766860"><ele>834.3</ele></trkpt>
      <trkpt lat="42.350110" lon="-3.768010"><ele>834.1</ele></trkpt>
      <trkpt lat="42.350120" lon="-3.768350"><ele>834.4</ele></trkpt>
      <trkpt lat="42.349660" lon="-3.771540"><ele>832.8</ele></trkpt>
      <trkpt lat="42.348870" lon="-3.773890"><ele>829.8</ele></trkpt>
      <trkpt lat="42.348490" lon="-3.775780"><ele>832.4</ele></trkpt>
      <trkpt lat="42.348480" lon="-3.780260"><ele>831.7</ele></trkpt>
      <trkpt lat="42.347710" lon="-3.785270"><ele>829.4</ele></trkpt>
      <trkpt lat="42.348190" lon="-3.788020"><ele>825.9</ele></trkpt>
      <trkpt lat="42.348130" lon="-3.789670"><ele>826.8</ele></trkpt>
      <trkpt lat="42.348750" lon="-3.792710"><ele>823.3</ele></trkpt>
      <trkpt lat="42.348260" lon="-3.793700"><ele>827.5</ele></trkpt>
      <trkpt lat="42.348220" lon="-3.794560"><ele>827.7</ele></trkpt>
      <trkpt lat="42.348680" lon="-3.795700"><ele>823.7</ele></trkpt>
      <trkpt lat="42.349770" lon="-3.796600"><ele>825.0</ele></trkpt>
      <trkpt lat="42.349970" lon="-3.797510"><ele>826.0</ele></trkpt>
      <trkpt lat="42.349910" lon="-3.799950"><ele>827.8</ele></trkpt>
      <trkpt lat="42.349140" lon="-3.801640"><ele>827.7</ele></trkpt>
      <trkpt lat="42.348150" lon="-3.803020"><ele>825.7</ele></trkpt>
      <trkpt lat="42.347560" lon="-3.804340"><ele>825.4</ele></trkpt>
      <trkpt lat="42.347600" lon="-3.807810"><ele>827.5</ele></trkpt>
      <trkpt lat="42.347940" lon="-3.810860"><ele>828.8</ele></trkpt>
      <trkpt lat="42.348340" lon="-3.813070"><ele>829.4</ele></trkpt>
      <trkpt lat="42.349150" lon="-3.815190"><ele>828.4</ele></trkpt>
      <trkpt lat="42.348710" lon="-3.816400"><ele>825.8</ele></trkpt>
      <trkpt lat="42.349200" lon="-3.818490"><ele>825.4</ele></trkpt>
      <trkpt lat="42.348930" lon="-3.819570"><ele>825.9</ele></trkpt>
      <trkpt lat="42.349310" lon="-3.820950"><ele>824.0</ele></trkpt>
      <trkpt lat="42.349060" lon="-3.823790"><ele>821.0</ele></trkpt>
      <trkpt lat="42.347690" lon="-3.828360"><ele>821.0</ele></trkpt>
      <trkpt lat="42.347340" lon="-3.828540"><ele>822.7</ele></trkpt>
      <trkpt lat="42.346060" lon="-3.828720"><ele>827.5</ele></trkpt>
      <trkpt lat="42.344790" lon="-3.829670"><ele>832.3</ele></trkpt>
      <trkpt lat="42.343950" lon="-3.830040"><ele>830.6</ele></trkpt>
      <trkpt lat="42.343240" lon="-3.830590"><ele>828.8</ele></trkpt>
      <trkpt lat="42.341350" lon="-3.833360"><ele>829.6</ele></trkpt>
      <trkpt lat="42.340700" lon="-3.833570"><ele>828.1</ele></trkpt>
      <trkpt lat="42.340370" lon="-3.834900"><ele>831.5</ele></trkpt>
      <trkpt lat="42.339940" lon="-3.835360"><ele>830.8</ele></trkpt>
      <trkpt lat="42.340250" lon="-3.837120"><ele>832.5</ele></trkpt>
      <trkpt lat="42.340290" lon="-3.838860"><ele>833.3</ele></trkpt>
      <trkpt lat="42.340510" lon="-3.840160"><ele>832.6</ele></trkpt>
      <trkpt lat="42.340190" lon="-3.843420"><ele>839.7</ele></trkpt>
      <trkpt lat="42.340410" lon="-3.845550"><ele>842.6</ele></trkpt>
      <trkpt lat="42.340390" lon="-3.846710"><ele>843.2</ele></trkpt>
      <trkpt lat="42.340700" lon="-3.849320"><ele>843.0</ele></trkpt>
      <trkpt lat="42.341090" lon="-3.850100"><ele>844.8</ele></trkpt>
      <trkpt lat="42.341460" lon="-3.853720"><ele>856.5</ele></trkpt>
      <trkpt lat="42.340890" lon="-3.858080"><ele>863.6</ele></trkpt>
      <trkpt lat="42.340760" lon="-3.864260"><ele>868.3</ele></trkpt>
      <trkpt lat="42.341320" lon="-3.866000"><ele>870.9</ele></trkpt>
      <trkpt lat="42.341950" lon="-3.871700"><ele>888.1</ele></trkpt>
      <trkpt lat="42.342070" lon="-3.874420"><ele>892.9</ele></trkpt>
      <trkpt lat="42.341850" lon="-3.875350"><ele>895.1</ele></trkpt>
      <trkpt lat="42.341920" lon="-3.877300"><ele>906.8</ele></trkpt>
      <trkpt lat="42.341670" lon="-3.879300"><ele>909.7</ele></trkpt>
      <trkpt lat="42.342350" lon="-3.886040"><ele>918.8</ele></trkpt>
      <trkpt lat="42.342450" lon="-3.888680"><ele>916.6</ele></trkpt>
      <trkpt lat="42.342190" lon="-3.890740"><ele>915.7</ele></trkpt>
      <trkpt lat="42.340870" lon="-3.896140"><ele>912.7</ele></trkpt>
      <trkpt lat="42.340970" lon="-3.897720"><ele>892.5</ele></trkpt>
      <trkpt lat="42.340700" lon="-3.898700"><ele>882.3</ele></trkpt>
      <trkpt lat="42.340730" lon="-3.904060"><ele>843.9</ele></trkpt>
      <trkpt lat="42.340540" lon="-3.905320"><ele>840.7</ele></trkpt>
      <trkpt lat="42.340750" lon="-3.907080"><ele>835.9</ele></trkpt>
      <trkpt lat="42.340620" lon="-3.912900"><ele>828.2</ele></trkpt>
      <trkpt lat="42.340060" lon="-3.918940"><ele>820.9</ele></trkpt>
      <trkpt lat="42.339490" lon="-3.920650"><ele>818.4</ele></trkpt>
      <trkpt lat="42.338880" lon="-3.921890"><ele>818.1</ele></trkpt>
      <trkpt lat="42.338530" lon="-3.924100"><ele>819.9</ele></trkpt>
      <trkpt lat="42.338280" lon="-3.924600"><ele>820.1</ele></trkpt>
      <trkpt lat="42.338600" lon="-3.926980"><ele>824.7</ele></trkpt>
      <trkpt lat="42.337610" lon="-3.930080"><ele>830.9</ele></trkpt>
      <trkpt lat="42.337940" lon="-3.933180"><ele>836.8</ele></trkpt>
      <trkpt lat="42.337320" lon="-3.935100"><ele>833.9</ele></trkpt>
      <trkpt lat="42.336940" lon="-3.937230"><ele>841.5</ele></trkpt>
      <trkpt lat="42.336350" lon="-3.938700"><ele>846.3</ele></trkpt>
      <trkpt lat="42.335350" lon="-3.942960"><ele>854.8</ele></trkpt>
      <trkpt lat="42.334220" lon="-3.944950"><ele>857.5</ele></trkpt>
      <trkpt lat="42.333110" lon="-3.948350"><ele>867.1</ele></trkpt>
      <trkpt lat="42.332310" lon="-3.949920"><ele>871.9</ele></trkpt>
      <trkpt lat="42.332270" lon="-3.950760"><ele>872.6</ele></trkpt>
      <trkpt lat="42.331240" lon="-3.952140"><ele>878.2</ele></trkpt>
      <trkpt lat="42.329360" lon="-3.955350"><ele>887.6</ele></trkpt>
      <trkpt lat="42.328610" lon="-3.957020"><ele>892.3</ele></trkpt>
      <trkpt lat="42.328310" lon="-3.958320"><ele>898.8</ele></trkpt>
      <trkpt lat="42.328230" lon="-3.959970"><ele>909.1</ele></trkpt>
      <trkpt lat="42.328700" lon="-3.963800"><ele>933.3</ele></trkpt>
      <trkpt lat="42.328480" lon="-3.966050"><ele>933.6</ele></trkpt>
      <trkpt lat="42.328090" lon="-3.967580"><ele>933.1</ele></trkpt>
      <trkpt lat="42.327880" lon="-3.969670"><ele>934.2</ele></trkpt>
      <trkpt lat="42.327600" lon="-3.970720"><ele>934.4</ele></trkpt>
      <trkpt lat="42.327440" lon="-3.972660"><ele>933.6</ele></trkpt>
      <trkpt lat="42.327460" lon="-3.974130"><ele>935.9</ele></trkpt>
      <trkpt lat="42.327790" lon="-3.977320"><ele>934.2</ele></trkpt>
      <trkpt lat="42.327860" lon="-3.981960"><ele>923.8</ele></trkpt>
      <trkpt lat="42.326670" lon="-3.984240"><ele>907.8</ele></trkpt>
      <trkpt lat="42.325990" lon="-3.987420"><ele>890.5</ele></trkpt>
      <trkpt lat="42.326150" lon="-3.991600"><ele>901.7</ele></trkpt>
      <trkpt lat="42.326080" lon="-3.992890"><ele>904.7</ele></trkpt>
      <trkpt lat="42.325480" lon="-3.993990"><ele>914.3</ele></trkpt>
      <trkpt lat="42.325240" lon="-3.995600"><ele>922.5</ele></trkpt>
      <trkpt lat="42.324190" lon="-3.997910"><ele>925.1</ele></trkpt>
      <trkpt lat="42.323540" lon="-3.999970"><ele>928.1</ele></trkpt>
      <trkpt lat="42.322470" lon="-4.005190"><ele>927.2</ele></trkpt>
      <trkpt lat="42.319850" lon="-4.016470"><ele>928.1</ele></trkpt>
      <trkpt lat="42.318170" lon="-4.021000"><ele>928.1</ele></trkpt>
      <trkpt lat="42.315460" lon="-4.027310"><ele>922.3</ele></trkpt>
      <trkpt lat="42.314700" lon="-4.029400"><ele>917.5</ele></trkpt>
      <trkpt lat="42.314180" lon="-4.029990"><ele>919.0</ele></trkpt>
      <trkpt lat="42.314160" lon="-4.030950"><ele>919.0</ele></trkpt>
      <trkpt lat="42.313770" lon="-4.032350"><ele>919.3</ele></trkpt>
      <trkpt lat="42.313690" lon="-4.033620"><ele>919.1</ele></trkpt>
      <trkpt lat="42.312870" lon="-4.038010"><ele>919.1</ele></trkpt>
      <trkpt lat="42.312670" lon="-4.038400"><ele>919.2</ele></trkpt>
      <trkpt lat="42.312510" lon="-4.040200"><ele>912.8</ele></trkpt>
      <trkpt lat="42.312810" lon="-4.041780"><ele>899.9</ele></trkpt>
      <trkpt lat="42.312670" lon="-4.045300"><ele>866.7</ele></trkpt>
      <trkpt lat="42.312840" lon="-4.045920"><ele>865.1</ele></trkpt>
      <trkpt lat="42.313600" lon="-4.047250"><ele>861.1</ele></trkpt>
      <trkpt lat="42.313670" lon="-4.048230"><ele>861.2</ele></trkpt>
      <trkpt lat="42.313990" lon="-4.049330"><ele>854.3</ele></trkpt>
      <trkpt lat="42.313740" lon="-4.051190"><ele>846.2</ele></trkpt>
      <trkpt lat="42.314020" lon="-4.053610"><ele>849.4</ele></trkpt>
      <trkpt lat="42.313380" lon="-4.056590"><ele>850.9</ele></trkpt>
      <trkpt lat="42.312110" lon="-4.060530"><ele>855.3</ele></trkpt>
      <trkpt lat="42.311060" lon="-4.062690"><ele>850.8</ele></trkpt>
      <trkpt lat="42.310670" lon="-4.064140"><ele>849.0</ele></trkpt>
      <trkpt lat="42.310670" lon="-4.068390"><ele>844.3</ele></trkpt>
      <trkpt lat="42.310810" lon="-4.070470"><ele>832.8</ele></trkpt>
      <trkpt lat="42.310070" lon="-4.072010"><ele>828.5</ele></trkpt>
      <trkpt lat="42.309720" lon="-4.073750"><ele>829.2</ele></trkpt>
      <trkpt lat="42.309660" lon="-4.074910"><ele>829.6</ele></trkpt>
      <trkpt lat="42.309050" lon="-4.077560"><ele>827.9</ele></trkpt>
      <trkpt lat="42.308040" lon="-4.080970"><ele>822.4</ele></trkpt>
      <trkpt lat="42.306660" lon="-4.084110"><ele>817.4</ele></trkpt>
      <trkpt lat="42.304050" lon="-4.087630"><ele>819.3</ele></trkpt>
      <trkpt lat="42.303230" lon="-4.087450"><ele>814.5</ele></trkpt>
      <trkpt lat="42.302980" lon="-4.087560"><ele>813.3</ele></trkpt>
      <trkpt lat="42.301470" lon="-4.091300"><ele>814.8</ele></trkpt>
      <trkpt lat="42.298830" lon="-4.092950"><ele>812.7</ele></trkpt>
      <trkpt lat="42.295120" lon="-4.096030"><ele>809.1</ele></trkpt>
      <trkpt lat="42.292820" lon="-4.098870"><ele>805.1</ele></trkpt>
      <trkpt lat="42.291660" lon="-4.101840"><ele>803.7</ele></trkpt>
      <trkpt lat="42.291500" lon="-4.103040"><ele>802.6</ele></trkpt>
      <trkpt lat="42.292250" lon="-4.124040"><ele>784.6</ele></trkpt>
      <trkpt lat="42.292030" lon="-4.126290"><ele>788.0</ele></trkpt>
      <trkpt lat="42.292610" lon="-4.128430"><ele>792.0</ele></trkpt>
      <trkpt lat="42.292250" lon="-4.129040"><ele>790.4</ele></trkpt>
      <trkpt lat="42.292460" lon="-4.131560"><ele>800.3</ele></trkpt>
      <trkpt lat="42.292280" lon="-4.131850"><ele>801.4</ele></trkpt>
      <trkpt lat="42.289940" lon="-4.133250"><ele>796.5</ele></trkpt>
      <trkpt lat="42.289290" lon="-4.133950"><ele>797.8</ele></trkpt>
      <trkpt lat="42.288720" lon="-4.135280"><ele>803.6</ele></trkpt>
      <trkpt lat="42.288000" lon="-4.138330"><ele>808.2</ele></trkpt>
      <trkpt lat="42.288240" lon="-4.139510"><ele>813.6</ele></trkpt>
      <trkpt lat="42.289390" lon="-4.141880"><ele>812.2</ele></trkpt>
    </trkseg></trk>
</gpx>
