<?xml version="1.0" encoding="UTF-8"?>
<gpx version="1.1" creator="camino-2027 split of compostelle.fr CAMINO_FRANCES.gpx" xmlns="http://www.topografix.com/GPX/1/1">
  <metadata><name>도보 v2 DAY 4 나바레테 → 벨로라도</name><desc>compostelle.fr (VisuGPX) 도보 노선을 자전거 일정 경계로 잘라 낸 것 · 2026-09-12</desc></metadata>
  <trk><name>도보 v2 DAY 4 · 나바레테 → 벨로라도</name><trkseg>
      <trkpt lat="42.430820" lon="-2.563110"><ele>520.0</ele></trkpt>
      <trkpt lat="42.430760" lon="-2.564380"><ele>508.3</ele></trkpt>
      <trkpt lat="42.430290" lon="-2.567060"><ele>502.7</ele></trkpt>
      <trkpt lat="42.429990" lon="-2.568190"><ele>504.3</ele></trkpt>
      <trkpt lat="42.429330" lon="-2.569740"><ele>505.2</ele></trkpt>
      <trkpt lat="42.425920" lon="-2.576920"><ele>517.9</ele></trkpt>
      <trkpt lat="42.424480" lon="-2.578450"><ele>524.5</ele></trkpt>
      <trkpt lat="42.422180" lon="-2.580010"><ele>534.2</ele></trkpt>
      <trkpt lat="42.420780" lon="-2.581910"><ele>542.0</ele></trkpt>
      <trkpt lat="42.419610" lon="-2.582930"><ele>547.5</ele></trkpt>
      <trkpt lat="42.419390" lon="-2.583560"><ele>548.2</ele></trkpt>
      <trkpt lat="42.418670" lon="-2.584610"><ele>551.6</ele></trkpt>
      <trkpt lat="42.416180" lon="-2.587140"><ele>565.1</ele></trkpt>
      <trkpt lat="42.415060" lon="-2.587750"><ele>571.0</ele></trkpt>
      <trkpt lat="42.415200" lon="-2.588980"><ele>571.7</ele></trkpt>
      <trkpt lat="42.414660" lon="-2.594050"><ele>575.9</ele></trkpt>
      <trkpt lat="42.414950" lon="-2.594770"><ele>572.7</ele></trkpt>
      <trkpt lat="42.416070" lon="-2.596490"><ele>565.5</ele></trkpt>
      <trkpt lat="42.416530" lon="-2.598110"><ele>565.3</ele></trkpt>
      <trkpt lat="42.416970" lon="-2.598070"><ele>563.2</ele></trkpt>
      <trkpt lat="42.417110" lon="-2.598290"><ele>563.1</ele></trkpt>
      <trkpt lat="42.415950" lon="-2.600890"><ele>569.6</ele></trkpt>
      <trkpt lat="42.413100" lon="-2.608810"><ele>584.6</ele></trkpt>
      <trkpt lat="42.412520" lon="-2.611120"><ele>591.2</ele></trkpt>
      <trkpt lat="42.412180" lon="-2.614090"><ele>596.2</ele></trkpt>
      <trkpt lat="42.411620" lon="-2.614160"><ele>595.9</ele></trkpt>
      <trkpt lat="42.411430" lon="-2.614430"><ele>596.2</ele></trkpt>
      <trkpt lat="42.411000" lon="-2.615840"><ele>599.6</ele></trkpt>
      <trkpt lat="42.410140" lon="-2.617310"><ele>602.9</ele></trkpt>
      <trkpt lat="42.409900" lon="-2.618580"><ele>608.9</ele></trkpt>
      <trkpt lat="42.409390" lon="-2.619170"><ele>611.2</ele></trkpt>
      <trkpt lat="42.408710" lon="-2.620550"><ele>612.3</ele></trkpt>
      <trkpt lat="42.408620" lon="-2.621250"><ele>614.7</ele></trkpt>
      <trkpt lat="42.407840" lon="-2.622460"><ele>619.8</ele></trkpt>
      <trkpt lat="42.406530" lon="-2.623410"><ele>625.2</ele></trkpt>
      <trkpt lat="42.405800" lon="-2.624260"><ele>630.2</ele></trkpt>
      <trkpt lat="42.405460" lon="-2.624900"><ele>632.9</ele></trkpt>
      <trkpt lat="42.405440" lon="-2.625160"><ele>633.5</ele></trkpt>
      <trkpt lat="42.406300" lon="-2.626720"><ele>630.1</ele></trkpt>
      <trkpt lat="42.407560" lon="-2.627680"><ele>620.3</ele></trkpt>
      <trkpt lat="42.408150" lon="-2.628360"><ele>618.9</ele></trkpt>
      <trkpt lat="42.408380" lon="-2.630720"><ele>622.4</ele></trkpt>
      <trkpt lat="42.408580" lon="-2.631430"><ele>623.5</ele></trkpt>
      <trkpt lat="42.409780" lon="-2.632540"><ele>623.3</ele></trkpt>
      <trkpt lat="42.410300" lon="-2.633420"><ele>624.1</ele></trkpt>
      <trkpt lat="42.411120" lon="-2.634170"><ele>625.1</ele></trkpt>
      <trkpt lat="42.411350" lon="-2.634920"><ele>625.5</ele></trkpt>
      <trkpt lat="42.411510" lon="-2.636500"><ele>630.1</ele></trkpt>
      <trkpt lat="42.411490" lon="-2.638500"><ele>635.9</ele></trkpt>
      <trkpt lat="42.411290" lon="-2.640020"><ele>645.1</ele></trkpt>
      <trkpt lat="42.411370" lon="-2.641640"><ele>656.2</ele></trkpt>
      <trkpt lat="42.412440" lon="-2.643700"><ele>664.8</ele></trkpt>
      <trkpt lat="42.412470" lon="-2.646480"><ele>650.8</ele></trkpt>
      <trkpt lat="42.412660" lon="-2.648480"><ele>641.8</ele></trkpt>
      <trkpt lat="42.412090" lon="-2.649450"><ele>633.1</ele></trkpt>
      <trkpt lat="42.411190" lon="-2.650250"><ele>624.4</ele></trkpt>
      <trkpt lat="42.411240" lon="-2.650880"><ele>618.9</ele></trkpt>
      <trkpt lat="42.410950" lon="-2.651740"><ele>617.0</ele></trkpt>
      <trkpt lat="42.410950" lon="-2.653080"><ele>616.4</ele></trkpt>
      <trkpt lat="42.410680" lon="-2.653990"><ele>616.1</ele></trkpt>
      <trkpt lat="42.410690" lon="-2.654970"><ele>615.0</ele></trkpt>
      <trkpt lat="42.411420" lon="-2.661240"><ele>605.5</ele></trkpt>
      <trkpt lat="42.411390" lon="-2.663050"><ele>606.4</ele></trkpt>
      <trkpt lat="42.411680" lon="-2.664000"><ele>602.5</ele></trkpt>
      <trkpt lat="42.411790" lon="-2.665420"><ele>598.2</ele></trkpt>
      <trkpt lat="42.412240" lon="-2.667870"><ele>592.7</ele></trkpt>
      <trkpt lat="42.413240" lon="-2.671340"><ele>584.5</ele></trkpt>
      <trkpt lat="42.413650" lon="-2.673850"><ele>572.9</ele></trkpt>
      <trkpt lat="42.413630" lon="-2.674480"><ele>573.2</ele></trkpt>
      <trkpt lat="42.414060" lon="-2.675690"><ele>576.6</ele></trkpt>
      <trkpt lat="42.414700" lon="-2.676820"><ele>580.7</ele></trkpt>
      <trkpt lat="42.415000" lon="-2.678040"><ele>582.6</ele></trkpt>
      <trkpt lat="42.414460" lon="-2.680710"><ele>575.4</ele></trkpt>
      <trkpt lat="42.414300" lon="-2.683030"><ele>568.2</ele></trkpt>
      <trkpt lat="42.413420" lon="-2.686420"><ele>560.5</ele></trkpt>
      <trkpt lat="42.413250" lon="-2.692160"><ele>552.0</ele></trkpt>
      <trkpt lat="42.413560" lon="-2.693850"><ele>545.0</ele></trkpt>
      <trkpt lat="42.414120" lon="-2.694870"><ele>539.3</ele></trkpt>
      <trkpt lat="42.414220" lon="-2.696020"><ele>535.9</ele></trkpt>
      <trkpt lat="42.414070" lon="-2.697040"><ele>534.6</ele></trkpt>
      <trkpt lat="42.414460" lon="-2.698190"><ele>533.9</ele></trkpt>
      <trkpt lat="42.414340" lon="-2.698550"><ele>534.3</ele></trkpt>
      <trkpt lat="42.415320" lon="-2.699410"><ele>530.2</ele></trkpt>
      <trkpt lat="42.415840" lon="-2.699670"><ele>529.9</ele></trkpt>
      <trkpt lat="42.415410" lon="-2.702620"><ele>525.5</ele></trkpt>
      <trkpt lat="42.416090" lon="-2.710000"><ele>525.5</ele></trkpt>
      <trkpt lat="42.417030" lon="-2.714310"><ele>516.0</ele></trkpt>
      <trkpt lat="42.417220" lon="-2.714910"><ele>515.2</ele></trkpt>
      <trkpt lat="42.417680" lon="-2.715400"><ele>514.0</ele></trkpt>
      <trkpt lat="42.417640" lon="-2.716210"><ele>512.9</ele></trkpt>
      <trkpt lat="42.418540" lon="-2.719710"><ele>508.8</ele></trkpt>
      <trkpt lat="42.418600" lon="-2.721640"><ele>507.5</ele></trkpt>
      <trkpt lat="42.418290" lon="-2.724990"><ele>505.3</ele></trkpt>
      <trkpt lat="42.418420" lon="-2.725760"><ele>504.3</ele></trkpt>
      <trkpt lat="42.417830" lon="-2.728580"><ele>496.6</ele></trkpt>
      <trkpt lat="42.416910" lon="-2.731030"><ele>491.1</ele></trkpt>
      <trkpt lat="42.417270" lon="-2.731850"><ele>488.4</ele></trkpt>
      <trkpt lat="42.417520" lon="-2.733310"><ele>487.7</ele></trkpt>
      <trkpt lat="42.414990" lon="-2.733880"><ele>488.4</ele></trkpt>
      <trkpt lat="42.414980" lon="-2.734870"><ele>493.2</ele></trkpt>
      <trkpt lat="42.415740" lon="-2.735700"><ele>498.5</ele></trkpt>
      <trkpt lat="42.415970" lon="-2.737590"><ele>510.9</ele></trkpt>
      <trkpt lat="42.415540" lon="-2.738740"><ele>520.6</ele></trkpt>
      <trkpt lat="42.415400" lon="-2.739550"><ele>524.1</ele></trkpt>
      <trkpt lat="42.414510" lon="-2.741200"><ele>534.1</ele></trkpt>
      <trkpt lat="42.414060" lon="-2.742780"><ele>551.8</ele></trkpt>
      <trkpt lat="42.414500" lon="-2.745700"><ele>554.3</ele></trkpt>
      <trkpt lat="42.415310" lon="-2.748180"><ele>544.7</ele></trkpt>
      <trkpt lat="42.415550" lon="-2.750220"><ele>541.3</ele></trkpt>
      <trkpt lat="42.415710" lon="-2.750730"><ele>538.3</ele></trkpt>
      <trkpt lat="42.416350" lon="-2.751740"><ele>530.0</ele></trkpt>
      <trkpt lat="42.416000" lon="-2.759100"><ele>525.9</ele></trkpt>
      <trkpt lat="42.416430" lon="-2.760190"><ele>530.8</ele></trkpt>
      <trkpt lat="42.417320" lon="-2.764640"><ele>542.1</ele></trkpt>
      <trkpt lat="42.417930" lon="-2.770360"><ele>549.6</ele></trkpt>
      <trkpt lat="42.419360" lon="-2.775790"><ele>544.3</ele></trkpt>
      <trkpt lat="42.419780" lon="-2.777890"><ele>546.4</ele></trkpt>
      <trkpt lat="42.419870" lon="-2.779450"><ele>545.8</ele></trkpt>
      <trkpt lat="42.420200" lon="-2.780750"><ele>546.0</ele></trkpt>
      <trkpt lat="42.420200" lon="-2.783150"><ele>543.7</ele></trkpt>
      <trkpt lat="42.420550" lon="-2.785760"><ele>539.4</ele></trkpt>
      <trkpt lat="42.420730" lon="-2.788960"><ele>548.6</ele></trkpt>
      <trkpt lat="42.422360" lon="-2.793510"><ele>542.3</ele></trkpt>
      <trkpt lat="42.423330" lon="-2.798660"><ele>551.0</ele></trkpt>
      <trkpt lat="42.424730" lon="-2.802520"><ele>539.6</ele></trkpt>
      <trkpt lat="42.425790" lon="-2.803610"><ele>536.3</ele></trkpt>
      <trkpt lat="42.426210" lon="-2.807170"><ele>540.9</ele></trkpt>
      <trkpt lat="42.426550" lon="-2.808660"><ele>542.8</ele></trkpt>
      <trkpt lat="42.427150" lon="-2.810660"><ele>545.7</ele></trkpt>
      <trkpt lat="42.428350" lon="-2.813400"><ele>557.5</ele></trkpt>
      <trkpt lat="42.429450" lon="-2.817140"><ele>564.6</ele></trkpt>
      <trkpt lat="42.430110" lon="-2.818290"><ele>567.5</ele></trkpt>
      <trkpt lat="42.431470" lon="-2.819540"><ele>557.5</ele></trkpt>
      <trkpt lat="42.432230" lon="-2.820520"><ele>549.2</ele></trkpt>
      <trkpt lat="42.432470" lon="-2.821060"><ele>547.4</ele></trkpt>
      <trkpt lat="42.432650" lon="-2.821110"><ele>546.6</ele></trkpt>
      <trkpt lat="42.433140" lon="-2.820770"><ele>544.5</ele></trkpt>
      <trkpt lat="42.433320" lon="-2.820820"><ele>543.9</ele></trkpt>
      <trkpt lat="42.433690" lon="-2.823350"><ele>547.5</ele></trkpt>
      <trkpt lat="42.434160" lon="-2.828700"><ele>551.5</ele></trkpt>
      <trkpt lat="42.434260" lon="-2.831390"><ele>554.6</ele></trkpt>
      <trkpt lat="42.434200" lon="-2.832740"><ele>555.4</ele></trkpt>
      <trkpt lat="42.433640" lon="-2.833940"><ele>557.8</ele></trkpt>
      <trkpt lat="42.433570" lon="-2.835160"><ele>558.8</ele></trkpt>
      <trkpt lat="42.433640" lon="-2.838730"><ele>560.9</ele></trkpt>
      <trkpt lat="42.434070" lon="-2.840370"><ele>561.6</ele></trkpt>
      <trkpt lat="42.433990" lon="-2.841160"><ele>561.4</ele></trkpt>
      <trkpt lat="42.433670" lon="-2.841420"><ele>561.2</ele></trkpt>
      <trkpt lat="42.433390" lon="-2.842220"><ele>562.1</ele></trkpt>
      <trkpt lat="42.432720" lon="-2.845550"><ele>565.0</ele></trkpt>
      <trkpt lat="42.432700" lon="-2.846520"><ele>566.9</ele></trkpt>
      <trkpt lat="42.432990" lon="-2.847900"><ele>570.0</ele></trkpt>
      <trkpt lat="42.432970" lon="-2.848480"><ele>569.4</ele></trkpt>
      <trkpt lat="42.432440" lon="-2.849130"><ele>569.3</ele></trkpt>
      <trkpt lat="42.431260" lon="-2.853220"><ele>577.2</ele></trkpt>
      <trkpt lat="42.427450" lon="-2.860150"><ele>591.2</ele></trkpt>
      <trkpt lat="42.427050" lon="-2.864780"><ele>604.6</ele></trkpt>
      <trkpt lat="42.425390" lon="-2.870640"><ele>625.4</ele></trkpt>
      <trkpt lat="42.425050" lon="-2.873350"><ele>643.8</ele></trkpt>
      <trkpt lat="42.424270" lon="-2.876410"><ele>670.0</ele></trkpt>
      <trkpt lat="42.423660" lon="-2.877700"><ele>682.5</ele></trkpt>
      <trkpt lat="42.422820" lon="-2.878880"><ele>691.6</ele></trkpt>
      <trkpt lat="42.418850" lon="-2.885560"><ele>715.2</ele></trkpt>
      <trkpt lat="42.417760" lon="-2.886560"><ele>718.6</ele></trkpt>
      <trkpt lat="42.415840" lon="-2.889810"><ele>728.1</ele></trkpt>
      <trkpt lat="42.415740" lon="-2.890150"><ele>728.4</ele></trkpt>
      <trkpt lat="42.415780" lon="-2.892390"><ele>726.8</ele></trkpt>
      <trkpt lat="42.414510" lon="-2.892600"><ele>734.2</ele></trkpt>
      <trkpt lat="42.414420" lon="-2.893610"><ele>735.0</ele></trkpt>
      <trkpt lat="42.413670" lon="-2.894760"><ele>738.7</ele></trkpt>
      <trkpt lat="42.412980" lon="-2.895510"><ele>740.6</ele></trkpt>
      <trkpt lat="42.412720" lon="-2.896380"><ele>743.7</ele></trkpt>
      <trkpt lat="42.413740" lon="-2.896450"><ele>735.8</ele></trkpt>
      <trkpt lat="42.413980" lon="-2.896940"><ele>733.6</ele></trkpt>
      <trkpt lat="42.414280" lon="-2.897130"><ele>731.4</ele></trkpt>
      <trkpt lat="42.414790" lon="-2.898340"><ele>726.8</ele></trkpt>
      <trkpt lat="42.415230" lon="-2.898760"><ele>725.6</ele></trkpt>
      <trkpt lat="42.415940" lon="-2.904280"><ele>730.3</ele></trkpt>
      <trkpt lat="42.416300" lon="-2.905860"><ele>725.2</ele></trkpt>
      <trkpt lat="42.418060" lon="-2.910910"><ele>715.6</ele></trkpt>
      <trkpt lat="42.419210" lon="-2.912860"><ele>713.9</ele></trkpt>
      <trkpt lat="42.423020" lon="-2.919180"><ele>724.5</ele></trkpt>
      <trkpt lat="42.433570" lon="-2.931240"><ele>639.1</ele></trkpt>
      <trkpt lat="42.436270" lon="-2.934120"><ele>634.3</ele></trkpt>
      <trkpt lat="42.437030" lon="-2.936110"><ele>634.7</ele></trkpt>
      <trkpt lat="42.437730" lon="-2.938780"><ele>633.6</ele></trkpt>
      <trkpt lat="42.438140" lon="-2.939050"><ele>633.4</ele></trkpt>
      <trkpt lat="42.439160" lon="-2.944500"><ele>637.8</ele></trkpt>
      <trkpt lat="42.439440" lon="-2.945100"><ele>637.6</ele></trkpt>
      <trkpt lat="42.440500" lon="-2.950150"><ele>642.0</ele></trkpt>
      <trkpt lat="42.440890" lon="-2.953090"><ele>645.4</ele></trkpt>
      <trkpt lat="42.441150" lon="-2.958620"><ele>639.6</ele></trkpt>
      <trkpt lat="42.442330" lon="-2.962040"><ele>638.0</ele></trkpt>
      <trkpt lat="42.444600" lon="-2.965950"><ele>637.3</ele></trkpt>
      <trkpt lat="42.445860" lon="-2.971640"><ele>629.5</ele></trkpt>
      <trkpt lat="42.445450" lon="-2.971990"><ele>629.7</ele></trkpt>
      <trkpt lat="42.445370" lon="-2.972390"><ele>629.8</ele></trkpt>
      <trkpt lat="42.447990" lon="-2.980730"><ele>635.1</ele></trkpt>
      <trkpt lat="42.448070" lon="-2.981690"><ele>637.0</ele></trkpt>
      <trkpt lat="42.448560" lon="-2.983600"><ele>639.7</ele></trkpt>
      <trkpt lat="42.449250" lon="-2.985750"><ele>644.0</ele></trkpt>
      <trkpt lat="42.449630" lon="-2.986010"><ele>644.2</ele></trkpt>
      <trkpt lat="42.450020" lon="-2.987280"><ele>647.6</ele></trkpt>
      <trkpt lat="42.450360" lon="-2.990510"><ele>661.5</ele></trkpt>
      <trkpt lat="42.451690" lon="-2.999310"><ele>667.2</ele></trkpt>
      <trkpt lat="42.452070" lon="-3.004660"><ele>659.6</ele></trkpt>
      <trkpt lat="42.452340" lon="-3.005390"><ele>659.4</ele></trkpt>
      <trkpt lat="42.452150" lon="-3.006310"><ele>661.0</ele></trkpt>
      <trkpt lat="42.452660" lon="-3.010780"><ele>677.9</ele></trkpt>
      <trkpt lat="42.453080" lon="-3.016520"><ele>684.9</ele></trkpt>
      <trkpt lat="42.453000" lon="-3.017320"><ele>686.4</ele></trkpt>
      <trkpt lat="42.452710" lon="-3.017730"><ele>686.8</ele></trkpt>
      <trkpt lat="42.451440" lon="-3.024880"><ele>719.4</ele></trkpt>
      <trkpt lat="42.451320" lon="-3.024950"><ele>720.1</ele></trkpt>
      <trkpt lat="42.449330" lon="-3.029880"><ele>733.1</ele></trkpt>
      <trkpt lat="42.449190" lon="-3.030090"><ele>733.2</ele></trkpt>
      <trkpt lat="42.448970" lon="-3.030090"><ele>733.9</ele></trkpt>
      <trkpt lat="42.449000" lon="-3.030580"><ele>729.9</ele></trkpt>
      <trkpt lat="42.448630" lon="-3.032220"><ele>708.4</ele></trkpt>
      <trkpt lat="42.448610" lon="-3.032980"><ele>701.3</ele></trkpt>
      <trkpt lat="42.449030" lon="-3.033050"><ele>697.5</ele></trkpt>
      <trkpt lat="42.450740" lon="-3.036610"><ele>689.9</ele></trkpt>
      <trkpt lat="42.450830" lon="-3.037110"><ele>692.5</ele></trkpt>
      <trkpt lat="42.448760" lon="-3.039250"><ele>703.0</ele></trkpt>
      <trkpt lat="42.448400" lon="-3.040260"><ele>710.8</ele></trkpt>
      <trkpt lat="42.447010" lon="-3.042780"><ele>726.8</ele></trkpt>
      <trkpt lat="42.445170" lon="-3.045530"><ele>736.6</ele></trkpt>
      <trkpt lat="42.444180" lon="-3.049330"><ele>730.7</ele></trkpt>
      <trkpt lat="42.443210" lon="-3.052150"><ele>725.0</ele></trkpt>
      <trkpt lat="42.439980" lon="-3.057800"><ele>727.0</ele></trkpt>
      <trkpt lat="42.438680" lon="-3.060550"><ele>732.5</ele></trkpt>
      <trkpt lat="42.438130" lon="-3.062030"><ele>735.5</ele></trkpt>
      <trkpt lat="42.438160" lon="-3.062290"><ele>736.0</ele></trkpt>
      <trkpt lat="42.438840" lon="-3.063010"><ele>735.5</ele></trkpt>
      <trkpt lat="42.437840" lon="-3.066210"><ele>743.6</ele></trkpt>
      <trkpt lat="42.437170" lon="-3.069130"><ele>743.1</ele></trkpt>
      <trkpt lat="42.437230" lon="-3.073490"><ele>757.8</ele></trkpt>
      <trkpt lat="42.437600" lon="-3.079540"><ele>757.2</ele></trkpt>
      <trkpt lat="42.437010" lon="-3.080150"><ele>760.9</ele></trkpt>
      <trkpt lat="42.437100" lon="-3.081940"><ele>767.8</ele></trkpt>
      <trkpt lat="42.436410" lon="-3.085490"><ele>768.6</ele></trkpt>
      <trkpt lat="42.436410" lon="-3.086370"><ele>762.3</ele></trkpt>
      <trkpt lat="42.436610" lon="-3.086630"><ele>759.2</ele></trkpt>
      <trkpt lat="42.435380" lon="-3.088360"><ele>755.6</ele></trkpt>
      <trkpt lat="42.434050" lon="-3.093090"><ele>763.6</ele></trkpt>
      <trkpt lat="42.433400" lon="-3.094230"><ele>767.8</ele></trkpt>
      <trkpt lat="42.431570" lon="-3.095910"><ele>776.0</ele></trkpt>
      <trkpt lat="42.430040" lon="-3.098110"><ele>784.3</ele></trkpt>
      <trkpt lat="42.428020" lon="-3.098720"><ele>788.4</ele></trkpt>
      <trkpt lat="42.427540" lon="-3.099060"><ele>790.3</ele></trkpt>
      <trkpt lat="42.427110" lon="-3.099570"><ele>793.0</ele></trkpt>
      <trkpt lat="42.426940" lon="-3.100070"><ele>795.4</ele></trkpt>
      <trkpt lat="42.425920" lon="-3.101780"><ele>802.2</ele></trkpt>
      <trkpt lat="42.426030" lon="-3.102980"><ele>802.6</ele></trkpt>
      <trkpt lat="42.426940" lon="-3.104690"><ele>795.6</ele></trkpt>
      <trkpt lat="42.427270" lon="-3.105910"><ele>789.9</ele></trkpt>
      <trkpt lat="42.427030" lon="-3.109010"><ele>774.2</ele></trkpt>
      <trkpt lat="42.427900" lon="-3.110480"><ele>764.1</ele></trkpt>
      <trkpt lat="42.429950" lon="-3.111920"><ele>755.2</ele></trkpt>
      <trkpt lat="42.431160" lon="-3.113440"><ele>760.6</ele></trkpt>
      <trkpt lat="42.430420" lon="-3.122330"><ele>785.3</ele></trkpt>
      <trkpt lat="42.431030" lon="-3.127430"><ele>782.4</ele></trkpt>
      <trkpt lat="42.431080" lon="-3.128950"><ele>789.6</ele></trkpt>
      <trkpt lat="42.430600" lon="-3.130680"><ele>792.6</ele></trkpt>
      <trkpt lat="42.429050" lon="-3.133000"><ele>782.9</ele></trkpt>
      <trkpt lat="42.428180" lon="-3.135670"><ele>783.0</ele></trkpt>
      <trkpt lat="42.427640" lon="-3.135890"><ele>786.9</ele></trkpt>
      <trkpt lat="42.427350" lon="-3.136240"><ele>789.3</ele></trkpt>
      <trkpt lat="42.426990" lon="-3.139070"><ele>789.6</ele></trkpt>
      <trkpt lat="42.420630" lon="-3.158520"><ele>820.8</ele></trkpt>
      <trkpt lat="42.416010" lon="-3.176560"><ele>807.4</ele></trkpt>
      <trkpt lat="42.415840" lon="-3.178030"><ele>802.1</ele></trkpt>
      <trkpt lat="42.415910" lon="-3.179620"><ele>799.8</ele></trkpt>
      <trkpt lat="42.416480" lon="-3.180120"><ele>803.0</ele></trkpt>
      <trkpt lat="42.417580" lon="-3.181670"><ele>805.3</ele></trkpt>
      <trkpt lat="42.418360" lon="-3.184460"><ele>792.7</ele></trkpt>
      <trkpt lat="42.418470" lon="-3.185820"><ele>784.4</ele></trkpt>
      <trkpt lat="42.418770" lon="-3.186560"><ele>781.4</ele></trkpt>
      <trkpt lat="42.419790" lon="-3.187950"><ele>778.2</ele></trkpt>
      <trkpt lat="42.419590" lon="-3.188450"><ele>777.0</ele></trkpt>
      <trkpt lat="42.420580" lon="-3.189120"><ele>775.3</ele></trkpt>
      <trkpt lat="42.421220" lon="-3.189110"><ele>773.6</ele></trkpt>
      <trkpt lat="42.421280" lon="-3.190080"><ele>771.3</ele></trkpt>
      <trkpt lat="42.420370" lon="-3.192880"><ele>768.6</ele></trkpt>
    </trkseg></trk>
</gpx>
