<?xml version="1.0" encoding="UTF-8"?>
<gpx version="1.1" creator="camino-2027 split of compostelle.fr CAMINO_FRANCES.gpx" xmlns="http://www.topografix.com/GPX/1/1">
  <metadata><name>도보 v2 DAY 6 카스트로헤리스 → 사아군</name><desc>compostelle.fr (VisuGPX) 도보 노선을 자전거 일정 경계로 잘라 낸 것 · 2026-09-12</desc></metadata>
  <trk><name>도보 v2 DAY 6 · 카스트로헤리스 → 사아군</name><trkseg>
      <trkpt lat="42.289390" lon="-4.141880"><ele>812.2</ele></trkpt>
      <trkpt lat="42.290320" lon="-4.144610"><ele>806.2</ele></trkpt>
      <trkpt lat="42.290000" lon="-4.145780"><ele>799.0</ele></trkpt>
      <trkpt lat="42.289860" lon="-4.148230"><ele>788.4</ele></trkpt>
      <trkpt lat="42.290060" lon="-4.150110"><ele>784.8</ele></trkpt>
      <trkpt lat="42.289690" lon="-4.157510"><ele>773.7</ele></trkpt>
      <trkpt lat="42.289990" lon="-4.160130"><ele>771.5</ele></trkpt>
      <trkpt lat="42.289960" lon="-4.162930"><ele>768.8</ele></trkpt>
      <trkpt lat="42.291080" lon="-4.165410"><ele>772.9</ele></trkpt>
      <trkpt lat="42.290900" lon="-4.167680"><ele>782.6</ele></trkpt>
      <trkpt lat="42.290720" lon="-4.168330"><ele>787.6</ele></trkpt>
      <trkpt lat="42.290860" lon="-4.169330"><ele>803.7</ele></trkpt>
      <trkpt lat="42.290250" lon="-4.170200"><ele>808.6</ele></trkpt>
      <trkpt lat="42.290070" lon="-4.171570"><ele>837.0</ele></trkpt>
      <trkpt lat="42.289700" lon="-4.171960"><ele>836.9</ele></trkpt>
      <trkpt lat="42.289530" lon="-4.172690"><ele>848.1</ele></trkpt>
      <trkpt lat="42.289140" lon="-4.173310"><ele>849.1</ele></trkpt>
      <trkpt lat="42.288790" lon="-4.176020"><ele>880.0</ele></trkpt>
      <trkpt lat="42.288150" lon="-4.177030"><ele>884.7</ele></trkpt>
      <trkpt lat="42.288020" lon="-4.177780"><ele>894.8</ele></trkpt>
      <trkpt lat="42.287610" lon="-4.178260"><ele>896.2</ele></trkpt>
      <trkpt lat="42.287310" lon="-4.179030"><ele>902.3</ele></trkpt>
      <trkpt lat="42.287430" lon="-4.181740"><ele>911.6</ele></trkpt>
      <trkpt lat="42.287200" lon="-4.184030"><ele>911.0</ele></trkpt>
      <trkpt lat="42.286610" lon="-4.185620"><ele>896.9</ele></trkpt>
      <trkpt lat="42.285910" lon="-4.188500"><ele>852.6</ele></trkpt>
      <trkpt lat="42.286200" lon="-4.193150"><ele>828.5</ele></trkpt>
      <trkpt lat="42.286020" lon="-4.198050"><ele>818.2</ele></trkpt>
      <trkpt lat="42.286360" lon="-4.201160"><ele>813.1</ele></trkpt>
      <trkpt lat="42.286060" lon="-4.201740"><ele>808.9</ele></trkpt>
      <trkpt lat="42.285760" lon="-4.203540"><ele>800.4</ele></trkpt>
      <trkpt lat="42.285740" lon="-4.206490"><ele>796.5</ele></trkpt>
      <trkpt lat="42.285450" lon="-4.210160"><ele>794.0</ele></trkpt>
      <trkpt lat="42.283750" lon="-4.215880"><ele>792.0</ele></trkpt>
      <trkpt lat="42.283100" lon="-4.220990"><ele>788.7</ele></trkpt>
      <trkpt lat="42.282580" lon="-4.223160"><ele>789.0</ele></trkpt>
      <trkpt lat="42.281870" lon="-4.225330"><ele>791.9</ele></trkpt>
      <trkpt lat="42.281190" lon="-4.226720"><ele>794.7</ele></trkpt>
      <trkpt lat="42.281690" lon="-4.233110"><ele>797.7</ele></trkpt>
      <trkpt lat="42.281640" lon="-4.236770"><ele>789.4</ele></trkpt>
      <trkpt lat="42.280890" lon="-4.239220"><ele>782.3</ele></trkpt>
      <trkpt lat="42.279040" lon="-4.242920"><ele>767.3</ele></trkpt>
      <trkpt lat="42.278650" lon="-4.244800"><ele>766.1</ele></trkpt>
      <trkpt lat="42.277510" lon="-4.247660"><ele>768.1</ele></trkpt>
      <trkpt lat="42.277730" lon="-4.248630"><ele>767.1</ele></trkpt>
      <trkpt lat="42.278820" lon="-4.249700"><ele>767.4</ele></trkpt>
      <trkpt lat="42.279530" lon="-4.250090"><ele>766.2</ele></trkpt>
      <trkpt lat="42.280960" lon="-4.250130"><ele>766.2</ele></trkpt>
      <trkpt lat="42.282130" lon="-4.250640"><ele>766.5</ele></trkpt>
      <trkpt lat="42.283710" lon="-4.252590"><ele>765.7</ele></trkpt>
      <trkpt lat="42.284640" lon="-4.253210"><ele>767.7</ele></trkpt>
      <trkpt lat="42.286560" lon="-4.256040"><ele>770.3</ele></trkpt>
      <trkpt lat="42.287100" lon="-4.256490"><ele>770.6</ele></trkpt>
      <trkpt lat="42.286990" lon="-4.257090"><ele>770.7</ele></trkpt>
      <trkpt lat="42.287260" lon="-4.257910"><ele>771.7</ele></trkpt>
      <trkpt lat="42.287300" lon="-4.258520"><ele>772.4</ele></trkpt>
      <trkpt lat="42.287060" lon="-4.261520"><ele>768.1</ele></trkpt>
      <trkpt lat="42.285470" lon="-4.264460"><ele>769.5</ele></trkpt>
      <trkpt lat="42.282410" lon="-4.274840"><ele>778.7</ele></trkpt>
      <trkpt lat="42.280780" lon="-4.284130"><ele>787.2</ele></trkpt>
      <trkpt lat="42.280930" lon="-4.286620"><ele>792.7</ele></trkpt>
      <trkpt lat="42.279130" lon="-4.291680"><ele>798.3</ele></trkpt>
      <trkpt lat="42.278980" lon="-4.294900"><ele>806.0</ele></trkpt>
      <trkpt lat="42.278720" lon="-4.296760"><ele>807.0</ele></trkpt>
      <trkpt lat="42.278130" lon="-4.297700"><ele>808.0</ele></trkpt>
      <trkpt lat="42.276990" lon="-4.301440"><ele>817.7</ele></trkpt>
      <trkpt lat="42.276300" lon="-4.303080"><ele>828.1</ele></trkpt>
      <trkpt lat="42.274420" lon="-4.309930"><ele>809.9</ele></trkpt>
      <trkpt lat="42.272630" lon="-4.314070"><ele>805.8</ele></trkpt>
      <trkpt lat="42.271840" lon="-4.316300"><ele>800.7</ele></trkpt>
      <trkpt lat="42.270530" lon="-4.322710"><ele>799.6</ele></trkpt>
      <trkpt lat="42.269750" lon="-4.325740"><ele>796.4</ele></trkpt>
      <trkpt lat="42.267890" lon="-4.330710"><ele>790.9</ele></trkpt>
      <trkpt lat="42.265500" lon="-4.336010"><ele>787.0</ele></trkpt>
      <trkpt lat="42.263020" lon="-4.340910"><ele>788.8</ele></trkpt>
      <trkpt lat="42.262170" lon="-4.343450"><ele>785.9</ele></trkpt>
      <trkpt lat="42.260830" lon="-4.345510"><ele>782.1</ele></trkpt>
      <trkpt lat="42.259680" lon="-4.346280"><ele>781.7</ele></trkpt>
      <trkpt lat="42.259500" lon="-4.346450"><ele>781.6</ele></trkpt>
      <trkpt lat="42.259490" lon="-4.346750"><ele>781.8</ele></trkpt>
      <trkpt lat="42.259170" lon="-4.346960"><ele>781.9</ele></trkpt>
      <trkpt lat="42.259180" lon="-4.347180"><ele>782.2</ele></trkpt>
      <trkpt lat="42.259480" lon="-4.347540"><ele>782.7</ele></trkpt>
      <trkpt lat="42.261160" lon="-4.348900"><ele>785.4</ele></trkpt>
      <trkpt lat="42.261580" lon="-4.349760"><ele>786.7</ele></trkpt>
      <trkpt lat="42.262900" lon="-4.351010"><ele>786.9</ele></trkpt>
      <trkpt lat="42.262970" lon="-4.351270"><ele>786.6</ele></trkpt>
      <trkpt lat="42.261900" lon="-4.353770"><ele>784.8</ele></trkpt>
      <trkpt lat="42.259440" lon="-4.358130"><ele>787.2</ele></trkpt>
      <trkpt lat="42.258330" lon="-4.364890"><ele>790.0</ele></trkpt>
      <trkpt lat="42.258270" lon="-4.375820"><ele>791.0</ele></trkpt>
      <trkpt lat="42.258380" lon="-4.380820"><ele>790.6</ele></trkpt>
      <trkpt lat="42.259420" lon="-4.384860"><ele>791.0</ele></trkpt>
      <trkpt lat="42.259780" lon="-4.385780"><ele>792.6</ele></trkpt>
      <trkpt lat="42.263050" lon="-4.388820"><ele>791.1</ele></trkpt>
      <trkpt lat="42.264580" lon="-4.396910"><ele>792.1</ele></trkpt>
      <trkpt lat="42.264570" lon="-4.397790"><ele>792.0</ele></trkpt>
      <trkpt lat="42.263840" lon="-4.398830"><ele>789.6</ele></trkpt>
      <trkpt lat="42.263820" lon="-4.399040"><ele>788.4</ele></trkpt>
      <trkpt lat="42.264360" lon="-4.399190"><ele>788.2</ele></trkpt>
      <trkpt lat="42.265220" lon="-4.400420"><ele>788.1</ele></trkpt>
      <trkpt lat="42.266090" lon="-4.401210"><ele>785.0</ele></trkpt>
      <trkpt lat="42.266290" lon="-4.401690"><ele>783.8</ele></trkpt>
      <trkpt lat="42.266130" lon="-4.405870"><ele>780.1</ele></trkpt>
      <trkpt lat="42.266210" lon="-4.406270"><ele>780.5</ele></trkpt>
      <trkpt lat="42.266780" lon="-4.406410"><ele>781.8</ele></trkpt>
      <trkpt lat="42.266830" lon="-4.406660"><ele>782.1</ele></trkpt>
      <trkpt lat="42.266450" lon="-4.406430"><ele>781.1</ele></trkpt>
      <trkpt lat="42.266030" lon="-4.406420"><ele>780.4</ele></trkpt>
      <trkpt lat="42.265470" lon="-4.407340"><ele>780.3</ele></trkpt>
      <trkpt lat="42.265320" lon="-4.408070"><ele>779.6</ele></trkpt>
      <trkpt lat="42.265060" lon="-4.413790"><ele>780.9</ele></trkpt>
      <trkpt lat="42.265340" lon="-4.414600"><ele>782.2</ele></trkpt>
      <trkpt lat="42.265130" lon="-4.415040"><ele>781.1</ele></trkpt>
      <trkpt lat="42.265140" lon="-4.415720"><ele>780.2</ele></trkpt>
      <trkpt lat="42.265350" lon="-4.417450"><ele>777.8</ele></trkpt>
      <trkpt lat="42.265740" lon="-4.418180"><ele>776.3</ele></trkpt>
      <trkpt lat="42.265530" lon="-4.419290"><ele>777.8</ele></trkpt>
      <trkpt lat="42.267740" lon="-4.442200"><ele>782.7</ele></trkpt>
      <trkpt lat="42.269330" lon="-4.445300"><ele>779.9</ele></trkpt>
      <trkpt lat="42.268720" lon="-4.448150"><ele>774.6</ele></trkpt>
      <trkpt lat="42.268790" lon="-4.448770"><ele>774.9</ele></trkpt>
      <trkpt lat="42.269120" lon="-4.449200"><ele>775.2</ele></trkpt>
      <trkpt lat="42.268730" lon="-4.450350"><ele>774.2</ele></trkpt>
      <trkpt lat="42.268810" lon="-4.451310"><ele>774.6</ele></trkpt>
      <trkpt lat="42.273370" lon="-4.463130"><ele>775.9</ele></trkpt>
      <trkpt lat="42.283690" lon="-4.479530"><ele>782.5</ele></trkpt>
      <trkpt lat="42.285350" lon="-4.481740"><ele>785.3</ele></trkpt>
      <trkpt lat="42.286250" lon="-4.482550"><ele>784.4</ele></trkpt>
      <trkpt lat="42.286810" lon="-4.483270"><ele>782.9</ele></trkpt>
      <trkpt lat="42.290220" lon="-4.488140"><ele>783.9</ele></trkpt>
      <trkpt lat="42.297220" lon="-4.498360"><ele>789.4</ele></trkpt>
      <trkpt lat="42.299290" lon="-4.502180"><ele>786.8</ele></trkpt>
      <trkpt lat="42.311840" lon="-4.531950"><ele>802.1</ele></trkpt>
      <trkpt lat="42.314960" lon="-4.542040"><ele>799.7</ele></trkpt>
      <trkpt lat="42.315200" lon="-4.542340"><ele>800.4</ele></trkpt>
      <trkpt lat="42.315520" lon="-4.542190"><ele>801.0</ele></trkpt>
      <trkpt lat="42.316410" lon="-4.542520"><ele>805.3</ele></trkpt>
      <trkpt lat="42.316610" lon="-4.542380"><ele>806.4</ele></trkpt>
      <trkpt lat="42.316560" lon="-4.543800"><ele>805.7</ele></trkpt>
      <trkpt lat="42.316320" lon="-4.544560"><ele>804.6</ele></trkpt>
      <trkpt lat="42.316150" lon="-4.546260"><ele>804.0</ele></trkpt>
      <trkpt lat="42.322670" lon="-4.567170"><ele>837.6</ele></trkpt>
      <trkpt lat="42.324700" lon="-4.571750"><ele>844.8</ele></trkpt>
      <trkpt lat="42.337260" lon="-4.595940"><ele>827.6</ele></trkpt>
      <trkpt lat="42.337400" lon="-4.596440"><ele>828.1</ele></trkpt>
      <trkpt lat="42.337430" lon="-4.599250"><ele>830.0</ele></trkpt>
      <trkpt lat="42.337230" lon="-4.600920"><ele>832.2</ele></trkpt>
      <trkpt lat="42.337620" lon="-4.601200"><ele>834.0</ele></trkpt>
      <trkpt lat="42.337560" lon="-4.601700"><ele>834.8</ele></trkpt>
      <trkpt lat="42.337290" lon="-4.601840"><ele>834.0</ele></trkpt>
      <trkpt lat="42.337270" lon="-4.602090"><ele>834.1</ele></trkpt>
      <trkpt lat="42.337570" lon="-4.603420"><ele>836.0</ele></trkpt>
      <trkpt lat="42.337820" lon="-4.603620"><ele>836.8</ele></trkpt>
      <trkpt lat="42.339100" lon="-4.603780"><ele>840.2</ele></trkpt>
      <trkpt lat="42.339900" lon="-4.604120"><ele>840.8</ele></trkpt>
      <trkpt lat="42.339430" lon="-4.605070"><ele>838.6</ele></trkpt>
      <trkpt lat="42.339380" lon="-4.605930"><ele>834.7</ele></trkpt>
      <trkpt lat="42.339640" lon="-4.606500"><ele>829.6</ele></trkpt>
      <trkpt lat="42.339640" lon="-4.608300"><ele>823.1</ele></trkpt>
      <trkpt lat="42.340660" lon="-4.610210"><ele>828.0</ele></trkpt>
      <trkpt lat="42.340740" lon="-4.610670"><ele>828.2</ele></trkpt>
      <trkpt lat="42.340740" lon="-4.612590"><ele>825.2</ele></trkpt>
      <trkpt lat="42.340960" lon="-4.613230"><ele>825.3</ele></trkpt>
      <trkpt lat="42.341180" lon="-4.619300"><ele>822.0</ele></trkpt>
      <trkpt lat="42.341380" lon="-4.621110"><ele>824.4</ele></trkpt>
      <trkpt lat="42.341310" lon="-4.621870"><ele>824.3</ele></trkpt>
      <trkpt lat="42.341490" lon="-4.622360"><ele>824.5</ele></trkpt>
      <trkpt lat="42.342170" lon="-4.629550"><ele>826.0</ele></trkpt>
      <trkpt lat="42.343880" lon="-4.651760"><ele>827.9</ele></trkpt>
      <trkpt lat="42.344120" lon="-4.653400"><ele>828.8</ele></trkpt>
      <trkpt lat="42.345040" lon="-4.656900"><ele>829.1</ele></trkpt>
      <trkpt lat="42.345100" lon="-4.657850"><ele>830.7</ele></trkpt>
      <trkpt lat="42.344910" lon="-4.658720"><ele>832.6</ele></trkpt>
      <trkpt lat="42.344300" lon="-4.660230"><ele>831.9</ele></trkpt>
      <trkpt lat="42.344130" lon="-4.666870"><ele>833.0</ele></trkpt>
      <trkpt lat="42.343010" lon="-4.679540"><ele>834.2</ele></trkpt>
      <trkpt lat="42.342050" lon="-4.688880"><ele>837.5</ele></trkpt>
      <trkpt lat="42.339460" lon="-4.709150"><ele>840.9</ele></trkpt>
      <trkpt lat="42.335770" lon="-4.734580"><ele>848.8</ele></trkpt>
      <trkpt lat="42.333660" lon="-4.747480"><ele>851.6</ele></trkpt>
      <trkpt lat="42.332140" lon="-4.758570"><ele>857.3</ele></trkpt>
      <trkpt lat="42.329600" lon="-4.771540"><ele>867.9</ele></trkpt>
      <trkpt lat="42.329080" lon="-4.779190"><ele>871.6</ele></trkpt>
      <trkpt lat="42.328970" lon="-4.787580"><ele>872.1</ele></trkpt>
      <trkpt lat="42.329070" lon="-4.793160"><ele>871.5</ele></trkpt>
      <trkpt lat="42.328870" lon="-4.799330"><ele>870.7</ele></trkpt>
      <trkpt lat="42.329400" lon="-4.808290"><ele>852.9</ele></trkpt>
      <trkpt lat="42.329440" lon="-4.811530"><ele>852.8</ele></trkpt>
      <trkpt lat="42.329590" lon="-4.812690"><ele>854.2</ele></trkpt>
      <trkpt lat="42.333080" lon="-4.818500"><ele>856.2</ele></trkpt>
      <trkpt lat="42.335780" lon="-4.823630"><ele>859.5</ele></trkpt>
      <trkpt lat="42.338240" lon="-4.828590"><ele>861.1</ele></trkpt>
      <trkpt lat="42.340370" lon="-4.833650"><ele>862.5</ele></trkpt>
      <trkpt lat="42.340410" lon="-4.834320"><ele>862.7</ele></trkpt>
      <trkpt lat="42.340840" lon="-4.835530"><ele>862.8</ele></trkpt>
      <trkpt lat="42.342700" lon="-4.840050"><ele>876.0</ele></trkpt>
      <trkpt lat="42.343710" lon="-4.844850"><ele>888.2</ele></trkpt>
      <trkpt lat="42.347830" lon="-4.856190"><ele>901.6</ele></trkpt>
      <trkpt lat="42.348150" lon="-4.857620"><ele>901.9</ele></trkpt>
      <trkpt lat="42.348160" lon="-4.858650"><ele>899.0</ele></trkpt>
      <trkpt lat="42.347680" lon="-4.859540"><ele>896.4</ele></trkpt>
      <trkpt lat="42.347680" lon="-4.860010"><ele>893.2</ele></trkpt>
      <trkpt lat="42.348760" lon="-4.862160"><ele>881.1</ele></trkpt>
      <trkpt lat="42.350850" lon="-4.864060"><ele>873.0</ele></trkpt>
      <trkpt lat="42.352790" lon="-4.864940"><ele>874.2</ele></trkpt>
      <trkpt lat="42.353330" lon="-4.865030"><ele>875.6</ele></trkpt>
      <trkpt lat="42.353540" lon="-4.865680"><ele>872.9</ele></trkpt>
      <trkpt lat="42.353510" lon="-4.866350"><ele>871.0</ele></trkpt>
      <trkpt lat="42.353650" lon="-4.866430"><ele>871.0</ele></trkpt>
      <trkpt lat="42.354070" lon="-4.866370"><ele>871.9</ele></trkpt>
      <trkpt lat="42.356040" lon="-4.865110"><ele>878.2</ele></trkpt>
      <trkpt lat="42.358020" lon="-4.865060"><ele>881.2</ele></trkpt>
      <trkpt lat="42.358460" lon="-4.865160"><ele>880.6</ele></trkpt>
      <trkpt lat="42.358650" lon="-4.865400"><ele>878.8</ele></trkpt>
      <trkpt lat="42.361920" lon="-4.866270"><ele>876.4</ele></trkpt>
      <trkpt lat="42.362480" lon="-4.866580"><ele>877.2</ele></trkpt>
      <trkpt lat="42.363260" lon="-4.867340"><ele>876.2</ele></trkpt>
      <trkpt lat="42.363770" lon="-4.869040"><ele>875.1</ele></trkpt>
      <trkpt lat="42.365840" lon="-4.874390"><ele>885.1</ele></trkpt>
      <trkpt lat="42.365960" lon="-4.876050"><ele>890.1</ele></trkpt>
      <trkpt lat="42.364710" lon="-4.887480"><ele>889.8</ele></trkpt>
      <trkpt lat="42.364000" lon="-4.889300"><ele>887.3</ele></trkpt>
      <trkpt lat="42.363270" lon="-4.889870"><ele>883.8</ele></trkpt>
      <trkpt lat="42.363010" lon="-4.890300"><ele>881.5</ele></trkpt>
      <trkpt lat="42.362500" lon="-4.890420"><ele>878.8</ele></trkpt>
      <trkpt lat="42.362130" lon="-4.890930"><ele>876.9</ele></trkpt>
      <trkpt lat="42.362090" lon="-4.891220"><ele>876.5</ele></trkpt>
      <trkpt lat="42.362370" lon="-4.891450"><ele>877.4</ele></trkpt>
      <trkpt lat="42.362380" lon="-4.892090"><ele>876.5</ele></trkpt>
      <trkpt lat="42.361110" lon="-4.895590"><ele>867.5</ele></trkpt>
      <trkpt lat="42.360590" lon="-4.898390"><ele>860.5</ele></trkpt>
      <trkpt lat="42.360590" lon="-4.899610"><ele>859.2</ele></trkpt>
      <trkpt lat="42.360320" lon="-4.901300"><ele>857.0</ele></trkpt>
      <trkpt lat="42.360370" lon="-4.902750"><ele>856.2</ele></trkpt>
      <trkpt lat="42.360740" lon="-4.904150"><ele>854.7</ele></trkpt>
      <trkpt lat="42.361310" lon="-4.905490"><ele>852.6</ele></trkpt>
      <trkpt lat="42.359700" lon="-4.909010"><ele>849.9</ele></trkpt>
      <trkpt lat="42.359190" lon="-4.909640"><ele>847.8</ele></trkpt>
      <trkpt lat="42.359110" lon="-4.909950"><ele>846.3</ele></trkpt>
      <trkpt lat="42.359430" lon="-4.911190"><ele>843.7</ele></trkpt>
      <trkpt lat="42.359260" lon="-4.911910"><ele>842.6</ele></trkpt>
      <trkpt lat="42.359340" lon="-4.912630"><ele>842.9</ele></trkpt>
      <trkpt lat="42.360830" lon="-4.916910"><ele>853.0</ele></trkpt>
      <trkpt lat="42.360710" lon="-4.920710"><ele>863.6</ele></trkpt>
      <trkpt lat="42.360970" lon="-4.921980"><ele>862.1</ele></trkpt>
      <trkpt lat="42.360900" lon="-4.923360"><ele>861.8</ele></trkpt>
      <trkpt lat="42.360370" lon="-4.925680"><ele>859.4</ele></trkpt>
      <trkpt lat="42.360350" lon="-4.926190"><ele>859.3</ele></trkpt>
      <trkpt lat="42.360630" lon="-4.926910"><ele>859.4</ele></trkpt>
      <trkpt lat="42.360020" lon="-4.927370"><ele>859.3</ele></trkpt>
      <trkpt lat="42.359870" lon="-4.928520"><ele>858.9</ele></trkpt>
      <trkpt lat="42.359080" lon="-4.929800"><ele>859.0</ele></trkpt>
      <trkpt lat="42.358760" lon="-4.930760"><ele>860.2</ele></trkpt>
      <trkpt lat="42.358740" lon="-4.931380"><ele>861.6</ele></trkpt>
      <trkpt lat="42.359490" lon="-4.934260"><ele>871.6</ele></trkpt>
      <trkpt lat="42.359770" lon="-4.937680"><ele>874.7</ele></trkpt>
      <trkpt lat="42.359770" lon="-4.937680"><ele>874.7</ele></trkpt>
      <trkpt lat="42.359760" lon="-4.937740"><ele>874.8</ele></trkpt>
      <trkpt lat="42.359750" lon="-4.937790"><ele>874.8</ele></trkpt>
      <trkpt lat="42.359740" lon="-4.937850"><ele>874.9</ele></trkpt>
      <trkpt lat="42.359720" lon="-4.937910"><ele>875.0</ele></trkpt>
      <trkpt lat="42.359710" lon="-4.937970"><ele>875.1</ele></trkpt>
      <trkpt lat="42.359700" lon="-4.938020"><ele>875.2</ele></trkpt>
      <trkpt lat="42.359700" lon="-4.938050"><ele>875.2</ele></trkpt>
      <trkpt lat="42.359660" lon="-4.938280"><ele>875.5</ele></trkpt>
      <trkpt lat="42.359600" lon="-4.938560"><ele>875.8</ele></trkpt>
      <trkpt lat="42.359550" lon="-4.938790"><ele>876.1</ele></trkpt>
      <trkpt lat="42.359490" lon="-4.939020"><ele>876.4</ele></trkpt>
      <trkpt lat="42.359470" lon="-4.939280"><ele>876.5</ele></trkpt>
      <trkpt lat="42.359460" lon="-4.939280"><ele>876.5</ele></trkpt>
      <trkpt lat="42.359400" lon="-4.939540"><ele>876.5</ele></trkpt>
      <trkpt lat="42.359400" lon="-4.939730"><ele>876.2</ele></trkpt>
      <trkpt lat="42.359400" lon="-4.939940"><ele>875.6</ele></trkpt>
      <trkpt lat="42.359400" lon="-4.939980"><ele>875.5</ele></trkpt>
      <trkpt lat="42.359390" lon="-4.940040"><ele>875.4</ele></trkpt>
      <trkpt lat="42.359390" lon="-4.940090"><ele>875.3</ele></trkpt>
      <trkpt lat="42.359390" lon="-4.940140"><ele>875.1</ele></trkpt>
      <trkpt lat="42.359390" lon="-4.940200"><ele>875.0</ele></trkpt>
      <trkpt lat="42.359390" lon="-4.940260"><ele>874.8</ele></trkpt>
      <trkpt lat="42.359390" lon="-4.940310"><ele>874.7</ele></trkpt>
      <trkpt lat="42.359400" lon="-4.940370"><ele>874.5</ele></trkpt>
      <trkpt lat="42.359420" lon="-4.940430"><ele>874.4</ele></trkpt>
      <trkpt lat="42.359430" lon="-4.940480"><ele>874.3</ele></trkpt>
      <trkpt lat="42.359440" lon="-4.940520"><ele>874.2</ele></trkpt>
      <trkpt lat="42.359460" lon="-4.940580"><ele>874.1</ele></trkpt>
      <trkpt lat="42.359470" lon="-4.940650"><ele>874.0</ele></trkpt>
      <trkpt lat="42.359490" lon="-4.940690"><ele>873.9</ele></trkpt>
      <trkpt lat="42.359510" lon="-4.940740"><ele>873.8</ele></trkpt>
      <trkpt lat="42.359520" lon="-4.940820"><ele>873.7</ele></trkpt>
      <trkpt lat="42.359530" lon="-4.940870"><ele>873.6</ele></trkpt>
      <trkpt lat="42.359540" lon="-4.940940"><ele>873.6</ele></trkpt>
      <trkpt lat="42.359560" lon="-4.941000"><ele>873.5</ele></trkpt>
      <trkpt lat="42.359570" lon="-4.941060"><ele>873.4</ele></trkpt>
      <trkpt lat="42.359580" lon="-4.941100"><ele>873.3</ele></trkpt>
      <trkpt lat="42.359590" lon="-4.941160"><ele>873.2</ele></trkpt>
      <trkpt lat="42.359590" lon="-4.941230"><ele>873.0</ele></trkpt>
      <trkpt lat="42.359590" lon="-4.941290"><ele>872.9</ele></trkpt>
      <trkpt lat="42.359590" lon="-4.941350"><ele>872.7</ele></trkpt>
      <trkpt lat="42.359580" lon="-4.941410"><ele>872.5</ele></trkpt>
      <trkpt lat="42.359570" lon="-4.941470"><ele>872.3</ele></trkpt>
      <trkpt lat="42.359560" lon="-4.941530"><ele>872.1</ele></trkpt>
      <trkpt lat="42.359540" lon="-4.941570"><ele>871.8</ele></trkpt>
      <trkpt lat="42.359530" lon="-4.941630"><ele>871.6</ele></trkpt>
      <trkpt lat="42.359530" lon="-4.941640"><ele>871.6</ele></trkpt>
      <trkpt lat="42.359460" lon="-4.941860"><ele>870.5</ele></trkpt>
      <trkpt lat="42.359410" lon="-4.942070"><ele>869.4</ele></trkpt>
      <trkpt lat="42.359370" lon="-4.942260"><ele>868.4</ele></trkpt>
      <trkpt lat="42.359370" lon="-4.942410"><ele>867.8</ele></trkpt>
      <trkpt lat="42.359350" lon="-4.942700"><ele>866.4</ele></trkpt>
      <trkpt lat="42.359320" lon="-4.943040"><ele>865.5</ele></trkpt>
      <trkpt lat="42.359310" lon="-4.943330"><ele>865.1</ele></trkpt>
      <trkpt lat="42.359260" lon="-4.943660"><ele>865.0</ele></trkpt>
      <trkpt lat="42.359220" lon="-4.943920"><ele>864.7</ele></trkpt>
      <trkpt lat="42.359170" lon="-4.944170"><ele>864.5</ele></trkpt>
      <trkpt lat="42.359170" lon="-4.944310"><ele>864.3</ele></trkpt>
      <trkpt lat="42.359170" lon="-4.944650"><ele>864.0</ele></trkpt>
      <trkpt lat="42.359180" lon="-4.944870"><ele>863.9</ele></trkpt>
      <trkpt lat="42.359170" lon="-4.945130"><ele>863.8</ele></trkpt>
      <trkpt lat="42.359160" lon="-4.945200"><ele>863.8</ele></trkpt>
      <trkpt lat="42.359160" lon="-4.945260"><ele>863.8</ele></trkpt>
      <trkpt lat="42.359160" lon="-4.945310"><ele>863.8</ele></trkpt>
      <trkpt lat="42.359170" lon="-4.945380"><ele>863.8</ele></trkpt>
      <trkpt lat="42.359180" lon="-4.945420"><ele>863.8</ele></trkpt>
      <trkpt lat="42.359180" lon="-4.945480"><ele>863.8</ele></trkpt>
      <trkpt lat="42.359200" lon="-4.945550"><ele>863.8</ele></trkpt>
      <trkpt lat="42.359220" lon="-4.945600"><ele>863.8</ele></trkpt>
      <trkpt lat="42.359230" lon="-4.945650"><ele>863.8</ele></trkpt>
      <trkpt lat="42.359260" lon="-4.945690"><ele>863.9</ele></trkpt>
      <trkpt lat="42.359280" lon="-4.945730"><ele>863.9</ele></trkpt>
      <trkpt lat="42.359310" lon="-4.945770"><ele>863.9</ele></trkpt>
      <trkpt lat="42.359330" lon="-4.945810"><ele>864.0</ele></trkpt>
      <trkpt lat="42.359350" lon="-4.945850"><ele>864.0</ele></trkpt>
      <trkpt lat="42.359370" lon="-4.945890"><ele>864.0</ele></trkpt>
      <trkpt lat="42.359390" lon="-4.945930"><ele>864.0</ele></trkpt>
      <trkpt lat="42.359420" lon="-4.945960"><ele>863.9</ele></trkpt>
      <trkpt lat="42.359450" lon="-4.945960"><ele>863.9</ele></trkpt>
      <trkpt lat="42.359610" lon="-4.946100"><ele>863.6</ele></trkpt>
      <trkpt lat="42.359800" lon="-4.946200"><ele>863.1</ele></trkpt>
      <trkpt lat="42.359940" lon="-4.946350"><ele>862.5</ele></trkpt>
      <trkpt lat="42.360160" lon="-4.946490"><ele>861.8</ele></trkpt>
      <trkpt lat="42.360310" lon="-4.946610"><ele>861.1</ele></trkpt>
      <trkpt lat="42.360500" lon="-4.946690"><ele>860.5</ele></trkpt>
      <trkpt lat="42.360780" lon="-4.946730"><ele>859.9</ele></trkpt>
      <trkpt lat="42.360940" lon="-4.946780"><ele>859.2</ele></trkpt>
      <trkpt lat="42.361070" lon="-4.946790"><ele>858.7</ele></trkpt>
      <trkpt lat="42.361220" lon="-4.946840"><ele>858.1</ele></trkpt>
      <trkpt lat="42.361380" lon="-4.946920"><ele>857.6</ele></trkpt>
      <trkpt lat="42.361600" lon="-4.947040"><ele>856.9</ele></trkpt>
      <trkpt lat="42.361730" lon="-4.947110"><ele>856.5</ele></trkpt>
      <trkpt lat="42.361910" lon="-4.947230"><ele>855.6</ele></trkpt>
      <trkpt lat="42.362080" lon="-4.947340"><ele>854.8</ele></trkpt>
      <trkpt lat="42.362260" lon="-4.947460"><ele>853.9</ele></trkpt>
      <trkpt lat="42.362420" lon="-4.947510"><ele>853.3</ele></trkpt>
      <trkpt lat="42.362650" lon="-4.947660"><ele>852.4</ele></trkpt>
      <trkpt lat="42.362830" lon="-4.947720"><ele>851.7</ele></trkpt>
      <trkpt lat="42.362850" lon="-4.947720"><ele>851.6</ele></trkpt>
      <trkpt lat="42.362970" lon="-4.947770"><ele>851.2</ele></trkpt>
      <trkpt lat="42.363160" lon="-4.947870"><ele>850.6</ele></trkpt>
      <trkpt lat="42.363200" lon="-4.947900"><ele>850.4</ele></trkpt>
      <trkpt lat="42.363230" lon="-4.947930"><ele>850.3</ele></trkpt>
      <trkpt lat="42.363260" lon="-4.947990"><ele>850.1</ele></trkpt>
      <trkpt lat="42.363300" lon="-4.948020"><ele>849.9</ele></trkpt>
      <trkpt lat="42.363320" lon="-4.948040"><ele>849.8</ele></trkpt>
      <trkpt lat="42.363460" lon="-4.948230"><ele>849.2</ele></trkpt>
      <trkpt lat="42.363600" lon="-4.948360"><ele>848.5</ele></trkpt>
      <trkpt lat="42.363760" lon="-4.948530"><ele>847.6</ele></trkpt>
      <trkpt lat="42.363790" lon="-4.948530"><ele>847.4</ele></trkpt>
      <trkpt lat="42.363930" lon="-4.948720"><ele>846.5</ele></trkpt>
      <trkpt lat="42.363940" lon="-4.948720"><ele>846.5</ele></trkpt>
      <trkpt lat="42.364070" lon="-4.948900"><ele>846.1</ele></trkpt>
      <trkpt lat="42.364110" lon="-4.948930"><ele>846.1</ele></trkpt>
      <trkpt lat="42.364130" lon="-4.948960"><ele>846.1</ele></trkpt>
      <trkpt lat="42.364160" lon="-4.949000"><ele>846.1</ele></trkpt>
      <trkpt lat="42.364200" lon="-4.949030"><ele>846.2</ele></trkpt>
      <trkpt lat="42.364230" lon="-4.949060"><ele>846.2</ele></trkpt>
      <trkpt lat="42.364250" lon="-4.949110"><ele>846.2</ele></trkpt>
      <trkpt lat="42.364270" lon="-4.949170"><ele>846.3</ele></trkpt>
      <trkpt lat="42.364280" lon="-4.949220"><ele>846.3</ele></trkpt>
      <trkpt lat="42.364280" lon="-4.949270"><ele>846.4</ele></trkpt>
      <trkpt lat="42.364280" lon="-4.949340"><ele>846.4</ele></trkpt>
      <trkpt lat="42.364290" lon="-4.949400"><ele>846.5</ele></trkpt>
      <trkpt lat="42.364290" lon="-4.949460"><ele>846.5</ele></trkpt>
      <trkpt lat="42.364290" lon="-4.949530"><ele>846.5</ele></trkpt>
      <trkpt lat="42.364290" lon="-4.949610"><ele>846.5</ele></trkpt>
      <trkpt lat="42.364290" lon="-4.949670"><ele>846.6</ele></trkpt>
      <trkpt lat="42.364290" lon="-4.949730"><ele>846.6</ele></trkpt>
      <trkpt lat="42.364290" lon="-4.949800"><ele>846.6</ele></trkpt>
      <trkpt lat="42.364290" lon="-4.949850"><ele>846.6</ele></trkpt>
      <trkpt lat="42.364300" lon="-4.949930"><ele>846.6</ele></trkpt>
      <trkpt lat="42.364310" lon="-4.949990"><ele>846.6</ele></trkpt>
      <trkpt lat="42.364320" lon="-4.950040"><ele>846.6</ele></trkpt>
      <trkpt lat="42.364330" lon="-4.950100"><ele>846.6</ele></trkpt>
      <trkpt lat="42.364330" lon="-4.950160"><ele>846.6</ele></trkpt>
      <trkpt lat="42.364330" lon="-4.950210"><ele>846.6</ele></trkpt>
      <trkpt lat="42.364330" lon="-4.950280"><ele>846.6</ele></trkpt>
      <trkpt lat="42.364330" lon="-4.950340"><ele>846.6</ele></trkpt>
      <trkpt lat="42.364330" lon="-4.950400"><ele>846.5</ele></trkpt>
      <trkpt lat="42.364330" lon="-4.950460"><ele>846.5</ele></trkpt>
      <trkpt lat="42.364330" lon="-4.950540"><ele>846.4</ele></trkpt>
      <trkpt lat="42.364330" lon="-4.950590"><ele>846.4</ele></trkpt>
      <trkpt lat="42.364330" lon="-4.950640"><ele>846.4</ele></trkpt>
      <trkpt lat="42.364330" lon="-4.950710"><ele>846.3</ele></trkpt>
      <trkpt lat="42.364330" lon="-4.950770"><ele>846.2</ele></trkpt>
      <trkpt lat="42.364310" lon="-4.950810"><ele>846.2</ele></trkpt>
      <trkpt lat="42.364310" lon="-4.950870"><ele>846.1</ele></trkpt>
      <trkpt lat="42.364300" lon="-4.950930"><ele>846.0</ele></trkpt>
      <trkpt lat="42.364300" lon="-4.950980"><ele>845.9</ele></trkpt>
      <trkpt lat="42.364290" lon="-4.951030"><ele>845.8</ele></trkpt>
      <trkpt lat="42.364270" lon="-4.951080"><ele>845.8</ele></trkpt>
      <trkpt lat="42.364250" lon="-4.951130"><ele>845.7</ele></trkpt>
      <trkpt lat="42.364200" lon="-4.951170"><ele>845.6</ele></trkpt>
      <trkpt lat="42.364180" lon="-4.951190"><ele>845.5</ele></trkpt>
      <trkpt lat="42.364140" lon="-4.951210"><ele>845.5</ele></trkpt>
      <trkpt lat="42.364100" lon="-4.951220"><ele>845.4</ele></trkpt>
      <trkpt lat="42.364060" lon="-4.951250"><ele>845.3</ele></trkpt>
      <trkpt lat="42.364030" lon="-4.951260"><ele>845.2</ele></trkpt>
      <trkpt lat="42.363990" lon="-4.951280"><ele>845.2</ele></trkpt>
      <trkpt lat="42.363960" lon="-4.951310"><ele>845.1</ele></trkpt>
      <trkpt lat="42.363920" lon="-4.951340"><ele>845.1</ele></trkpt>
      <trkpt lat="42.363890" lon="-4.951370"><ele>845.0</ele></trkpt>
      <trkpt lat="42.363850" lon="-4.951410"><ele>845.0</ele></trkpt>
      <trkpt lat="42.363820" lon="-4.951440"><ele>844.9</ele></trkpt>
      <trkpt lat="42.363790" lon="-4.951480"><ele>844.8</ele></trkpt>
      <trkpt lat="42.363760" lon="-4.951520"><ele>844.7</ele></trkpt>
      <trkpt lat="42.363740" lon="-4.951580"><ele>844.6</ele></trkpt>
      <trkpt lat="42.363710" lon="-4.951630"><ele>844.4</ele></trkpt>
      <trkpt lat="42.363690" lon="-4.951660"><ele>844.3</ele></trkpt>
      <trkpt lat="42.363670" lon="-4.951710"><ele>844.2</ele></trkpt>
      <trkpt lat="42.363660" lon="-4.951760"><ele>844.1</ele></trkpt>
      <trkpt lat="42.363640" lon="-4.951810"><ele>843.9</ele></trkpt>
      <trkpt lat="42.363620" lon="-4.951880"><ele>843.7</ele></trkpt>
      <trkpt lat="42.363600" lon="-4.951930"><ele>843.5</ele></trkpt>
      <trkpt lat="42.363570" lon="-4.951990"><ele>843.4</ele></trkpt>
      <trkpt lat="42.363550" lon="-4.952040"><ele>843.2</ele></trkpt>
      <trkpt lat="42.363540" lon="-4.952080"><ele>843.1</ele></trkpt>
      <trkpt lat="42.363530" lon="-4.952140"><ele>843.0</ele></trkpt>
      <trkpt lat="42.363510" lon="-4.952190"><ele>842.9</ele></trkpt>
      <trkpt lat="42.363490" lon="-4.952240"><ele>842.8</ele></trkpt>
      <trkpt lat="42.363470" lon="-4.952280"><ele>842.8</ele></trkpt>
      <trkpt lat="42.363460" lon="-4.952340"><ele>842.7</ele></trkpt>
      <trkpt lat="42.363450" lon="-4.952390"><ele>842.6</ele></trkpt>
      <trkpt lat="42.363440" lon="-4.952430"><ele>842.5</ele></trkpt>
      <trkpt lat="42.363430" lon="-4.952480"><ele>842.4</ele></trkpt>
      <trkpt lat="42.363420" lon="-4.952530"><ele>842.4</ele></trkpt>
      <trkpt lat="42.363400" lon="-4.952580"><ele>842.3</ele></trkpt>
      <trkpt lat="42.363380" lon="-4.952620"><ele>842.3</ele></trkpt>
      <trkpt lat="42.363360" lon="-4.952670"><ele>842.2</ele></trkpt>
      <trkpt lat="42.363350" lon="-4.952720"><ele>842.2</ele></trkpt>
      <trkpt lat="42.363350" lon="-4.952780"><ele>842.1</ele></trkpt>
      <trkpt lat="42.363350" lon="-4.952840"><ele>842.0</ele></trkpt>
      <trkpt lat="42.363360" lon="-4.952910"><ele>842.0</ele></trkpt>
      <trkpt lat="42.363380" lon="-4.952970"><ele>842.0</ele></trkpt>
      <trkpt lat="42.363390" lon="-4.953020"><ele>842.0</ele></trkpt>
      <trkpt lat="42.363430" lon="-4.953090"><ele>842.1</ele></trkpt>
      <trkpt lat="42.363460" lon="-4.953140"><ele>842.1</ele></trkpt>
      <trkpt lat="42.363460" lon="-4.953190"><ele>842.2</ele></trkpt>
      <trkpt lat="42.363470" lon="-4.953250"><ele>842.3</ele></trkpt>
      <trkpt lat="42.363490" lon="-4.953320"><ele>842.3</ele></trkpt>
      <trkpt lat="42.363500" lon="-4.953360"><ele>842.4</ele></trkpt>
      <trkpt lat="42.363510" lon="-4.953420"><ele>842.4</ele></trkpt>
      <trkpt lat="42.363530" lon="-4.953480"><ele>842.4</ele></trkpt>
      <trkpt lat="42.363530" lon="-4.953550"><ele>842.4</ele></trkpt>
      <trkpt lat="42.363550" lon="-4.953600"><ele>842.3</ele></trkpt>
      <trkpt lat="42.363560" lon="-4.953670"><ele>842.3</ele></trkpt>
      <trkpt lat="42.363570" lon="-4.953720"><ele>842.2</ele></trkpt>
      <trkpt lat="42.363580" lon="-4.953770"><ele>842.2</ele></trkpt>
      <trkpt lat="42.363600" lon="-4.953820"><ele>842.1</ele></trkpt>
      <trkpt lat="42.363620" lon="-4.953870"><ele>842.0</ele></trkpt>
      <trkpt lat="42.363630" lon="-4.953920"><ele>841.9</ele></trkpt>
      <trkpt lat="42.363640" lon="-4.953970"><ele>841.8</ele></trkpt>
      <trkpt lat="42.363660" lon="-4.954020"><ele>841.6</ele></trkpt>
      <trkpt lat="42.363670" lon="-4.954080"><ele>841.4</ele></trkpt>
      <trkpt lat="42.363670" lon="-4.954130"><ele>841.3</ele></trkpt>
      <trkpt lat="42.363670" lon="-4.954200"><ele>841.1</ele></trkpt>
      <trkpt lat="42.363670" lon="-4.954260"><ele>841.0</ele></trkpt>
      <trkpt lat="42.363670" lon="-4.954310"><ele>840.9</ele></trkpt>
      <trkpt lat="42.363670" lon="-4.954360"><ele>840.7</ele></trkpt>
      <trkpt lat="42.363670" lon="-4.954410"><ele>840.6</ele></trkpt>
      <trkpt lat="42.363700" lon="-4.954450"><ele>840.6</ele></trkpt>
      <trkpt lat="42.363720" lon="-4.954490"><ele>840.5</ele></trkpt>
      <trkpt lat="42.363750" lon="-4.954510"><ele>840.4</ele></trkpt>
      <trkpt lat="42.363790" lon="-4.954540"><ele>840.3</ele></trkpt>
      <trkpt lat="42.363820" lon="-4.954550"><ele>840.2</ele></trkpt>
      <trkpt lat="42.363860" lon="-4.954560"><ele>840.1</ele></trkpt>
      <trkpt lat="42.363910" lon="-4.954570"><ele>840.0</ele></trkpt>
      <trkpt lat="42.363950" lon="-4.954570"><ele>839.9</ele></trkpt>
      <trkpt lat="42.363990" lon="-4.954580"><ele>839.8</ele></trkpt>
      <trkpt lat="42.364030" lon="-4.954590"><ele>839.7</ele></trkpt>
      <trkpt lat="42.364070" lon="-4.954620"><ele>839.7</ele></trkpt>
      <trkpt lat="42.364090" lon="-4.954650"><ele>839.6</ele></trkpt>
      <trkpt lat="42.364110" lon="-4.954690"><ele>839.6</ele></trkpt>
      <trkpt lat="42.364130" lon="-4.954730"><ele>839.5</ele></trkpt>
      <trkpt lat="42.364140" lon="-4.954790"><ele>839.5</ele></trkpt>
      <trkpt lat="42.364150" lon="-4.954840"><ele>839.4</ele></trkpt>
      <trkpt lat="42.364160" lon="-4.954900"><ele>839.4</ele></trkpt>
      <trkpt lat="42.364160" lon="-4.954950"><ele>839.4</ele></trkpt>
      <trkpt lat="42.364160" lon="-4.955000"><ele>839.4</ele></trkpt>
      <trkpt lat="42.364160" lon="-4.955010"><ele>839.4</ele></trkpt>
      <trkpt lat="42.364170" lon="-4.955140"><ele>839.4</ele></trkpt>
      <trkpt lat="42.364170" lon="-4.955220"><ele>839.4</ele></trkpt>
      <trkpt lat="42.364170" lon="-4.955290"><ele>839.4</ele></trkpt>
      <trkpt lat="42.364190" lon="-4.955350"><ele>839.5</ele></trkpt>
      <trkpt lat="42.364190" lon="-4.955350"><ele>839.5</ele></trkpt>
      <trkpt lat="42.364390" lon="-4.955350"><ele>839.5</ele></trkpt>
      <trkpt lat="42.364400" lon="-4.955350"><ele>839.5</ele></trkpt>
      <trkpt lat="42.364650" lon="-4.955380"><ele>839.7</ele></trkpt>
      <trkpt lat="42.364790" lon="-4.955370"><ele>839.9</ele></trkpt>
      <trkpt lat="42.364830" lon="-4.955380"><ele>839.9</ele></trkpt>
      <trkpt lat="42.364870" lon="-4.955410"><ele>840.0</ele></trkpt>
      <trkpt lat="42.364900" lon="-4.955440"><ele>840.1</ele></trkpt>
      <trkpt lat="42.364910" lon="-4.955490"><ele>840.1</ele></trkpt>
      <trkpt lat="42.364930" lon="-4.955540"><ele>840.2</ele></trkpt>
      <trkpt lat="42.364940" lon="-4.955590"><ele>840.2</ele></trkpt>
      <trkpt lat="42.364940" lon="-4.955650"><ele>840.3</ele></trkpt>
      <trkpt lat="42.364950" lon="-4.956010"><ele>840.7</ele></trkpt>
      <trkpt lat="42.364950" lon="-4.956420"><ele>841.5</ele></trkpt>
      <trkpt lat="42.364940" lon="-4.956790"><ele>842.4</ele></trkpt>
      <trkpt lat="42.364940" lon="-4.957160"><ele>843.4</ele></trkpt>
      <trkpt lat="42.364940" lon="-4.957550"><ele>844.2</ele></trkpt>
      <trkpt lat="42.364940" lon="-4.958040"><ele>845.4</ele></trkpt>
      <trkpt lat="42.364950" lon="-4.958630"><ele>846.6</ele></trkpt>
      <trkpt lat="42.364950" lon="-4.959020"><ele>847.4</ele></trkpt>
      <trkpt lat="42.364960" lon="-4.959370"><ele>847.7</ele></trkpt>
      <trkpt lat="42.364990" lon="-4.959730"><ele>848.2</ele></trkpt>
      <trkpt lat="42.365030" lon="-4.960060"><ele>848.8</ele></trkpt>
      <trkpt lat="42.365040" lon="-4.960390"><ele>849.3</ele></trkpt>
      <trkpt lat="42.365060" lon="-4.960720"><ele>849.7</ele></trkpt>
      <trkpt lat="42.365080" lon="-4.960950"><ele>850.0</ele></trkpt>
      <trkpt lat="42.365100" lon="-4.961370"><ele>850.3</ele></trkpt>
      <trkpt lat="42.365130" lon="-4.961810"><ele>850.1</ele></trkpt>
      <trkpt lat="42.365160" lon="-4.962230"><ele>849.9</ele></trkpt>
      <trkpt lat="42.365200" lon="-4.962640"><ele>850.5</ele></trkpt>
      <trkpt lat="42.365220" lon="-4.963040"><ele>851.0</ele></trkpt>
      <trkpt lat="42.365250" lon="-4.963490"><ele>851.7</ele></trkpt>
      <trkpt lat="42.365300" lon="-4.963950"><ele>852.0</ele></trkpt>
      <trkpt lat="42.365320" lon="-4.964280"><ele>851.9</ele></trkpt>
      <trkpt lat="42.365340" lon="-4.964660"><ele>851.8</ele></trkpt>
      <trkpt lat="42.365380" lon="-4.965060"><ele>852.2</ele></trkpt>
      <trkpt lat="42.365390" lon="-4.965320"><ele>852.4</ele></trkpt>
      <trkpt lat="42.365400" lon="-4.965630"><ele>852.8</ele></trkpt>
      <trkpt lat="42.365440" lon="-4.965740"><ele>853.2</ele></trkpt>
      <trkpt lat="42.365460" lon="-4.966160"><ele>854.0</ele></trkpt>
      <trkpt lat="42.365490" lon="-4.966630"><ele>854.9</ele></trkpt>
      <trkpt lat="42.365530" lon="-4.967080"><ele>855.8</ele></trkpt>
      <trkpt lat="42.365570" lon="-4.967670"><ele>857.0</ele></trkpt>
      <trkpt lat="42.365590" lon="-4.968180"><ele>857.8</ele></trkpt>
      <trkpt lat="42.365650" lon="-4.968880"><ele>858.8</ele></trkpt>
      <trkpt lat="42.365670" lon="-4.969320"><ele>860.0</ele></trkpt>
      <trkpt lat="42.365710" lon="-4.969720"><ele>861.1</ele></trkpt>
      <trkpt lat="42.365750" lon="-4.970140"><ele>862.1</ele></trkpt>
      <trkpt lat="42.365770" lon="-4.970630"><ele>862.8</ele></trkpt>
      <trkpt lat="42.365790" lon="-4.970860"><ele>862.5</ele></trkpt>
      <trkpt lat="42.365840" lon="-4.971510"><ele>862.0</ele></trkpt>
      <trkpt lat="42.365860" lon="-4.971930"><ele>862.0</ele></trkpt>
      <trkpt lat="42.365860" lon="-4.972020"><ele>862.0</ele></trkpt>
      <trkpt lat="42.365860" lon="-4.972080"><ele>862.0</ele></trkpt>
      <trkpt lat="42.365860" lon="-4.972130"><ele>862.0</ele></trkpt>
      <trkpt lat="42.365860" lon="-4.972190"><ele>862.0</ele></trkpt>
      <trkpt lat="42.365860" lon="-4.972250"><ele>862.0</ele></trkpt>
      <trkpt lat="42.365870" lon="-4.972310"><ele>862.0</ele></trkpt>
      <trkpt lat="42.365870" lon="-4.972360"><ele>862.0</ele></trkpt>
      <trkpt lat="42.365870" lon="-4.972430"><ele>862.0</ele></trkpt>
      <trkpt lat="42.365870" lon="-4.972520"><ele>862.0</ele></trkpt>
      <trkpt lat="42.365870" lon="-4.972580"><ele>862.0</ele></trkpt>
      <trkpt lat="42.365860" lon="-4.972620"><ele>862.0</ele></trkpt>
      <trkpt lat="42.365830" lon="-4.972650"><ele>862.0</ele></trkpt>
      <trkpt lat="42.365800" lon="-4.972680"><ele>862.2</ele></trkpt>
      <trkpt lat="42.365760" lon="-4.972700"><ele>862.3</ele></trkpt>
      <trkpt lat="42.365740" lon="-4.972720"><ele>862.5</ele></trkpt>
      <trkpt lat="42.365700" lon="-4.972740"><ele>862.6</ele></trkpt>
      <trkpt lat="42.365660" lon="-4.972760"><ele>862.8</ele></trkpt>
      <trkpt lat="42.365630" lon="-4.972780"><ele>863.0</ele></trkpt>
      <trkpt lat="42.365600" lon="-4.972800"><ele>863.1</ele></trkpt>
      <trkpt lat="42.365570" lon="-4.972830"><ele>863.3</ele></trkpt>
      <trkpt lat="42.365530" lon="-4.972860"><ele>863.4</ele></trkpt>
      <trkpt lat="42.365500" lon="-4.972890"><ele>863.6</ele></trkpt>
      <trkpt lat="42.365460" lon="-4.972920"><ele>863.7</ele></trkpt>
      <trkpt lat="42.365430" lon="-4.972960"><ele>863.8</ele></trkpt>
      <trkpt lat="42.365400" lon="-4.972990"><ele>863.9</ele></trkpt>
      <trkpt lat="42.365370" lon="-4.973030"><ele>863.9</ele></trkpt>
      <trkpt lat="42.365350" lon="-4.973080"><ele>863.9</ele></trkpt>
      <trkpt lat="42.365330" lon="-4.973120"><ele>863.9</ele></trkpt>
      <trkpt lat="42.365310" lon="-4.973160"><ele>863.8</ele></trkpt>
      <trkpt lat="42.365290" lon="-4.973200"><ele>863.8</ele></trkpt>
      <trkpt lat="42.365270" lon="-4.973260"><ele>863.8</ele></trkpt>
      <trkpt lat="42.365270" lon="-4.973300"><ele>863.7</ele></trkpt>
      <trkpt lat="42.365260" lon="-4.973350"><ele>863.6</ele></trkpt>
      <trkpt lat="42.365260" lon="-4.973410"><ele>863.5</ele></trkpt>
      <trkpt lat="42.365250" lon="-4.973450"><ele>863.5</ele></trkpt>
      <trkpt lat="42.365250" lon="-4.973500"><ele>863.3</ele></trkpt>
      <trkpt lat="42.365250" lon="-4.973560"><ele>863.2</ele></trkpt>
      <trkpt lat="42.365250" lon="-4.973610"><ele>863.1</ele></trkpt>
      <trkpt lat="42.365250" lon="-4.973670"><ele>863.0</ele></trkpt>
      <trkpt lat="42.365270" lon="-4.973750"><ele>862.7</ele></trkpt>
      <trkpt lat="42.365290" lon="-4.973790"><ele>862.6</ele></trkpt>
      <trkpt lat="42.365310" lon="-4.973840"><ele>862.4</ele></trkpt>
      <trkpt lat="42.365330" lon="-4.973890"><ele>862.1</ele></trkpt>
      <trkpt lat="42.365350" lon="-4.973950"><ele>861.8</ele></trkpt>
      <trkpt lat="42.365360" lon="-4.974010"><ele>861.4</ele></trkpt>
      <trkpt lat="42.365390" lon="-4.974060"><ele>861.2</ele></trkpt>
      <trkpt lat="42.365420" lon="-4.974100"><ele>860.9</ele></trkpt>
      <trkpt lat="42.365440" lon="-4.974150"><ele>860.6</ele></trkpt>
      <trkpt lat="42.365470" lon="-4.974200"><ele>860.4</ele></trkpt>
      <trkpt lat="42.365480" lon="-4.974260"><ele>860.1</ele></trkpt>
      <trkpt lat="42.365500" lon="-4.974310"><ele>859.8</ele></trkpt>
      <trkpt lat="42.365520" lon="-4.974380"><ele>859.5</ele></trkpt>
      <trkpt lat="42.365530" lon="-4.974430"><ele>859.2</ele></trkpt>
      <trkpt lat="42.365550" lon="-4.974490"><ele>859.0</ele></trkpt>
      <trkpt lat="42.365550" lon="-4.974540"><ele>858.7</ele></trkpt>
      <trkpt lat="42.365560" lon="-4.974590"><ele>858.5</ele></trkpt>
      <trkpt lat="42.365570" lon="-4.974650"><ele>858.3</ele></trkpt>
      <trkpt lat="42.365570" lon="-4.974720"><ele>858.0</ele></trkpt>
      <trkpt lat="42.365570" lon="-4.974790"><ele>857.7</ele></trkpt>
      <trkpt lat="42.365570" lon="-4.974850"><ele>857.5</ele></trkpt>
      <trkpt lat="42.365570" lon="-4.974910"><ele>857.3</ele></trkpt>
      <trkpt lat="42.365570" lon="-4.974970"><ele>857.1</ele></trkpt>
      <trkpt lat="42.365570" lon="-4.975030"><ele>856.9</ele></trkpt>
      <trkpt lat="42.365570" lon="-4.975040"><ele>856.9</ele></trkpt>
      <trkpt lat="42.365580" lon="-4.975140"><ele>856.5</ele></trkpt>
      <trkpt lat="42.365520" lon="-4.975340"><ele>856.0</ele></trkpt>
      <trkpt lat="42.365430" lon="-4.975550"><ele>855.3</ele></trkpt>
      <trkpt lat="42.365350" lon="-4.975740"><ele>854.7</ele></trkpt>
      <trkpt lat="42.365330" lon="-4.975780"><ele>854.6</ele></trkpt>
      <trkpt lat="42.365300" lon="-4.975840"><ele>854.4</ele></trkpt>
      <trkpt lat="42.365280" lon="-4.975890"><ele>854.2</ele></trkpt>
      <trkpt lat="42.365250" lon="-4.975940"><ele>854.0</ele></trkpt>
      <trkpt lat="42.365230" lon="-4.975990"><ele>853.8</ele></trkpt>
      <trkpt lat="42.365200" lon="-4.976030"><ele>853.6</ele></trkpt>
      <trkpt lat="42.365170" lon="-4.976100"><ele>853.4</ele></trkpt>
      <trkpt lat="42.365160" lon="-4.976140"><ele>853.3</ele></trkpt>
      <trkpt lat="42.365140" lon="-4.976190"><ele>853.1</ele></trkpt>
      <trkpt lat="42.365120" lon="-4.976230"><ele>853.0</ele></trkpt>
      <trkpt lat="42.365100" lon="-4.976280"><ele>852.9</ele></trkpt>
      <trkpt lat="42.365090" lon="-4.976340"><ele>852.7</ele></trkpt>
      <trkpt lat="42.365080" lon="-4.976410"><ele>852.6</ele></trkpt>
      <trkpt lat="42.365060" lon="-4.976450"><ele>852.4</ele></trkpt>
      <trkpt lat="42.365050" lon="-4.976510"><ele>852.3</ele></trkpt>
      <trkpt lat="42.365040" lon="-4.976560"><ele>852.2</ele></trkpt>
      <trkpt lat="42.365030" lon="-4.976600"><ele>852.1</ele></trkpt>
      <trkpt lat="42.365010" lon="-4.976660"><ele>852.0</ele></trkpt>
      <trkpt lat="42.364990" lon="-4.976710"><ele>851.9</ele></trkpt>
      <trkpt lat="42.364980" lon="-4.976750"><ele>851.9</ele></trkpt>
      <trkpt lat="42.364970" lon="-4.976800"><ele>851.8</ele></trkpt>
      <trkpt lat="42.364960" lon="-4.976850"><ele>851.8</ele></trkpt>
      <trkpt lat="42.364940" lon="-4.976910"><ele>851.7</ele></trkpt>
      <trkpt lat="42.364930" lon="-4.976970"><ele>851.7</ele></trkpt>
      <trkpt lat="42.364920" lon="-4.977030"><ele>851.7</ele></trkpt>
      <trkpt lat="42.364910" lon="-4.977090"><ele>851.7</ele></trkpt>
      <trkpt lat="42.364900" lon="-4.977150"><ele>851.6</ele></trkpt>
      <trkpt lat="42.364900" lon="-4.977200"><ele>851.6</ele></trkpt>
      <trkpt lat="42.364890" lon="-4.977260"><ele>851.6</ele></trkpt>
      <trkpt lat="42.364880" lon="-4.977320"><ele>851.5</ele></trkpt>
      <trkpt lat="42.364880" lon="-4.977380"><ele>851.5</ele></trkpt>
      <trkpt lat="42.364880" lon="-4.977440"><ele>851.4</ele></trkpt>
      <trkpt lat="42.364880" lon="-4.977500"><ele>851.3</ele></trkpt>
      <trkpt lat="42.364880" lon="-4.977560"><ele>851.2</ele></trkpt>
      <trkpt lat="42.364870" lon="-4.977620"><ele>851.2</ele></trkpt>
      <trkpt lat="42.364870" lon="-4.977650"><ele>851.1</ele></trkpt>
      <trkpt lat="42.364900" lon="-4.977860"><ele>850.5</ele></trkpt>
      <trkpt lat="42.364910" lon="-4.977910"><ele>850.3</ele></trkpt>
      <trkpt lat="42.364930" lon="-4.977980"><ele>850.1</ele></trkpt>
      <trkpt lat="42.364940" lon="-4.978040"><ele>849.9</ele></trkpt>
      <trkpt lat="42.364960" lon="-4.978100"><ele>849.7</ele></trkpt>
      <trkpt lat="42.364990" lon="-4.978160"><ele>849.5</ele></trkpt>
      <trkpt lat="42.365020" lon="-4.978220"><ele>849.2</ele></trkpt>
      <trkpt lat="42.365050" lon="-4.978270"><ele>849.1</ele></trkpt>
      <trkpt lat="42.365070" lon="-4.978310"><ele>848.9</ele></trkpt>
      <trkpt lat="42.365100" lon="-4.978350"><ele>848.8</ele></trkpt>
      <trkpt lat="42.365130" lon="-4.978390"><ele>848.6</ele></trkpt>
      <trkpt lat="42.365150" lon="-4.978430"><ele>848.5</ele></trkpt>
      <trkpt lat="42.365180" lon="-4.978480"><ele>848.3</ele></trkpt>
      <trkpt lat="42.365210" lon="-4.978510"><ele>848.2</ele></trkpt>
      <trkpt lat="42.365240" lon="-4.978560"><ele>848.0</ele></trkpt>
      <trkpt lat="42.365270" lon="-4.978600"><ele>847.8</ele></trkpt>
      <trkpt lat="42.365290" lon="-4.978640"><ele>847.7</ele></trkpt>
      <trkpt lat="42.365320" lon="-4.978680"><ele>847.5</ele></trkpt>
      <trkpt lat="42.365340" lon="-4.978720"><ele>847.4</ele></trkpt>
      <trkpt lat="42.365370" lon="-4.978750"><ele>847.3</ele></trkpt>
      <trkpt lat="42.365390" lon="-4.978790"><ele>847.1</ele></trkpt>
      <trkpt lat="42.365420" lon="-4.978820"><ele>847.0</ele></trkpt>
      <trkpt lat="42.365450" lon="-4.978850"><ele>847.0</ele></trkpt>
      <trkpt lat="42.365490" lon="-4.978880"><ele>846.9</ele></trkpt>
      <trkpt lat="42.365520" lon="-4.978910"><ele>846.9</ele></trkpt>
      <trkpt lat="42.365550" lon="-4.978940"><ele>846.9</ele></trkpt>
      <trkpt lat="42.365550" lon="-4.978970"><ele>846.9</ele></trkpt>
      <trkpt lat="42.365560" lon="-4.979250"><ele>846.8</ele></trkpt>
      <trkpt lat="42.365530" lon="-4.979630"><ele>846.4</ele></trkpt>
      <trkpt lat="42.365510" lon="-4.979960"><ele>845.9</ele></trkpt>
      <trkpt lat="42.365490" lon="-4.980330"><ele>845.0</ele></trkpt>
      <trkpt lat="42.365460" lon="-4.980770"><ele>843.7</ele></trkpt>
      <trkpt lat="42.365450" lon="-4.981170"><ele>842.5</ele></trkpt>
      <trkpt lat="42.365440" lon="-4.981580"><ele>840.6</ele></trkpt>
      <trkpt lat="42.365450" lon="-4.982020"><ele>838.8</ele></trkpt>
      <trkpt lat="42.365490" lon="-4.982450"><ele>837.1</ele></trkpt>
      <trkpt lat="42.365490" lon="-4.982500"><ele>837.0</ele></trkpt>
      <trkpt lat="42.365530" lon="-4.982910"><ele>835.7</ele></trkpt>
      <trkpt lat="42.365580" lon="-4.983360"><ele>834.8</ele></trkpt>
      <trkpt lat="42.365640" lon="-4.983800"><ele>834.4</ele></trkpt>
      <trkpt lat="42.365660" lon="-4.983970"><ele>834.2</ele></trkpt>
      <trkpt lat="42.365710" lon="-4.984500"><ele>833.0</ele></trkpt>
      <trkpt lat="42.365770" lon="-4.985070"><ele>831.8</ele></trkpt>
      <trkpt lat="42.365830" lon="-4.985560"><ele>830.5</ele></trkpt>
      <trkpt lat="42.365870" lon="-4.986010"><ele>828.9</ele></trkpt>
      <trkpt lat="42.365920" lon="-4.986520"><ele>827.4</ele></trkpt>
      <trkpt lat="42.365960" lon="-4.986980"><ele>826.5</ele></trkpt>
      <trkpt lat="42.366020" lon="-4.987480"><ele>826.8</ele></trkpt>
      <trkpt lat="42.366060" lon="-4.987920"><ele>827.4</ele></trkpt>
      <trkpt lat="42.366110" lon="-4.988450"><ele>827.7</ele></trkpt>
      <trkpt lat="42.366160" lon="-4.988930"><ele>827.7</ele></trkpt>
      <trkpt lat="42.366200" lon="-4.989420"><ele>827.5</ele></trkpt>
      <trkpt lat="42.366250" lon="-4.989820"><ele>826.9</ele></trkpt>
      <trkpt lat="42.366290" lon="-4.990200"><ele>826.2</ele></trkpt>
      <trkpt lat="42.366340" lon="-4.990680"><ele>825.5</ele></trkpt>
      <trkpt lat="42.366380" lon="-4.991090"><ele>824.9</ele></trkpt>
      <trkpt lat="42.366420" lon="-4.991480"><ele>824.1</ele></trkpt>
      <trkpt lat="42.366460" lon="-4.991950"><ele>822.9</ele></trkpt>
      <trkpt lat="42.366510" lon="-4.992260"><ele>821.9</ele></trkpt>
      <trkpt lat="42.366540" lon="-4.992590"><ele>820.6</ele></trkpt>
      <trkpt lat="42.366570" lon="-4.992970"><ele>819.5</ele></trkpt>
      <trkpt lat="42.366610" lon="-4.993290"><ele>818.8</ele></trkpt>
      <trkpt lat="42.366620" lon="-4.993280"><ele>818.8</ele></trkpt>
      <trkpt lat="42.366680" lon="-4.993860"><ele>817.9</ele></trkpt>
      <trkpt lat="42.366730" lon="-4.994380"><ele>817.1</ele></trkpt>
      <trkpt lat="42.366780" lon="-4.994860"><ele>816.0</ele></trkpt>
      <trkpt lat="42.366820" lon="-4.995260"><ele>814.8</ele></trkpt>
      <trkpt lat="42.366860" lon="-4.995780"><ele>813.2</ele></trkpt>
      <trkpt lat="42.366900" lon="-4.996100"><ele>812.2</ele></trkpt>
      <trkpt lat="42.366900" lon="-4.996160"><ele>812.1</ele></trkpt>
      <trkpt lat="42.366900" lon="-4.996220"><ele>811.9</ele></trkpt>
      <trkpt lat="42.366900" lon="-4.996280"><ele>811.8</ele></trkpt>
      <trkpt lat="42.366900" lon="-4.996340"><ele>811.6</ele></trkpt>
      <trkpt lat="42.366890" lon="-4.996390"><ele>811.5</ele></trkpt>
      <trkpt lat="42.366890" lon="-4.996470"><ele>811.3</ele></trkpt>
      <trkpt lat="42.366890" lon="-4.996540"><ele>811.2</ele></trkpt>
      <trkpt lat="42.366890" lon="-4.996600"><ele>811.0</ele></trkpt>
      <trkpt lat="42.366890" lon="-4.996690"><ele>810.8</ele></trkpt>
      <trkpt lat="42.366890" lon="-4.996760"><ele>810.6</ele></trkpt>
      <trkpt lat="42.366900" lon="-4.996850"><ele>810.4</ele></trkpt>
      <trkpt lat="42.366900" lon="-4.996920"><ele>810.2</ele></trkpt>
      <trkpt lat="42.366910" lon="-4.996980"><ele>810.1</ele></trkpt>
      <trkpt lat="42.366930" lon="-4.997040"><ele>810.1</ele></trkpt>
      <trkpt lat="42.366940" lon="-4.997100"><ele>810.1</ele></trkpt>
      <trkpt lat="42.366960" lon="-4.997160"><ele>810.1</ele></trkpt>
      <trkpt lat="42.366960" lon="-4.997230"><ele>810.1</ele></trkpt>
      <trkpt lat="42.366970" lon="-4.997280"><ele>810.1</ele></trkpt>
      <trkpt lat="42.366980" lon="-4.997330"><ele>810.0</ele></trkpt>
      <trkpt lat="42.366980" lon="-4.997410"><ele>810.0</ele></trkpt>
      <trkpt lat="42.366990" lon="-4.997460"><ele>810.0</ele></trkpt>
      <trkpt lat="42.366990" lon="-4.997540"><ele>810.1</ele></trkpt>
      <trkpt lat="42.367000" lon="-4.997610"><ele>810.1</ele></trkpt>
      <trkpt lat="42.367010" lon="-4.997680"><ele>810.1</ele></trkpt>
      <trkpt lat="42.367010" lon="-4.997730"><ele>810.1</ele></trkpt>
      <trkpt lat="42.367010" lon="-4.997800"><ele>810.1</ele></trkpt>
      <trkpt lat="42.367020" lon="-4.997860"><ele>810.1</ele></trkpt>
      <trkpt lat="42.367030" lon="-4.997930"><ele>810.1</ele></trkpt>
      <trkpt lat="42.367040" lon="-4.997980"><ele>810.1</ele></trkpt>
      <trkpt lat="42.367040" lon="-4.998050"><ele>810.1</ele></trkpt>
      <trkpt lat="42.367060" lon="-4.998120"><ele>810.1</ele></trkpt>
      <trkpt lat="42.367070" lon="-4.998190"><ele>810.1</ele></trkpt>
      <trkpt lat="42.367070" lon="-4.998240"><ele>810.1</ele></trkpt>
      <trkpt lat="42.367090" lon="-4.998320"><ele>810.1</ele></trkpt>
      <trkpt lat="42.367100" lon="-4.998380"><ele>810.1</ele></trkpt>
      <trkpt lat="42.367110" lon="-4.998460"><ele>810.2</ele></trkpt>
      <trkpt lat="42.367120" lon="-4.998520"><ele>810.2</ele></trkpt>
      <trkpt lat="42.367150" lon="-4.998690"><ele>810.2</ele></trkpt>
      <trkpt lat="42.367150" lon="-4.998740"><ele>810.2</ele></trkpt>
      <trkpt lat="42.367150" lon="-4.998800"><ele>810.3</ele></trkpt>
      <trkpt lat="42.367150" lon="-4.998850"><ele>810.3</ele></trkpt>
      <trkpt lat="42.367150" lon="-4.998900"><ele>810.3</ele></trkpt>
      <trkpt lat="42.367150" lon="-4.998970"><ele>810.2</ele></trkpt>
      <trkpt lat="42.367160" lon="-4.999050"><ele>810.2</ele></trkpt>
      <trkpt lat="42.367160" lon="-4.999100"><ele>810.2</ele></trkpt>
      <trkpt lat="42.367160" lon="-4.999160"><ele>810.2</ele></trkpt>
      <trkpt lat="42.367160" lon="-4.999220"><ele>810.2</ele></trkpt>
      <trkpt lat="42.367170" lon="-4.999270"><ele>810.2</ele></trkpt>
      <trkpt lat="42.367180" lon="-4.999330"><ele>810.1</ele></trkpt>
      <trkpt lat="42.367180" lon="-4.999380"><ele>810.0</ele></trkpt>
      <trkpt lat="42.367200" lon="-4.999430"><ele>810.0</ele></trkpt>
      <trkpt lat="42.367220" lon="-4.999470"><ele>809.9</ele></trkpt>
      <trkpt lat="42.367240" lon="-4.999500"><ele>809.8</ele></trkpt>
      <trkpt lat="42.367270" lon="-4.999540"><ele>809.8</ele></trkpt>
      <trkpt lat="42.367300" lon="-4.999580"><ele>809.7</ele></trkpt>
      <trkpt lat="42.367320" lon="-4.999590"><ele>809.7</ele></trkpt>
      <trkpt lat="42.367360" lon="-4.999700"><ele>809.6</ele></trkpt>
      <trkpt lat="42.367390" lon="-4.999920"><ele>809.3</ele></trkpt>
      <trkpt lat="42.367410" lon="-4.999980"><ele>809.2</ele></trkpt>
      <trkpt lat="42.367430" lon="-4.999980"><ele>809.2</ele></trkpt>
      <trkpt lat="42.367520" lon="-4.999990"><ele>809.2</ele></trkpt>
      <trkpt lat="42.367730" lon="-4.999920"><ele>809.5</ele></trkpt>
      <trkpt lat="42.367970" lon="-4.999900"><ele>809.9</ele></trkpt>
      <trkpt lat="42.368250" lon="-4.999860"><ele>810.4</ele></trkpt>
      <trkpt lat="42.368290" lon="-4.999830"><ele>810.5</ele></trkpt>
      <trkpt lat="42.368310" lon="-4.999830"><ele>810.5</ele></trkpt>
      <trkpt lat="42.368430" lon="-4.999820"><ele>810.9</ele></trkpt>
      <trkpt lat="42.368460" lon="-4.999810"><ele>811.0</ele></trkpt>
      <trkpt lat="42.368720" lon="-4.999780"><ele>811.8</ele></trkpt>
      <trkpt lat="42.368740" lon="-4.999770"><ele>811.9</ele></trkpt>
      <trkpt lat="42.369020" lon="-4.999720"><ele>813.2</ele></trkpt>
      <trkpt lat="42.369240" lon="-4.999670"><ele>813.5</ele></trkpt>
      <trkpt lat="42.369260" lon="-4.999670"><ele>813.6</ele></trkpt>
      <trkpt lat="42.369490" lon="-4.999640"><ele>813.6</ele></trkpt>
      <trkpt lat="42.369740" lon="-4.999630"><ele>813.6</ele></trkpt>
      <trkpt lat="42.369750" lon="-4.999630"><ele>813.6</ele></trkpt>
      <trkpt lat="42.369980" lon="-4.999630"><ele>813.6</ele></trkpt>
      <trkpt lat="42.370100" lon="-4.999590"><ele>813.7</ele></trkpt>
      <trkpt lat="42.370150" lon="-4.999580"><ele>813.8</ele></trkpt>
      <trkpt lat="42.370180" lon="-4.999580"><ele>813.9</ele></trkpt>
      <trkpt lat="42.370230" lon="-4.999580"><ele>814.0</ele></trkpt>
      <trkpt lat="42.370270" lon="-4.999560"><ele>814.0</ele></trkpt>
      <trkpt lat="42.370310" lon="-4.999540"><ele>814.1</ele></trkpt>
      <trkpt lat="42.370350" lon="-4.999520"><ele>814.1</ele></trkpt>
      <trkpt lat="42.370390" lon="-4.999510"><ele>814.2</ele></trkpt>
      <trkpt lat="42.370420" lon="-4.999500"><ele>814.3</ele></trkpt>
      <trkpt lat="42.370460" lon="-4.999500"><ele>814.4</ele></trkpt>
      <trkpt lat="42.370490" lon="-4.999530"><ele>814.4</ele></trkpt>
      <trkpt lat="42.370510" lon="-4.999560"><ele>814.5</ele></trkpt>
      <trkpt lat="42.370540" lon="-4.999610"><ele>814.6</ele></trkpt>
      <trkpt lat="42.370570" lon="-4.999670"><ele>814.7</ele></trkpt>
      <trkpt lat="42.370590" lon="-4.999710"><ele>814.8</ele></trkpt>
      <trkpt lat="42.370600" lon="-4.999750"><ele>814.7</ele></trkpt>
      <trkpt lat="42.370610" lon="-4.999820"><ele>814.6</ele></trkpt>
      <trkpt lat="42.370620" lon="-4.999870"><ele>814.4</ele></trkpt>
      <trkpt lat="42.370620" lon="-4.999920"><ele>814.3</ele></trkpt>
      <trkpt lat="42.370620" lon="-4.999980"><ele>814.1</ele></trkpt>
      <trkpt lat="42.370600" lon="-5.000040"><ele>813.9</ele></trkpt>
      <trkpt lat="42.370580" lon="-5.000090"><ele>813.8</ele></trkpt>
      <trkpt lat="42.370560" lon="-5.000130"><ele>813.7</ele></trkpt>
      <trkpt lat="42.370540" lon="-5.000180"><ele>813.5</ele></trkpt>
      <trkpt lat="42.370510" lon="-5.000220"><ele>813.5</ele></trkpt>
      <trkpt lat="42.370480" lon="-5.000270"><ele>813.4</ele></trkpt>
      <trkpt lat="42.370450" lon="-5.000310"><ele>813.3</ele></trkpt>
      <trkpt lat="42.370430" lon="-5.000360"><ele>813.3</ele></trkpt>
      <trkpt lat="42.370400" lon="-5.000400"><ele>813.2</ele></trkpt>
      <trkpt lat="42.370360" lon="-5.000430"><ele>813.1</ele></trkpt>
      <trkpt lat="42.370330" lon="-5.000480"><ele>813.1</ele></trkpt>
      <trkpt lat="42.370300" lon="-5.000510"><ele>813.0</ele></trkpt>
      <trkpt lat="42.370270" lon="-5.000560"><ele>813.0</ele></trkpt>
      <trkpt lat="42.370240" lon="-5.000590"><ele>812.9</ele></trkpt>
      <trkpt lat="42.370220" lon="-5.000620"><ele>812.9</ele></trkpt>
      <trkpt lat="42.370190" lon="-5.000670"><ele>812.9</ele></trkpt>
      <trkpt lat="42.370160" lon="-5.000710"><ele>812.9</ele></trkpt>
      <trkpt lat="42.370130" lon="-5.000760"><ele>812.9</ele></trkpt>
      <trkpt lat="42.370090" lon="-5.000800"><ele>812.9</ele></trkpt>
      <trkpt lat="42.370060" lon="-5.000840"><ele>812.9</ele></trkpt>
      <trkpt lat="42.370040" lon="-5.000880"><ele>812.9</ele></trkpt>
      <trkpt lat="42.369990" lon="-5.000930"><ele>812.9</ele></trkpt>
      <trkpt lat="42.369960" lon="-5.000970"><ele>812.9</ele></trkpt>
      <trkpt lat="42.369920" lon="-5.001020"><ele>812.9</ele></trkpt>
      <trkpt lat="42.369890" lon="-5.001060"><ele>812.9</ele></trkpt>
      <trkpt lat="42.369860" lon="-5.001100"><ele>812.9</ele></trkpt>
      <trkpt lat="42.369840" lon="-5.001150"><ele>812.9</ele></trkpt>
      <trkpt lat="42.369810" lon="-5.001190"><ele>812.8</ele></trkpt>
      <trkpt lat="42.369790" lon="-5.001240"><ele>812.8</ele></trkpt>
      <trkpt lat="42.369770" lon="-5.001300"><ele>812.7</ele></trkpt>
      <trkpt lat="42.369750" lon="-5.001340"><ele>812.7</ele></trkpt>
      <trkpt lat="42.369730" lon="-5.001390"><ele>812.6</ele></trkpt>
      <trkpt lat="42.369710" lon="-5.001440"><ele>812.5</ele></trkpt>
      <trkpt lat="42.369690" lon="-5.001500"><ele>812.5</ele></trkpt>
      <trkpt lat="42.369690" lon="-5.001550"><ele>812.4</ele></trkpt>
      <trkpt lat="42.369680" lon="-5.001600"><ele>812.3</ele></trkpt>
      <trkpt lat="42.369660" lon="-5.001650"><ele>812.3</ele></trkpt>
      <trkpt lat="42.369650" lon="-5.001700"><ele>812.2</ele></trkpt>
      <trkpt lat="42.369640" lon="-5.001750"><ele>812.1</ele></trkpt>
      <trkpt lat="42.369630" lon="-5.001820"><ele>812.0</ele></trkpt>
      <trkpt lat="42.369620" lon="-5.001880"><ele>811.9</ele></trkpt>
      <trkpt lat="42.369610" lon="-5.001920"><ele>811.9</ele></trkpt>
      <trkpt lat="42.369610" lon="-5.001980"><ele>811.8</ele></trkpt>
      <trkpt lat="42.369600" lon="-5.002020"><ele>811.7</ele></trkpt>
      <trkpt lat="42.369550" lon="-5.002260"><ele>811.2</ele></trkpt>
      <trkpt lat="42.369530" lon="-5.002490"><ele>810.7</ele></trkpt>
      <trkpt lat="42.369490" lon="-5.002690"><ele>810.3</ele></trkpt>
      <trkpt lat="42.369480" lon="-5.002970"><ele>809.7</ele></trkpt>
      <trkpt lat="42.369470" lon="-5.003350"><ele>809.2</ele></trkpt>
      <trkpt lat="42.369470" lon="-5.003770"><ele>809.1</ele></trkpt>
      <trkpt lat="42.369490" lon="-5.004030"><ele>809.2</ele></trkpt>
      <trkpt lat="42.369480" lon="-5.004340"><ele>809.4</ele></trkpt>
      <trkpt lat="42.369480" lon="-5.004350"><ele>809.4</ele></trkpt>
      <trkpt lat="42.369480" lon="-5.004810"><ele>810.0</ele></trkpt>
      <trkpt lat="42.369480" lon="-5.004970"><ele>810.2</ele></trkpt>
      <trkpt lat="42.369490" lon="-5.004970"><ele>810.2</ele></trkpt>
      <trkpt lat="42.369470" lon="-5.005270"><ele>810.6</ele></trkpt>
      <trkpt lat="42.369460" lon="-5.005700"><ele>810.9</ele></trkpt>
      <trkpt lat="42.369460" lon="-5.006010"><ele>810.9</ele></trkpt>
      <trkpt lat="42.369460" lon="-5.006080"><ele>810.9</ele></trkpt>
      <trkpt lat="42.369460" lon="-5.006160"><ele>810.9</ele></trkpt>
      <trkpt lat="42.369470" lon="-5.006230"><ele>810.9</ele></trkpt>
      <trkpt lat="42.369470" lon="-5.006280"><ele>810.9</ele></trkpt>
      <trkpt lat="42.369480" lon="-5.006340"><ele>811.0</ele></trkpt>
      <trkpt lat="42.369480" lon="-5.006390"><ele>811.0</ele></trkpt>
      <trkpt lat="42.369490" lon="-5.006450"><ele>811.1</ele></trkpt>
      <trkpt lat="42.369490" lon="-5.006520"><ele>811.1</ele></trkpt>
      <trkpt lat="42.369500" lon="-5.006570"><ele>811.2</ele></trkpt>
      <trkpt lat="42.369510" lon="-5.006640"><ele>811.2</ele></trkpt>
      <trkpt lat="42.369520" lon="-5.006710"><ele>811.3</ele></trkpt>
      <trkpt lat="42.369530" lon="-5.006790"><ele>811.5</ele></trkpt>
      <trkpt lat="42.369550" lon="-5.006850"><ele>811.6</ele></trkpt>
      <trkpt lat="42.369550" lon="-5.006910"><ele>811.7</ele></trkpt>
      <trkpt lat="42.369560" lon="-5.006970"><ele>811.8</ele></trkpt>
      <trkpt lat="42.369560" lon="-5.007030"><ele>811.8</ele></trkpt>
      <trkpt lat="42.369570" lon="-5.007080"><ele>811.9</ele></trkpt>
      <trkpt lat="42.369570" lon="-5.007150"><ele>812.0</ele></trkpt>
      <trkpt lat="42.369580" lon="-5.007200"><ele>812.0</ele></trkpt>
      <trkpt lat="42.369590" lon="-5.007270"><ele>812.0</ele></trkpt>
      <trkpt lat="42.369590" lon="-5.007320"><ele>812.1</ele></trkpt>
      <trkpt lat="42.369610" lon="-5.007410"><ele>812.1</ele></trkpt>
      <trkpt lat="42.369630" lon="-5.007490"><ele>812.2</ele></trkpt>
      <trkpt lat="42.369650" lon="-5.007580"><ele>812.2</ele></trkpt>
      <trkpt lat="42.369660" lon="-5.007640"><ele>812.3</ele></trkpt>
      <trkpt lat="42.369670" lon="-5.007730"><ele>812.4</ele></trkpt>
      <trkpt lat="42.369690" lon="-5.007810"><ele>812.5</ele></trkpt>
      <trkpt lat="42.369710" lon="-5.007870"><ele>812.6</ele></trkpt>
      <trkpt lat="42.369710" lon="-5.007910"><ele>812.6</ele></trkpt>
      <trkpt lat="42.369760" lon="-5.008160"><ele>813.0</ele></trkpt>
      <trkpt lat="42.369800" lon="-5.008400"><ele>813.7</ele></trkpt>
      <trkpt lat="42.369800" lon="-5.008410"><ele>813.7</ele></trkpt>
      <trkpt lat="42.369820" lon="-5.008740"><ele>814.5</ele></trkpt>
      <trkpt lat="42.369820" lon="-5.008750"><ele>814.5</ele></trkpt>
      <trkpt lat="42.369830" lon="-5.009220"><ele>815.3</ele></trkpt>
      <trkpt lat="42.369890" lon="-5.009800"><ele>816.1</ele></trkpt>
      <trkpt lat="42.369930" lon="-5.010360"><ele>816.8</ele></trkpt>
      <trkpt lat="42.369960" lon="-5.010740"><ele>817.7</ele></trkpt>
      <trkpt lat="42.369960" lon="-5.010910"><ele>818.1</ele></trkpt>
      <trkpt lat="42.369970" lon="-5.011000"><ele>818.3</ele></trkpt>
      <trkpt lat="42.369980" lon="-5.011080"><ele>818.5</ele></trkpt>
      <trkpt lat="42.369990" lon="-5.011160"><ele>818.7</ele></trkpt>
      <trkpt lat="42.370000" lon="-5.011230"><ele>818.8</ele></trkpt>
      <trkpt lat="42.370020" lon="-5.011290"><ele>819.0</ele></trkpt>
      <trkpt lat="42.370030" lon="-5.011350"><ele>819.1</ele></trkpt>
      <trkpt lat="42.370030" lon="-5.011410"><ele>819.3</ele></trkpt>
      <trkpt lat="42.370030" lon="-5.011460"><ele>819.4</ele></trkpt>
      <trkpt lat="42.370020" lon="-5.011600"><ele>819.8</ele></trkpt>
      <trkpt lat="42.370020" lon="-5.011670"><ele>820.0</ele></trkpt>
      <trkpt lat="42.370010" lon="-5.011740"><ele>820.1</ele></trkpt>
      <trkpt lat="42.370010" lon="-5.011790"><ele>820.2</ele></trkpt>
      <trkpt lat="42.370010" lon="-5.011860"><ele>820.4</ele></trkpt>
      <trkpt lat="42.370010" lon="-5.011920"><ele>820.5</ele></trkpt>
      <trkpt lat="42.370010" lon="-5.011980"><ele>820.6</ele></trkpt>
      <trkpt lat="42.370010" lon="-5.012040"><ele>820.7</ele></trkpt>
      <trkpt lat="42.370010" lon="-5.012100"><ele>820.9</ele></trkpt>
      <trkpt lat="42.370040" lon="-5.012130"><ele>820.9</ele></trkpt>
      <trkpt lat="42.370060" lon="-5.012170"><ele>821.0</ele></trkpt>
      <trkpt lat="42.370070" lon="-5.012210"><ele>821.0</ele></trkpt>
      <trkpt lat="42.370090" lon="-5.012240"><ele>821.0</ele></trkpt>
      <trkpt lat="42.370120" lon="-5.012280"><ele>821.0</ele></trkpt>
      <trkpt lat="42.370150" lon="-5.012310"><ele>821.0</ele></trkpt>
      <trkpt lat="42.370180" lon="-5.012340"><ele>821.0</ele></trkpt>
      <trkpt lat="42.370210" lon="-5.012380"><ele>821.0</ele></trkpt>
      <trkpt lat="42.370230" lon="-5.012430"><ele>821.1</ele></trkpt>
      <trkpt lat="42.370240" lon="-5.012480"><ele>821.1</ele></trkpt>
      <trkpt lat="42.370250" lon="-5.012530"><ele>821.1</ele></trkpt>
      <trkpt lat="42.370260" lon="-5.012590"><ele>821.1</ele></trkpt>
      <trkpt lat="42.370280" lon="-5.012640"><ele>821.2</ele></trkpt>
      <trkpt lat="42.370270" lon="-5.012700"><ele>821.2</ele></trkpt>
      <trkpt lat="42.370270" lon="-5.012750"><ele>821.2</ele></trkpt>
      <trkpt lat="42.370260" lon="-5.012800"><ele>821.2</ele></trkpt>
      <trkpt lat="42.370250" lon="-5.012850"><ele>821.2</ele></trkpt>
      <trkpt lat="42.370220" lon="-5.012890"><ele>821.3</ele></trkpt>
      <trkpt lat="42.370190" lon="-5.012920"><ele>821.3</ele></trkpt>
      <trkpt lat="42.370160" lon="-5.012950"><ele>821.4</ele></trkpt>
      <trkpt lat="42.370140" lon="-5.013000"><ele>821.4</ele></trkpt>
      <trkpt lat="42.370120" lon="-5.013050"><ele>821.5</ele></trkpt>
      <trkpt lat="42.370100" lon="-5.013100"><ele>821.5</ele></trkpt>
      <trkpt lat="42.370100" lon="-5.013150"><ele>821.5</ele></trkpt>
      <trkpt lat="42.370100" lon="-5.013200"><ele>821.4</ele></trkpt>
      <trkpt lat="42.370090" lon="-5.013260"><ele>821.4</ele></trkpt>
      <trkpt lat="42.370090" lon="-5.013320"><ele>821.3</ele></trkpt>
      <trkpt lat="42.370090" lon="-5.013370"><ele>821.2</ele></trkpt>
      <trkpt lat="42.370090" lon="-5.013420"><ele>821.2</ele></trkpt>
      <trkpt lat="42.370090" lon="-5.013470"><ele>821.1</ele></trkpt>
      <trkpt lat="42.370090" lon="-5.013520"><ele>821.0</ele></trkpt>
      <trkpt lat="42.370090" lon="-5.013590"><ele>820.9</ele></trkpt>
      <trkpt lat="42.370090" lon="-5.013650"><ele>820.9</ele></trkpt>
      <trkpt lat="42.370100" lon="-5.013720"><ele>820.8</ele></trkpt>
      <trkpt lat="42.370110" lon="-5.013790"><ele>820.7</ele></trkpt>
      <trkpt lat="42.370110" lon="-5.013860"><ele>820.6</ele></trkpt>
      <trkpt lat="42.370110" lon="-5.013910"><ele>820.6</ele></trkpt>
      <trkpt lat="42.370120" lon="-5.013960"><ele>820.5</ele></trkpt>
      <trkpt lat="42.370120" lon="-5.014030"><ele>820.5</ele></trkpt>
      <trkpt lat="42.370130" lon="-5.014080"><ele>820.4</ele></trkpt>
      <trkpt lat="42.370130" lon="-5.014140"><ele>820.4</ele></trkpt>
      <trkpt lat="42.370130" lon="-5.014210"><ele>820.4</ele></trkpt>
      <trkpt lat="42.370130" lon="-5.014260"><ele>820.4</ele></trkpt>
      <trkpt lat="42.370130" lon="-5.014310"><ele>820.4</ele></trkpt>
      <trkpt lat="42.370140" lon="-5.014380"><ele>820.3</ele></trkpt>
      <trkpt lat="42.370140" lon="-5.014440"><ele>820.3</ele></trkpt>
      <trkpt lat="42.370140" lon="-5.014510"><ele>820.3</ele></trkpt>
      <trkpt lat="42.370150" lon="-5.014570"><ele>820.3</ele></trkpt>
      <trkpt lat="42.370150" lon="-5.014630"><ele>820.4</ele></trkpt>
      <trkpt lat="42.370150" lon="-5.014680"><ele>820.4</ele></trkpt>
      <trkpt lat="42.370150" lon="-5.014730"><ele>820.5</ele></trkpt>
      <trkpt lat="42.370150" lon="-5.014800"><ele>820.5</ele></trkpt>
      <trkpt lat="42.370150" lon="-5.014850"><ele>820.6</ele></trkpt>
      <trkpt lat="42.370140" lon="-5.014890"><ele>820.6</ele></trkpt>
      <trkpt lat="42.370130" lon="-5.014940"><ele>820.6</ele></trkpt>
      <trkpt lat="42.370120" lon="-5.015000"><ele>820.6</ele></trkpt>
      <trkpt lat="42.370110" lon="-5.015070"><ele>820.7</ele></trkpt>
      <trkpt lat="42.370090" lon="-5.015120"><ele>820.8</ele></trkpt>
      <trkpt lat="42.370090" lon="-5.015180"><ele>820.8</ele></trkpt>
      <trkpt lat="42.370080" lon="-5.015240"><ele>820.9</ele></trkpt>
      <trkpt lat="42.370070" lon="-5.015290"><ele>821.0</ele></trkpt>
      <trkpt lat="42.370060" lon="-5.015340"><ele>821.0</ele></trkpt>
      <trkpt lat="42.370060" lon="-5.015410"><ele>821.1</ele></trkpt>
      <trkpt lat="42.370050" lon="-5.015480"><ele>821.2</ele></trkpt>
      <trkpt lat="42.370040" lon="-5.015530"><ele>821.2</ele></trkpt>
      <trkpt lat="42.370040" lon="-5.015580"><ele>821.3</ele></trkpt>
      <trkpt lat="42.370040" lon="-5.015640"><ele>821.4</ele></trkpt>
      <trkpt lat="42.370030" lon="-5.015700"><ele>821.4</ele></trkpt>
      <trkpt lat="42.370030" lon="-5.015760"><ele>821.5</ele></trkpt>
      <trkpt lat="42.370030" lon="-5.015830"><ele>821.6</ele></trkpt>
      <trkpt lat="42.370030" lon="-5.015880"><ele>821.7</ele></trkpt>
      <trkpt lat="42.370030" lon="-5.015940"><ele>821.7</ele></trkpt>
      <trkpt lat="42.370030" lon="-5.015990"><ele>821.8</ele></trkpt>
      <trkpt lat="42.370030" lon="-5.016060"><ele>821.8</ele></trkpt>
      <trkpt lat="42.370030" lon="-5.016120"><ele>821.9</ele></trkpt>
      <trkpt lat="42.370030" lon="-5.016180"><ele>821.9</ele></trkpt>
      <trkpt lat="42.370030" lon="-5.016250"><ele>821.9</ele></trkpt>
      <trkpt lat="42.370030" lon="-5.016320"><ele>822.0</ele></trkpt>
      <trkpt lat="42.370030" lon="-5.016380"><ele>822.0</ele></trkpt>
      <trkpt lat="42.370030" lon="-5.016440"><ele>822.0</ele></trkpt>
      <trkpt lat="42.370040" lon="-5.016520"><ele>822.0</ele></trkpt>
      <trkpt lat="42.370040" lon="-5.016570"><ele>822.0</ele></trkpt>
      <trkpt lat="42.370040" lon="-5.016640"><ele>822.0</ele></trkpt>
      <trkpt lat="42.370040" lon="-5.016690"><ele>822.0</ele></trkpt>
      <trkpt lat="42.370040" lon="-5.016750"><ele>822.0</ele></trkpt>
      <trkpt lat="42.370040" lon="-5.016820"><ele>822.0</ele></trkpt>
      <trkpt lat="42.370040" lon="-5.016880"><ele>822.1</ele></trkpt>
      <trkpt lat="42.370040" lon="-5.016880"><ele>822.1</ele></trkpt>
      <trkpt lat="42.370050" lon="-5.017170"><ele>822.2</ele></trkpt>
      <trkpt lat="42.370050" lon="-5.017460"><ele>822.5</ele></trkpt>
      <trkpt lat="42.370040" lon="-5.017800"><ele>823.0</ele></trkpt>
      <trkpt lat="42.370060" lon="-5.018140"><ele>823.2</ele></trkpt>
      <trkpt lat="42.370060" lon="-5.018200"><ele>823.3</ele></trkpt>
      <trkpt lat="42.370070" lon="-5.018290"><ele>823.4</ele></trkpt>
      <trkpt lat="42.370070" lon="-5.018340"><ele>823.5</ele></trkpt>
      <trkpt lat="42.370070" lon="-5.018390"><ele>823.5</ele></trkpt>
      <trkpt lat="42.370070" lon="-5.018450"><ele>823.6</ele></trkpt>
      <trkpt lat="42.370080" lon="-5.018520"><ele>823.7</ele></trkpt>
      <trkpt lat="42.370080" lon="-5.018590"><ele>823.8</ele></trkpt>
      <trkpt lat="42.370090" lon="-5.018650"><ele>823.9</ele></trkpt>
      <trkpt lat="42.370090" lon="-5.018720"><ele>824.0</ele></trkpt>
      <trkpt lat="42.370090" lon="-5.018780"><ele>824.2</ele></trkpt>
      <trkpt lat="42.370090" lon="-5.018830"><ele>824.3</ele></trkpt>
      <trkpt lat="42.370100" lon="-5.019090"><ele>825.0</ele></trkpt>
      <trkpt lat="42.370100" lon="-5.019380"><ele>825.6</ele></trkpt>
      <trkpt lat="42.370100" lon="-5.019600"><ele>826.1</ele></trkpt>
      <trkpt lat="42.370110" lon="-5.019990"><ele>827.0</ele></trkpt>
      <trkpt lat="42.370110" lon="-5.020000"><ele>827.1</ele></trkpt>
      <trkpt lat="42.370170" lon="-5.020360"><ele>827.7</ele></trkpt>
      <trkpt lat="42.370200" lon="-5.020820"><ele>828.2</ele></trkpt>
      <trkpt lat="42.370200" lon="-5.021140"><ele>828.5</ele></trkpt>
      <trkpt lat="42.370210" lon="-5.021520"><ele>829.0</ele></trkpt>
      <trkpt lat="42.370220" lon="-5.021600"><ele>829.2</ele></trkpt>
      <trkpt lat="42.370180" lon="-5.021700"><ele>829.4</ele></trkpt>
      <trkpt lat="42.370180" lon="-5.022060"><ele>830.0</ele></trkpt>
      <trkpt lat="42.370180" lon="-5.022070"><ele>830.0</ele></trkpt>
      <trkpt lat="42.370170" lon="-5.022330"><ele>830.4</ele></trkpt>
      <trkpt lat="42.370160" lon="-5.022540"><ele>830.7</ele></trkpt>
      <trkpt lat="42.370160" lon="-5.022640"><ele>830.8</ele></trkpt>
      <trkpt lat="42.370160" lon="-5.022690"><ele>830.9</ele></trkpt>
      <trkpt lat="42.370170" lon="-5.022750"><ele>831.1</ele></trkpt>
      <trkpt lat="42.370190" lon="-5.022790"><ele>831.2</ele></trkpt>
      <trkpt lat="42.370210" lon="-5.022830"><ele>831.3</ele></trkpt>
      <trkpt lat="42.370220" lon="-5.022880"><ele>831.4</ele></trkpt>
      <trkpt lat="42.370240" lon="-5.022940"><ele>831.5</ele></trkpt>
      <trkpt lat="42.370250" lon="-5.023000"><ele>831.6</ele></trkpt>
      <trkpt lat="42.370270" lon="-5.023050"><ele>831.6</ele></trkpt>
      <trkpt lat="42.370290" lon="-5.023090"><ele>831.7</ele></trkpt>
      <trkpt lat="42.370330" lon="-5.023140"><ele>831.9</ele></trkpt>
      <trkpt lat="42.370360" lon="-5.023190"><ele>832.0</ele></trkpt>
      <trkpt lat="42.370380" lon="-5.023240"><ele>832.1</ele></trkpt>
      <trkpt lat="42.370400" lon="-5.023280"><ele>832.2</ele></trkpt>
      <trkpt lat="42.370430" lon="-5.023320"><ele>832.3</ele></trkpt>
      <trkpt lat="42.370460" lon="-5.023370"><ele>832.4</ele></trkpt>
      <trkpt lat="42.370480" lon="-5.023430"><ele>832.4</ele></trkpt>
      <trkpt lat="42.370510" lon="-5.023470"><ele>832.6</ele></trkpt>
      <trkpt lat="42.370570" lon="-5.023560"><ele>832.8</ele></trkpt>
      <trkpt lat="42.370600" lon="-5.023580"><ele>832.9</ele></trkpt>
      <trkpt lat="42.370640" lon="-5.023590"><ele>833.0</ele></trkpt>
      <trkpt lat="42.370680" lon="-5.023600"><ele>833.2</ele></trkpt>
      <trkpt lat="42.370720" lon="-5.023610"><ele>833.3</ele></trkpt>
      <trkpt lat="42.370760" lon="-5.023630"><ele>833.4</ele></trkpt>
      <trkpt lat="42.370800" lon="-5.023670"><ele>833.6</ele></trkpt>
      <trkpt lat="42.370830" lon="-5.023700"><ele>833.7</ele></trkpt>
      <trkpt lat="42.370850" lon="-5.023730"><ele>833.8</ele></trkpt>
      <trkpt lat="42.370880" lon="-5.023780"><ele>834.0</ele></trkpt>
      <trkpt lat="42.370890" lon="-5.023820"><ele>834.1</ele></trkpt>
      <trkpt lat="42.370930" lon="-5.023850"><ele>834.2</ele></trkpt>
      <trkpt lat="42.370950" lon="-5.023900"><ele>834.3</ele></trkpt>
      <trkpt lat="42.370970" lon="-5.023950"><ele>834.4</ele></trkpt>
      <trkpt lat="42.370980" lon="-5.024020"><ele>834.5</ele></trkpt>
      <trkpt lat="42.371000" lon="-5.024070"><ele>834.6</ele></trkpt>
      <trkpt lat="42.371010" lon="-5.024120"><ele>834.7</ele></trkpt>
      <trkpt lat="42.371010" lon="-5.024180"><ele>834.7</ele></trkpt>
      <trkpt lat="42.371020" lon="-5.024230"><ele>834.8</ele></trkpt>
      <trkpt lat="42.371030" lon="-5.024290"><ele>834.9</ele></trkpt>
      <trkpt lat="42.371030" lon="-5.024340"><ele>834.9</ele></trkpt>
      <trkpt lat="42.371040" lon="-5.024400"><ele>834.9</ele></trkpt>
      <trkpt lat="42.371040" lon="-5.024460"><ele>835.0</ele></trkpt>
      <trkpt lat="42.371050" lon="-5.024500"><ele>835.0</ele></trkpt>
      <trkpt lat="42.371050" lon="-5.024560"><ele>835.0</ele></trkpt>
      <trkpt lat="42.371050" lon="-5.024630"><ele>835.1</ele></trkpt>
      <trkpt lat="42.371060" lon="-5.024690"><ele>835.1</ele></trkpt>
      <trkpt lat="42.371060" lon="-5.024740"><ele>835.1</ele></trkpt>
      <trkpt lat="42.371070" lon="-5.024920"><ele>835.2</ele></trkpt>
      <trkpt lat="42.371080" lon="-5.024970"><ele>835.3</ele></trkpt>
      <trkpt lat="42.371100" lon="-5.025040"><ele>835.4</ele></trkpt>
      <trkpt lat="42.371110" lon="-5.025090"><ele>835.5</ele></trkpt>
      <trkpt lat="42.371130" lon="-5.025150"><ele>835.6</ele></trkpt>
      <trkpt lat="42.371150" lon="-5.025210"><ele>835.8</ele></trkpt>
      <trkpt lat="42.371170" lon="-5.025260"><ele>835.9</ele></trkpt>
      <trkpt lat="42.371200" lon="-5.025300"><ele>836.1</ele></trkpt>
      <trkpt lat="42.371220" lon="-5.025350"><ele>836.2</ele></trkpt>
      <trkpt lat="42.371240" lon="-5.025400"><ele>836.3</ele></trkpt>
      <trkpt lat="42.371260" lon="-5.025440"><ele>836.5</ele></trkpt>
      <trkpt lat="42.371280" lon="-5.025500"><ele>836.6</ele></trkpt>
      <trkpt lat="42.371310" lon="-5.025550"><ele>836.8</ele></trkpt>
      <trkpt lat="42.371330" lon="-5.025590"><ele>836.9</ele></trkpt>
      <trkpt lat="42.371360" lon="-5.025620"><ele>837.0</ele></trkpt>
      <trkpt lat="42.371370" lon="-5.025670"><ele>837.1</ele></trkpt>
      <trkpt lat="42.371400" lon="-5.025700"><ele>837.2</ele></trkpt>
      <trkpt lat="42.371420" lon="-5.025750"><ele>837.2</ele></trkpt>
      <trkpt lat="42.371420" lon="-5.025810"><ele>837.2</ele></trkpt>
      <trkpt lat="42.371410" lon="-5.025850"><ele>837.1</ele></trkpt>
      <trkpt lat="42.371390" lon="-5.025900"><ele>837.0</ele></trkpt>
      <trkpt lat="42.371350" lon="-5.025940"><ele>836.8</ele></trkpt>
      <trkpt lat="42.371320" lon="-5.025970"><ele>836.7</ele></trkpt>
      <trkpt lat="42.371300" lon="-5.025990"><ele>836.6</ele></trkpt>
      <trkpt lat="42.371260" lon="-5.026020"><ele>836.4</ele></trkpt>
      <trkpt lat="42.371230" lon="-5.026060"><ele>836.3</ele></trkpt>
      <trkpt lat="42.371190" lon="-5.026100"><ele>836.1</ele></trkpt>
      <trkpt lat="42.371170" lon="-5.026140"><ele>836.0</ele></trkpt>
      <trkpt lat="42.371140" lon="-5.026160"><ele>835.9</ele></trkpt>
      <trkpt lat="42.371100" lon="-5.026180"><ele>835.8</ele></trkpt>
      <trkpt lat="42.371070" lon="-5.026210"><ele>835.7</ele></trkpt>
      <trkpt lat="42.371040" lon="-5.026230"><ele>835.6</ele></trkpt>
      <trkpt lat="42.371010" lon="-5.026260"><ele>835.5</ele></trkpt>
      <trkpt lat="42.370980" lon="-5.026290"><ele>835.4</ele></trkpt>
      <trkpt lat="42.370950" lon="-5.026310"><ele>835.3</ele></trkpt>
      <trkpt lat="42.370920" lon="-5.026330"><ele>835.2</ele></trkpt>
      <trkpt lat="42.370900" lon="-5.026370"><ele>835.2</ele></trkpt>
      <trkpt lat="42.370880" lon="-5.026400"><ele>835.2</ele></trkpt>
      <trkpt lat="42.370860" lon="-5.026450"><ele>835.2</ele></trkpt>
      <trkpt lat="42.370860" lon="-5.026500"><ele>835.2</ele></trkpt>
      <trkpt lat="42.370870" lon="-5.026560"><ele>835.2</ele></trkpt>
      <trkpt lat="42.370880" lon="-5.026610"><ele>835.2</ele></trkpt>
      <trkpt lat="42.370890" lon="-5.026680"><ele>835.2</ele></trkpt>
      <trkpt lat="42.370910" lon="-5.026730"><ele>835.2</ele></trkpt>
      <trkpt lat="42.370920" lon="-5.026790"><ele>835.2</ele></trkpt>
      <trkpt lat="42.370930" lon="-5.026840"><ele>835.2</ele></trkpt>
      <trkpt lat="42.370950" lon="-5.026910"><ele>835.2</ele></trkpt>
      <trkpt lat="42.370960" lon="-5.026980"><ele>835.2</ele></trkpt>
      <trkpt lat="42.370960" lon="-5.027030"><ele>835.2</ele></trkpt>
      <trkpt lat="42.370970" lon="-5.027080"><ele>835.1</ele></trkpt>
      <trkpt lat="42.370980" lon="-5.027140"><ele>835.1</ele></trkpt>
      <trkpt lat="42.370960" lon="-5.027200"><ele>835.0</ele></trkpt>
      <trkpt lat="42.370920" lon="-5.027210"><ele>834.9</ele></trkpt>
      <trkpt lat="42.370890" lon="-5.027240"><ele>834.7</ele></trkpt>
      <trkpt lat="42.370860" lon="-5.027280"><ele>834.6</ele></trkpt>
      <trkpt lat="42.370830" lon="-5.027310"><ele>834.5</ele></trkpt>
      <trkpt lat="42.370790" lon="-5.027350"><ele>834.4</ele></trkpt>
      <trkpt lat="42.370750" lon="-5.027380"><ele>834.3</ele></trkpt>
      <trkpt lat="42.370710" lon="-5.027410"><ele>834.2</ele></trkpt>
      <trkpt lat="42.370680" lon="-5.027430"><ele>834.1</ele></trkpt>
      <trkpt lat="42.370650" lon="-5.027450"><ele>834.0</ele></trkpt>
      <trkpt lat="42.370640" lon="-5.027510"><ele>833.9</ele></trkpt>
      <trkpt lat="42.370640" lon="-5.027580"><ele>833.8</ele></trkpt>
      <trkpt lat="42.370640" lon="-5.027640"><ele>833.7</ele></trkpt>
      <trkpt lat="42.370640" lon="-5.027710"><ele>833.6</ele></trkpt>
      <trkpt lat="42.370650" lon="-5.027760"><ele>833.5</ele></trkpt>
      <trkpt lat="42.370660" lon="-5.027840"><ele>833.4</ele></trkpt>
      <trkpt lat="42.370670" lon="-5.027910"><ele>833.3</ele></trkpt>
      <trkpt lat="42.370670" lon="-5.027960"><ele>833.2</ele></trkpt>
      <trkpt lat="42.370670" lon="-5.028030"><ele>833.0</ele></trkpt>
      <trkpt lat="42.370670" lon="-5.028090"><ele>832.7</ele></trkpt>
      <trkpt lat="42.370670" lon="-5.028150"><ele>832.5</ele></trkpt>
      <trkpt lat="42.370670" lon="-5.028210"><ele>832.2</ele></trkpt>
      <trkpt lat="42.370670" lon="-5.028270"><ele>832.0</ele></trkpt>
      <trkpt lat="42.370670" lon="-5.028320"><ele>831.8</ele></trkpt>
      <trkpt lat="42.370680" lon="-5.028400"><ele>831.5</ele></trkpt>
      <trkpt lat="42.370680" lon="-5.028460"><ele>831.3</ele></trkpt>
      <trkpt lat="42.370690" lon="-5.028530"><ele>831.0</ele></trkpt>
      <trkpt lat="42.370690" lon="-5.028590"><ele>830.8</ele></trkpt>
      <trkpt lat="42.370690" lon="-5.028650"><ele>830.6</ele></trkpt>
      <trkpt lat="42.370700" lon="-5.028700"><ele>830.3</ele></trkpt>
      <trkpt lat="42.370700" lon="-5.028760"><ele>830.1</ele></trkpt>
      <trkpt lat="42.370710" lon="-5.028810"><ele>829.9</ele></trkpt>
      <trkpt lat="42.370710" lon="-5.028840"><ele>829.8</ele></trkpt>
      <trkpt lat="42.370710" lon="-5.028920"><ele>829.4</ele></trkpt>
      <trkpt lat="42.370710" lon="-5.029050"><ele>828.7</ele></trkpt>
      <trkpt lat="42.370720" lon="-5.029100"><ele>828.4</ele></trkpt>
      <trkpt lat="42.370720" lon="-5.029160"><ele>828.1</ele></trkpt>
      <trkpt lat="42.370720" lon="-5.029210"><ele>827.8</ele></trkpt>
      <trkpt lat="42.370720" lon="-5.029270"><ele>827.5</ele></trkpt>
      <trkpt lat="42.370730" lon="-5.029320"><ele>827.2</ele></trkpt>
    </trkseg></trk>
</gpx>
