<?xml version="1.0" encoding="UTF-8"?>
<gpx version="1.1" creator="camino-2027 split of compostelle.fr CAMINO_FRANCES.gpx" xmlns="http://www.topografix.com/GPX/1/1">
  <metadata><name>도보 v2 DAY 3 에스테야 → 나바레테</name><desc>compostelle.fr (VisuGPX) 도보 노선을 자전거 일정 경계로 잘라 낸 것 · 2026-09-12</desc></metadata>
  <trk><name>도보 v2 DAY 3 · 에스테야 → 나바레테</name><trkseg>
      <trkpt lat="42.669890" lon="-2.027340"><ele>424.1</ele></trkpt>
      <trkpt lat="42.669550" lon="-2.029100"><ele>429.1</ele></trkpt>
      <trkpt lat="42.668200" lon="-2.030720"><ele>427.6</ele></trkpt>
      <trkpt lat="42.667050" lon="-2.031590"><ele>432.4</ele></trkpt>
      <trkpt lat="42.666340" lon="-2.031910"><ele>435.7</ele></trkpt>
      <trkpt lat="42.664320" lon="-2.032410"><ele>439.9</ele></trkpt>
      <trkpt lat="42.664190" lon="-2.032900"><ele>441.9</ele></trkpt>
      <trkpt lat="42.663630" lon="-2.033140"><ele>443.3</ele></trkpt>
      <trkpt lat="42.662590" lon="-2.034610"><ele>453.6</ele></trkpt>
      <trkpt lat="42.661980" lon="-2.035150"><ele>460.1</ele></trkpt>
      <trkpt lat="42.661170" lon="-2.035410"><ele>462.9</ele></trkpt>
      <trkpt lat="42.660490" lon="-2.036620"><ele>473.5</ele></trkpt>
      <trkpt lat="42.660100" lon="-2.036730"><ele>474.2</ele></trkpt>
      <trkpt lat="42.659490" lon="-2.037380"><ele>482.1</ele></trkpt>
      <trkpt lat="42.658340" lon="-2.038050"><ele>489.1</ele></trkpt>
      <trkpt lat="42.657110" lon="-2.039850"><ele>502.0</ele></trkpt>
      <trkpt lat="42.656470" lon="-2.040450"><ele>508.5</ele></trkpt>
      <trkpt lat="42.655610" lon="-2.041040"><ele>508.6</ele></trkpt>
      <trkpt lat="42.655540" lon="-2.041090"><ele>507.4</ele></trkpt>
      <trkpt lat="42.655470" lon="-2.041160"><ele>506.8</ele></trkpt>
      <trkpt lat="42.655370" lon="-2.041250"><ele>506.1</ele></trkpt>
      <trkpt lat="42.655360" lon="-2.041400"><ele>506.1</ele></trkpt>
      <trkpt lat="42.655240" lon="-2.041930"><ele>503.5</ele></trkpt>
      <trkpt lat="42.655190" lon="-2.042140"><ele>502.4</ele></trkpt>
      <trkpt lat="42.654930" lon="-2.042760"><ele>489.5</ele></trkpt>
      <trkpt lat="42.654890" lon="-2.042950"><ele>488.9</ele></trkpt>
      <trkpt lat="42.654860" lon="-2.043380"><ele>489.6</ele></trkpt>
      <trkpt lat="42.654810" lon="-2.043520"><ele>489.4</ele></trkpt>
      <trkpt lat="42.654760" lon="-2.043660"><ele>489.4</ele></trkpt>
      <trkpt lat="42.654380" lon="-2.044890"><ele>491.5</ele></trkpt>
      <trkpt lat="42.654230" lon="-2.045300"><ele>492.4</ele></trkpt>
      <trkpt lat="42.654030" lon="-2.045620"><ele>494.2</ele></trkpt>
      <trkpt lat="42.653850" lon="-2.045860"><ele>495.9</ele></trkpt>
      <trkpt lat="42.653510" lon="-2.046210"><ele>497.7</ele></trkpt>
      <trkpt lat="42.653360" lon="-2.046470"><ele>499.2</ele></trkpt>
      <trkpt lat="42.653070" lon="-2.047090"><ele>506.7</ele></trkpt>
      <trkpt lat="42.652790" lon="-2.047530"><ele>508.8</ele></trkpt>
      <trkpt lat="42.652640" lon="-2.047730"><ele>509.5</ele></trkpt>
      <trkpt lat="42.652580" lon="-2.047930"><ele>509.5</ele></trkpt>
      <trkpt lat="42.652590" lon="-2.048070"><ele>509.8</ele></trkpt>
      <trkpt lat="42.652600" lon="-2.048170"><ele>510.1</ele></trkpt>
      <trkpt lat="42.652460" lon="-2.048630"><ele>514.3</ele></trkpt>
      <trkpt lat="42.652440" lon="-2.048710"><ele>514.6</ele></trkpt>
      <trkpt lat="42.652130" lon="-2.049570"><ele>517.6</ele></trkpt>
      <trkpt lat="42.651340" lon="-2.051410"><ele>531.6</ele></trkpt>
      <trkpt lat="42.650910" lon="-2.052270"><ele>539.1</ele></trkpt>
      <trkpt lat="42.650400" lon="-2.052930"><ele>545.0</ele></trkpt>
      <trkpt lat="42.649920" lon="-2.053550"><ele>548.4</ele></trkpt>
      <trkpt lat="42.649560" lon="-2.053890"><ele>548.9</ele></trkpt>
      <trkpt lat="42.646780" lon="-2.056060"><ele>565.7</ele></trkpt>
      <trkpt lat="42.646070" lon="-2.057640"><ele>568.8</ele></trkpt>
      <trkpt lat="42.645010" lon="-2.062120"><ele>573.4</ele></trkpt>
      <trkpt lat="42.643860" lon="-2.064820"><ele>578.5</ele></trkpt>
      <trkpt lat="42.643140" lon="-2.065850"><ele>581.8</ele></trkpt>
      <trkpt lat="42.641960" lon="-2.068550"><ele>589.7</ele></trkpt>
      <trkpt lat="42.641860" lon="-2.070480"><ele>586.0</ele></trkpt>
      <trkpt lat="42.640920" lon="-2.072580"><ele>580.8</ele></trkpt>
      <trkpt lat="42.640830" lon="-2.073160"><ele>581.4</ele></trkpt>
      <trkpt lat="42.640480" lon="-2.072940"><ele>584.1</ele></trkpt>
      <trkpt lat="42.639380" lon="-2.072670"><ele>592.1</ele></trkpt>
      <trkpt lat="42.639240" lon="-2.072740"><ele>593.5</ele></trkpt>
      <trkpt lat="42.638910" lon="-2.075020"><ele>591.1</ele></trkpt>
      <trkpt lat="42.638500" lon="-2.075650"><ele>591.5</ele></trkpt>
      <trkpt lat="42.638030" lon="-2.077630"><ele>585.2</ele></trkpt>
      <trkpt lat="42.637890" lon="-2.080120"><ele>575.9</ele></trkpt>
      <trkpt lat="42.637800" lon="-2.080480"><ele>573.2</ele></trkpt>
      <trkpt lat="42.637610" lon="-2.080610"><ele>572.3</ele></trkpt>
      <trkpt lat="42.638000" lon="-2.081280"><ele>564.9</ele></trkpt>
      <trkpt lat="42.638460" lon="-2.081610"><ele>561.4</ele></trkpt>
      <trkpt lat="42.638780" lon="-2.082200"><ele>558.7</ele></trkpt>
      <trkpt lat="42.638850" lon="-2.082830"><ele>554.7</ele></trkpt>
      <trkpt lat="42.638690" lon="-2.083670"><ele>547.8</ele></trkpt>
      <trkpt lat="42.638540" lon="-2.083700"><ele>548.1</ele></trkpt>
      <trkpt lat="42.637720" lon="-2.083030"><ele>556.7</ele></trkpt>
      <trkpt lat="42.637210" lon="-2.083230"><ele>561.2</ele></trkpt>
      <trkpt lat="42.636680" lon="-2.084180"><ele>562.1</ele></trkpt>
      <trkpt lat="42.636410" lon="-2.085270"><ele>562.7</ele></trkpt>
      <trkpt lat="42.635790" lon="-2.086300"><ele>576.6</ele></trkpt>
      <trkpt lat="42.635660" lon="-2.087070"><ele>578.1</ele></trkpt>
      <trkpt lat="42.634810" lon="-2.087230"><ele>580.2</ele></trkpt>
      <trkpt lat="42.634090" lon="-2.087930"><ele>573.9</ele></trkpt>
      <trkpt lat="42.634000" lon="-2.088510"><ele>569.6</ele></trkpt>
      <trkpt lat="42.634410" lon="-2.089320"><ele>567.6</ele></trkpt>
      <trkpt lat="42.634000" lon="-2.089490"><ele>571.2</ele></trkpt>
      <trkpt lat="42.633260" lon="-2.090330"><ele>581.5</ele></trkpt>
      <trkpt lat="42.633190" lon="-2.091860"><ele>590.1</ele></trkpt>
      <trkpt lat="42.632880" lon="-2.092740"><ele>597.3</ele></trkpt>
      <trkpt lat="42.632280" lon="-2.093760"><ele>608.8</ele></trkpt>
      <trkpt lat="42.631850" lon="-2.095040"><ele>618.8</ele></trkpt>
      <trkpt lat="42.631830" lon="-2.095570"><ele>624.2</ele></trkpt>
      <trkpt lat="42.632110" lon="-2.096270"><ele>628.6</ele></trkpt>
      <trkpt lat="42.632160" lon="-2.097590"><ele>638.8</ele></trkpt>
      <trkpt lat="42.631730" lon="-2.098470"><ele>650.4</ele></trkpt>
      <trkpt lat="42.631030" lon="-2.098960"><ele>655.5</ele></trkpt>
      <trkpt lat="42.630600" lon="-2.100190"><ele>663.6</ele></trkpt>
      <trkpt lat="42.629710" lon="-2.101210"><ele>663.6</ele></trkpt>
      <trkpt lat="42.629320" lon="-2.103100"><ele>672.7</ele></trkpt>
      <trkpt lat="42.628790" lon="-2.104200"><ele>672.5</ele></trkpt>
      <trkpt lat="42.628560" lon="-2.104180"><ele>669.1</ele></trkpt>
      <trkpt lat="42.628220" lon="-2.103890"><ele>663.2</ele></trkpt>
      <trkpt lat="42.627770" lon="-2.103960"><ele>657.6</ele></trkpt>
      <trkpt lat="42.626770" lon="-2.103670"><ele>644.4</ele></trkpt>
      <trkpt lat="42.625890" lon="-2.103690"><ele>635.1</ele></trkpt>
      <trkpt lat="42.624640" lon="-2.102810"><ele>617.3</ele></trkpt>
      <trkpt lat="42.622670" lon="-2.102160"><ele>598.4</ele></trkpt>
      <trkpt lat="42.621790" lon="-2.102080"><ele>592.7</ele></trkpt>
      <trkpt lat="42.621170" lon="-2.102190"><ele>589.5</ele></trkpt>
      <trkpt lat="42.620660" lon="-2.102730"><ele>587.0</ele></trkpt>
      <trkpt lat="42.619490" lon="-2.104520"><ele>582.6</ele></trkpt>
      <trkpt lat="42.618550" lon="-2.107510"><ele>572.4</ele></trkpt>
      <trkpt lat="42.616960" lon="-2.110350"><ele>562.7</ele></trkpt>
      <trkpt lat="42.614770" lon="-2.113160"><ele>556.1</ele></trkpt>
      <trkpt lat="42.614020" lon="-2.113740"><ele>554.6</ele></trkpt>
      <trkpt lat="42.613550" lon="-2.113680"><ele>554.4</ele></trkpt>
      <trkpt lat="42.612960" lon="-2.113370"><ele>550.6</ele></trkpt>
      <trkpt lat="42.612470" lon="-2.113360"><ele>549.3</ele></trkpt>
      <trkpt lat="42.611130" lon="-2.113980"><ele>547.7</ele></trkpt>
      <trkpt lat="42.609130" lon="-2.114540"><ele>550.8</ele></trkpt>
      <trkpt lat="42.608110" lon="-2.115790"><ele>551.8</ele></trkpt>
      <trkpt lat="42.605010" lon="-2.116240"><ele>540.4</ele></trkpt>
      <trkpt lat="42.604720" lon="-2.116510"><ele>538.2</ele></trkpt>
      <trkpt lat="42.604440" lon="-2.118230"><ele>535.2</ele></trkpt>
      <trkpt lat="42.603740" lon="-2.119430"><ele>539.9</ele></trkpt>
      <trkpt lat="42.603540" lon="-2.123360"><ele>546.4</ele></trkpt>
      <trkpt lat="42.603330" lon="-2.124010"><ele>544.9</ele></trkpt>
      <trkpt lat="42.603080" lon="-2.124500"><ele>545.3</ele></trkpt>
      <trkpt lat="42.602490" lon="-2.124750"><ele>543.2</ele></trkpt>
      <trkpt lat="42.601540" lon="-2.125550"><ele>539.3</ele></trkpt>
      <trkpt lat="42.600480" lon="-2.126790"><ele>531.2</ele></trkpt>
      <trkpt lat="42.600040" lon="-2.133670"><ele>528.7</ele></trkpt>
      <trkpt lat="42.599360" lon="-2.139770"><ele>516.4</ele></trkpt>
      <trkpt lat="42.598250" lon="-2.142670"><ele>514.8</ele></trkpt>
      <trkpt lat="42.597820" lon="-2.144510"><ele>514.0</ele></trkpt>
      <trkpt lat="42.596490" lon="-2.145610"><ele>508.8</ele></trkpt>
      <trkpt lat="42.596540" lon="-2.146230"><ele>511.8</ele></trkpt>
      <trkpt lat="42.596780" lon="-2.146860"><ele>514.9</ele></trkpt>
      <trkpt lat="42.596860" lon="-2.148250"><ele>513.8</ele></trkpt>
      <trkpt lat="42.596650" lon="-2.149120"><ele>516.0</ele></trkpt>
      <trkpt lat="42.596700" lon="-2.150970"><ele>518.6</ele></trkpt>
      <trkpt lat="42.596390" lon="-2.151590"><ele>519.9</ele></trkpt>
      <trkpt lat="42.596170" lon="-2.153420"><ele>528.7</ele></trkpt>
      <trkpt lat="42.596240" lon="-2.156310"><ele>541.9</ele></trkpt>
      <trkpt lat="42.593240" lon="-2.156680"><ele>533.5</ele></trkpt>
      <trkpt lat="42.593080" lon="-2.156860"><ele>534.3</ele></trkpt>
      <trkpt lat="42.592890" lon="-2.159090"><ele>529.6</ele></trkpt>
      <trkpt lat="42.593030" lon="-2.169420"><ele>506.5</ele></trkpt>
      <trkpt lat="42.593150" lon="-2.169740"><ele>505.3</ele></trkpt>
      <trkpt lat="42.593720" lon="-2.169980"><ele>504.4</ele></trkpt>
      <trkpt lat="42.593750" lon="-2.171470"><ele>504.8</ele></trkpt>
      <trkpt lat="42.593670" lon="-2.174130"><ele>502.9</ele></trkpt>
      <trkpt lat="42.592890" lon="-2.176850"><ele>495.7</ele></trkpt>
      <trkpt lat="42.592190" lon="-2.177590"><ele>498.0</ele></trkpt>
      <trkpt lat="42.591410" lon="-2.177770"><ele>506.3</ele></trkpt>
      <trkpt lat="42.591050" lon="-2.178840"><ele>501.2</ele></trkpt>
      <trkpt lat="42.590050" lon="-2.179830"><ele>496.5</ele></trkpt>
      <trkpt lat="42.589600" lon="-2.180620"><ele>490.2</ele></trkpt>
      <trkpt lat="42.588240" lon="-2.181120"><ele>488.3</ele></trkpt>
      <trkpt lat="42.586580" lon="-2.182000"><ele>490.4</ele></trkpt>
      <trkpt lat="42.584800" lon="-2.182400"><ele>489.7</ele></trkpt>
      <trkpt lat="42.584470" lon="-2.183030"><ele>496.4</ele></trkpt>
      <trkpt lat="42.583560" lon="-2.183870"><ele>489.1</ele></trkpt>
      <trkpt lat="42.581350" lon="-2.187360"><ele>495.7</ele></trkpt>
      <trkpt lat="42.580940" lon="-2.187510"><ele>495.7</ele></trkpt>
      <trkpt lat="42.579800" lon="-2.188520"><ele>484.9</ele></trkpt>
      <trkpt lat="42.579220" lon="-2.188610"><ele>478.8</ele></trkpt>
      <trkpt lat="42.576320" lon="-2.190320"><ele>458.8</ele></trkpt>
      <trkpt lat="42.573720" lon="-2.193310"><ele>455.2</ele></trkpt>
      <trkpt lat="42.573450" lon="-2.193450"><ele>454.5</ele></trkpt>
      <trkpt lat="42.572890" lon="-2.193430"><ele>455.0</ele></trkpt>
      <trkpt lat="42.572170" lon="-2.193240"><ele>455.6</ele></trkpt>
      <trkpt lat="42.569560" lon="-2.191820"><ele>454.1</ele></trkpt>
      <trkpt lat="42.569090" lon="-2.192670"><ele>449.9</ele></trkpt>
      <trkpt lat="42.567940" lon="-2.196980"><ele>457.7</ele></trkpt>
      <trkpt lat="42.567270" lon="-2.198880"><ele>464.0</ele></trkpt>
      <trkpt lat="42.566990" lon="-2.201560"><ele>465.9</ele></trkpt>
      <trkpt lat="42.566610" lon="-2.203280"><ele>465.6</ele></trkpt>
      <trkpt lat="42.566500" lon="-2.205390"><ele>464.4</ele></trkpt>
      <trkpt lat="42.566100" lon="-2.208360"><ele>467.1</ele></trkpt>
      <trkpt lat="42.565050" lon="-2.223190"><ele>465.5</ele></trkpt>
      <trkpt lat="42.562930" lon="-2.235550"><ele>450.8</ele></trkpt>
      <trkpt lat="42.563070" lon="-2.236100"><ele>452.0</ele></trkpt>
      <trkpt lat="42.563570" lon="-2.237020"><ele>455.2</ele></trkpt>
      <trkpt lat="42.563840" lon="-2.242310"><ele>462.9</ele></trkpt>
      <trkpt lat="42.563480" lon="-2.245830"><ele>464.4</ele></trkpt>
      <trkpt lat="42.563780" lon="-2.248060"><ele>462.1</ele></trkpt>
      <trkpt lat="42.564340" lon="-2.249570"><ele>461.7</ele></trkpt>
      <trkpt lat="42.564000" lon="-2.252270"><ele>461.5</ele></trkpt>
      <trkpt lat="42.563570" lon="-2.254150"><ele>454.4</ele></trkpt>
      <trkpt lat="42.563800" lon="-2.254790"><ele>456.1</ele></trkpt>
      <trkpt lat="42.563400" lon="-2.255730"><ele>453.7</ele></trkpt>
      <trkpt lat="42.562850" lon="-2.256340"><ele>457.8</ele></trkpt>
      <trkpt lat="42.562930" lon="-2.257260"><ele>463.2</ele></trkpt>
      <trkpt lat="42.560590" lon="-2.259410"><ele>465.8</ele></trkpt>
      <trkpt lat="42.559690" lon="-2.260660"><ele>463.8</ele></trkpt>
      <trkpt lat="42.558890" lon="-2.262010"><ele>463.4</ele></trkpt>
      <trkpt lat="42.557520" lon="-2.264950"><ele>472.4</ele></trkpt>
      <trkpt lat="42.556520" lon="-2.264910"><ele>473.9</ele></trkpt>
      <trkpt lat="42.555420" lon="-2.266160"><ele>484.1</ele></trkpt>
      <trkpt lat="42.554900" lon="-2.266420"><ele>487.2</ele></trkpt>
      <trkpt lat="42.554290" lon="-2.266480"><ele>492.3</ele></trkpt>
      <trkpt lat="42.553700" lon="-2.266040"><ele>490.5</ele></trkpt>
      <trkpt lat="42.552980" lon="-2.265890"><ele>486.8</ele></trkpt>
      <trkpt lat="42.552260" lon="-2.266660"><ele>479.3</ele></trkpt>
      <trkpt lat="42.551940" lon="-2.266600"><ele>476.8</ele></trkpt>
      <trkpt lat="42.551060" lon="-2.267030"><ele>469.3</ele></trkpt>
      <trkpt lat="42.550520" lon="-2.267850"><ele>463.6</ele></trkpt>
      <trkpt lat="42.550410" lon="-2.268590"><ele>453.5</ele></trkpt>
      <trkpt lat="42.550500" lon="-2.269400"><ele>444.5</ele></trkpt>
      <trkpt lat="42.551360" lon="-2.270680"><ele>456.6</ele></trkpt>
      <trkpt lat="42.551920" lon="-2.270970"><ele>460.4</ele></trkpt>
      <trkpt lat="42.551910" lon="-2.272430"><ele>471.6</ele></trkpt>
      <trkpt lat="42.551130" lon="-2.274810"><ele>484.0</ele></trkpt>
      <trkpt lat="42.549700" lon="-2.277220"><ele>493.3</ele></trkpt>
      <trkpt lat="42.549220" lon="-2.281680"><ele>502.4</ele></trkpt>
      <trkpt lat="42.548970" lon="-2.282500"><ele>500.7</ele></trkpt>
      <trkpt lat="42.548530" lon="-2.283160"><ele>494.1</ele></trkpt>
      <trkpt lat="42.548450" lon="-2.283830"><ele>492.2</ele></trkpt>
      <trkpt lat="42.548120" lon="-2.284450"><ele>494.3</ele></trkpt>
      <trkpt lat="42.547260" lon="-2.285430"><ele>493.7</ele></trkpt>
      <trkpt lat="42.547140" lon="-2.286370"><ele>493.5</ele></trkpt>
      <trkpt lat="42.546680" lon="-2.287400"><ele>496.0</ele></trkpt>
      <trkpt lat="42.546200" lon="-2.287540"><ele>502.8</ele></trkpt>
      <trkpt lat="42.545330" lon="-2.287420"><ele>513.0</ele></trkpt>
      <trkpt lat="42.544800" lon="-2.287940"><ele>517.3</ele></trkpt>
      <trkpt lat="42.544270" lon="-2.291320"><ele>534.9</ele></trkpt>
      <trkpt lat="42.543560" lon="-2.293030"><ele>548.6</ele></trkpt>
      <trkpt lat="42.543620" lon="-2.293530"><ele>549.5</ele></trkpt>
      <trkpt lat="42.543400" lon="-2.293820"><ele>550.2</ele></trkpt>
      <trkpt lat="42.542840" lon="-2.295700"><ele>563.9</ele></trkpt>
      <trkpt lat="42.541950" lon="-2.297000"><ele>561.5</ele></trkpt>
      <trkpt lat="42.541740" lon="-2.297880"><ele>553.7</ele></trkpt>
      <trkpt lat="42.542410" lon="-2.299430"><ele>542.9</ele></trkpt>
      <trkpt lat="42.542430" lon="-2.299740"><ele>542.0</ele></trkpt>
      <trkpt lat="42.542230" lon="-2.300040"><ele>540.7</ele></trkpt>
      <trkpt lat="42.541560" lon="-2.300140"><ele>541.9</ele></trkpt>
      <trkpt lat="42.541870" lon="-2.300950"><ele>547.6</ele></trkpt>
      <trkpt lat="42.541910" lon="-2.301450"><ele>552.7</ele></trkpt>
      <trkpt lat="42.541850" lon="-2.301680"><ele>556.1</ele></trkpt>
      <trkpt lat="42.541630" lon="-2.301630"><ele>557.9</ele></trkpt>
      <trkpt lat="42.541220" lon="-2.302670"><ele>563.8</ele></trkpt>
      <trkpt lat="42.541340" lon="-2.305030"><ele>574.6</ele></trkpt>
      <trkpt lat="42.541100" lon="-2.305630"><ele>574.1</ele></trkpt>
      <trkpt lat="42.541120" lon="-2.306170"><ele>576.5</ele></trkpt>
      <trkpt lat="42.540410" lon="-2.306220"><ele>572.4</ele></trkpt>
      <trkpt lat="42.540310" lon="-2.306330"><ele>571.8</ele></trkpt>
      <trkpt lat="42.540450" lon="-2.306980"><ele>567.4</ele></trkpt>
      <trkpt lat="42.540870" lon="-2.307580"><ele>567.7</ele></trkpt>
      <trkpt lat="42.540930" lon="-2.309030"><ele>555.6</ele></trkpt>
      <trkpt lat="42.540580" lon="-2.310410"><ele>542.8</ele></trkpt>
      <trkpt lat="42.539820" lon="-2.310900"><ele>532.3</ele></trkpt>
      <trkpt lat="42.539660" lon="-2.312220"><ele>517.1</ele></trkpt>
      <trkpt lat="42.539530" lon="-2.312460"><ele>513.4</ele></trkpt>
      <trkpt lat="42.539140" lon="-2.312550"><ele>510.4</ele></trkpt>
      <trkpt lat="42.539170" lon="-2.312960"><ele>506.0</ele></trkpt>
      <trkpt lat="42.539710" lon="-2.313310"><ele>507.0</ele></trkpt>
      <trkpt lat="42.539850" lon="-2.313620"><ele>509.4</ele></trkpt>
      <trkpt lat="42.539600" lon="-2.313790"><ele>509.0</ele></trkpt>
      <trkpt lat="42.538530" lon="-2.313950"><ele>501.9</ele></trkpt>
      <trkpt lat="42.537970" lon="-2.314620"><ele>501.1</ele></trkpt>
      <trkpt lat="42.537460" lon="-2.314820"><ele>495.1</ele></trkpt>
      <trkpt lat="42.537140" lon="-2.316360"><ele>495.5</ele></trkpt>
      <trkpt lat="42.535960" lon="-2.318470"><ele>486.7</ele></trkpt>
      <trkpt lat="42.535460" lon="-2.318860"><ele>480.3</ele></trkpt>
      <trkpt lat="42.534910" lon="-2.319020"><ele>476.9</ele></trkpt>
      <trkpt lat="42.533930" lon="-2.319800"><ele>478.3</ele></trkpt>
      <trkpt lat="42.533400" lon="-2.320580"><ele>474.3</ele></trkpt>
      <trkpt lat="42.532090" lon="-2.321960"><ele>462.0</ele></trkpt>
      <trkpt lat="42.531980" lon="-2.322240"><ele>462.2</ele></trkpt>
      <trkpt lat="42.530730" lon="-2.322630"><ele>462.0</ele></trkpt>
      <trkpt lat="42.530350" lon="-2.322880"><ele>463.4</ele></trkpt>
      <trkpt lat="42.529150" lon="-2.323120"><ele>459.3</ele></trkpt>
      <trkpt lat="42.528020" lon="-2.323990"><ele>452.5</ele></trkpt>
      <trkpt lat="42.526320" lon="-2.326100"><ele>472.4</ele></trkpt>
      <trkpt lat="42.526100" lon="-2.326990"><ele>473.7</ele></trkpt>
      <trkpt lat="42.526250" lon="-2.328140"><ele>477.6</ele></trkpt>
      <trkpt lat="42.526010" lon="-2.328730"><ele>476.2</ele></trkpt>
      <trkpt lat="42.525920" lon="-2.330010"><ele>484.5</ele></trkpt>
      <trkpt lat="42.525770" lon="-2.330300"><ele>489.5</ele></trkpt>
      <trkpt lat="42.524680" lon="-2.331070"><ele>502.5</ele></trkpt>
      <trkpt lat="42.523900" lon="-2.334750"><ele>495.4</ele></trkpt>
      <trkpt lat="42.523310" lon="-2.336490"><ele>481.9</ele></trkpt>
      <trkpt lat="42.523090" lon="-2.337010"><ele>479.1</ele></trkpt>
      <trkpt lat="42.522820" lon="-2.337260"><ele>477.1</ele></trkpt>
      <trkpt lat="42.521930" lon="-2.339360"><ele>479.9</ele></trkpt>
      <trkpt lat="42.521080" lon="-2.340530"><ele>482.7</ele></trkpt>
      <trkpt lat="42.519790" lon="-2.343710"><ele>477.4</ele></trkpt>
      <trkpt lat="42.518380" lon="-2.349870"><ele>465.0</ele></trkpt>
      <trkpt lat="42.517720" lon="-2.351500"><ele>460.4</ele></trkpt>
      <trkpt lat="42.517130" lon="-2.355210"><ele>445.3</ele></trkpt>
      <trkpt lat="42.517170" lon="-2.356130"><ele>444.4</ele></trkpt>
      <trkpt lat="42.516770" lon="-2.356740"><ele>443.7</ele></trkpt>
      <trkpt lat="42.516350" lon="-2.358330"><ele>443.2</ele></trkpt>
      <trkpt lat="42.516110" lon="-2.360720"><ele>445.1</ele></trkpt>
      <trkpt lat="42.515860" lon="-2.361850"><ele>444.5</ele></trkpt>
      <trkpt lat="42.515950" lon="-2.362380"><ele>445.5</ele></trkpt>
      <trkpt lat="42.515610" lon="-2.363580"><ele>445.6</ele></trkpt>
      <trkpt lat="42.515520" lon="-2.366840"><ele>448.5</ele></trkpt>
      <trkpt lat="42.515190" lon="-2.369030"><ele>460.7</ele></trkpt>
      <trkpt lat="42.515380" lon="-2.369600"><ele>465.7</ele></trkpt>
      <trkpt lat="42.515310" lon="-2.370130"><ele>468.9</ele></trkpt>
      <trkpt lat="42.515090" lon="-2.370190"><ele>468.3</ele></trkpt>
      <trkpt lat="42.514800" lon="-2.373580"><ele>468.6</ele></trkpt>
      <trkpt lat="42.515180" lon="-2.373750"><ele>468.7</ele></trkpt>
      <trkpt lat="42.515240" lon="-2.374370"><ele>462.1</ele></trkpt>
      <trkpt lat="42.515530" lon="-2.374660"><ele>458.6</ele></trkpt>
      <trkpt lat="42.515130" lon="-2.374880"><ele>454.9</ele></trkpt>
      <trkpt lat="42.515120" lon="-2.375950"><ele>443.5</ele></trkpt>
      <trkpt lat="42.514870" lon="-2.375930"><ele>442.2</ele></trkpt>
      <trkpt lat="42.514790" lon="-2.376640"><ele>435.9</ele></trkpt>
      <trkpt lat="42.514230" lon="-2.377230"><ele>429.1</ele></trkpt>
      <trkpt lat="42.512830" lon="-2.377580"><ele>425.0</ele></trkpt>
      <trkpt lat="42.512800" lon="-2.379160"><ele>425.7</ele></trkpt>
      <trkpt lat="42.512140" lon="-2.379180"><ele>424.2</ele></trkpt>
      <trkpt lat="42.511530" lon="-2.379620"><ele>422.8</ele></trkpt>
      <trkpt lat="42.511170" lon="-2.379390"><ele>423.5</ele></trkpt>
      <trkpt lat="42.510250" lon="-2.379570"><ele>422.6</ele></trkpt>
      <trkpt lat="42.509980" lon="-2.379990"><ele>422.8</ele></trkpt>
      <trkpt lat="42.509660" lon="-2.381550"><ele>420.0</ele></trkpt>
      <trkpt lat="42.508210" lon="-2.382850"><ele>417.2</ele></trkpt>
      <trkpt lat="42.507920" lon="-2.383040"><ele>417.9</ele></trkpt>
      <trkpt lat="42.507690" lon="-2.383030"><ele>418.9</ele></trkpt>
      <trkpt lat="42.507140" lon="-2.383720"><ele>415.8</ele></trkpt>
      <trkpt lat="42.505450" lon="-2.384330"><ele>412.0</ele></trkpt>
      <trkpt lat="42.503840" lon="-2.386290"><ele>404.3</ele></trkpt>
      <trkpt lat="42.503220" lon="-2.386890"><ele>403.5</ele></trkpt>
      <trkpt lat="42.502150" lon="-2.387410"><ele>399.9</ele></trkpt>
      <trkpt lat="42.501750" lon="-2.388100"><ele>400.0</ele></trkpt>
      <trkpt lat="42.501000" lon="-2.388190"><ele>397.5</ele></trkpt>
      <trkpt lat="42.500350" lon="-2.387990"><ele>395.7</ele></trkpt>
      <trkpt lat="42.499400" lon="-2.388630"><ele>393.5</ele></trkpt>
      <trkpt lat="42.498300" lon="-2.388920"><ele>392.6</ele></trkpt>
      <trkpt lat="42.497450" lon="-2.388850"><ele>393.5</ele></trkpt>
      <trkpt lat="42.496560" lon="-2.388550"><ele>393.5</ele></trkpt>
      <trkpt lat="42.496090" lon="-2.388750"><ele>396.0</ele></trkpt>
      <trkpt lat="42.495930" lon="-2.389680"><ele>399.7</ele></trkpt>
      <trkpt lat="42.496040" lon="-2.391890"><ele>392.7</ele></trkpt>
      <trkpt lat="42.495320" lon="-2.397430"><ele>390.3</ele></trkpt>
      <trkpt lat="42.494950" lon="-2.399250"><ele>391.9</ele></trkpt>
      <trkpt lat="42.494060" lon="-2.401080"><ele>397.1</ele></trkpt>
      <trkpt lat="42.493900" lon="-2.401690"><ele>400.6</ele></trkpt>
      <trkpt lat="42.494270" lon="-2.402920"><ele>404.9</ele></trkpt>
      <trkpt lat="42.493950" lon="-2.404090"><ele>408.8</ele></trkpt>
      <trkpt lat="42.494020" lon="-2.404660"><ele>408.8</ele></trkpt>
      <trkpt lat="42.493340" lon="-2.405900"><ele>405.5</ele></trkpt>
      <trkpt lat="42.491670" lon="-2.411840"><ele>394.8</ele></trkpt>
      <trkpt lat="42.491220" lon="-2.414000"><ele>387.9</ele></trkpt>
      <trkpt lat="42.490560" lon="-2.415670"><ele>390.4</ele></trkpt>
      <trkpt lat="42.490380" lon="-2.416800"><ele>389.4</ele></trkpt>
      <trkpt lat="42.489920" lon="-2.418230"><ele>390.3</ele></trkpt>
      <trkpt lat="42.489210" lon="-2.418930"><ele>393.3</ele></trkpt>
      <trkpt lat="42.489140" lon="-2.420010"><ele>394.4</ele></trkpt>
      <trkpt lat="42.488880" lon="-2.420360"><ele>396.6</ele></trkpt>
      <trkpt lat="42.488550" lon="-2.422200"><ele>402.1</ele></trkpt>
      <trkpt lat="42.485950" lon="-2.427490"><ele>425.6</ele></trkpt>
      <trkpt lat="42.484750" lon="-2.431610"><ele>432.7</ele></trkpt>
      <trkpt lat="42.484000" lon="-2.432610"><ele>429.7</ele></trkpt>
      <trkpt lat="42.482080" lon="-2.434550"><ele>423.1</ele></trkpt>
      <trkpt lat="42.480110" lon="-2.435540"><ele>416.0</ele></trkpt>
      <trkpt lat="42.477800" lon="-2.437250"><ele>399.4</ele></trkpt>
      <trkpt lat="42.477000" lon="-2.437640"><ele>392.2</ele></trkpt>
      <trkpt lat="42.476130" lon="-2.439150"><ele>379.5</ele></trkpt>
      <trkpt lat="42.475070" lon="-2.439510"><ele>368.3</ele></trkpt>
      <trkpt lat="42.473930" lon="-2.439640"><ele>368.4</ele></trkpt>
      <trkpt lat="42.472990" lon="-2.440230"><ele>369.4</ele></trkpt>
      <trkpt lat="42.472410" lon="-2.440290"><ele>369.5</ele></trkpt>
      <trkpt lat="42.471210" lon="-2.442300"><ele>370.4</ele></trkpt>
      <trkpt lat="42.470930" lon="-2.444020"><ele>372.2</ele></trkpt>
      <trkpt lat="42.468910" lon="-2.443190"><ele>376.9</ele></trkpt>
      <trkpt lat="42.468380" lon="-2.444600"><ele>381.7</ele></trkpt>
      <trkpt lat="42.467490" lon="-2.444360"><ele>388.1</ele></trkpt>
      <trkpt lat="42.467180" lon="-2.445390"><ele>389.7</ele></trkpt>
      <trkpt lat="42.466550" lon="-2.446150"><ele>391.1</ele></trkpt>
      <trkpt lat="42.466190" lon="-2.450660"><ele>394.5</ele></trkpt>
      <trkpt lat="42.465910" lon="-2.451070"><ele>397.0</ele></trkpt>
      <trkpt lat="42.465710" lon="-2.452660"><ele>406.0</ele></trkpt>
      <trkpt lat="42.465310" lon="-2.454290"><ele>399.9</ele></trkpt>
      <trkpt lat="42.465100" lon="-2.454550"><ele>398.7</ele></trkpt>
      <trkpt lat="42.464920" lon="-2.455920"><ele>398.0</ele></trkpt>
      <trkpt lat="42.463540" lon="-2.461960"><ele>396.3</ele></trkpt>
      <trkpt lat="42.463220" lon="-2.462030"><ele>395.9</ele></trkpt>
      <trkpt lat="42.461330" lon="-2.461260"><ele>395.5</ele></trkpt>
      <trkpt lat="42.460210" lon="-2.462450"><ele>395.8</ele></trkpt>
      <trkpt lat="42.459430" lon="-2.465220"><ele>401.9</ele></trkpt>
      <trkpt lat="42.459200" lon="-2.466440"><ele>403.1</ele></trkpt>
      <trkpt lat="42.459160" lon="-2.467580"><ele>405.7</ele></trkpt>
      <trkpt lat="42.458970" lon="-2.467890"><ele>406.2</ele></trkpt>
      <trkpt lat="42.458280" lon="-2.468170"><ele>407.8</ele></trkpt>
      <trkpt lat="42.458290" lon="-2.470370"><ele>407.1</ele></trkpt>
      <trkpt lat="42.457360" lon="-2.472650"><ele>410.6</ele></trkpt>
      <trkpt lat="42.456780" lon="-2.473020"><ele>409.6</ele></trkpt>
      <trkpt lat="42.456610" lon="-2.473370"><ele>409.8</ele></trkpt>
      <trkpt lat="42.455890" lon="-2.477080"><ele>411.4</ele></trkpt>
      <trkpt lat="42.455680" lon="-2.477410"><ele>410.2</ele></trkpt>
      <trkpt lat="42.455380" lon="-2.477500"><ele>407.9</ele></trkpt>
      <trkpt lat="42.454950" lon="-2.479710"><ele>408.9</ele></trkpt>
      <trkpt lat="42.454040" lon="-2.481550"><ele>408.6</ele></trkpt>
      <trkpt lat="42.453570" lon="-2.482990"><ele>409.5</ele></trkpt>
      <trkpt lat="42.453040" lon="-2.486760"><ele>411.2</ele></trkpt>
      <trkpt lat="42.451670" lon="-2.490220"><ele>413.7</ele></trkpt>
      <trkpt lat="42.450480" lon="-2.494770"><ele>419.2</ele></trkpt>
      <trkpt lat="42.450390" lon="-2.494950"><ele>419.8</ele></trkpt>
      <trkpt lat="42.450060" lon="-2.494920"><ele>420.8</ele></trkpt>
      <trkpt lat="42.450000" lon="-2.495060"><ele>421.1</ele></trkpt>
      <trkpt lat="42.449900" lon="-2.497530"><ele>424.7</ele></trkpt>
      <trkpt lat="42.449520" lon="-2.498070"><ele>427.1</ele></trkpt>
      <trkpt lat="42.448860" lon="-2.498230"><ele>428.5</ele></trkpt>
      <trkpt lat="42.448690" lon="-2.498790"><ele>428.4</ele></trkpt>
      <trkpt lat="42.448080" lon="-2.499790"><ele>430.8</ele></trkpt>
      <trkpt lat="42.447620" lon="-2.499930"><ele>433.7</ele></trkpt>
      <trkpt lat="42.447220" lon="-2.500460"><ele>433.8</ele></trkpt>
      <trkpt lat="42.447320" lon="-2.501170"><ele>432.8</ele></trkpt>
      <trkpt lat="42.448150" lon="-2.503380"><ele>439.6</ele></trkpt>
      <trkpt lat="42.448040" lon="-2.503720"><ele>440.9</ele></trkpt>
      <trkpt lat="42.447430" lon="-2.503800"><ele>441.3</ele></trkpt>
      <trkpt lat="42.447090" lon="-2.504940"><ele>442.0</ele></trkpt>
      <trkpt lat="42.446780" lon="-2.505460"><ele>439.4</ele></trkpt>
      <trkpt lat="42.446730" lon="-2.506820"><ele>438.7</ele></trkpt>
      <trkpt lat="42.447050" lon="-2.507590"><ele>441.4</ele></trkpt>
      <trkpt lat="42.447100" lon="-2.508130"><ele>442.1</ele></trkpt>
      <trkpt lat="42.446640" lon="-2.509390"><ele>441.7</ele></trkpt>
      <trkpt lat="42.444780" lon="-2.513290"><ele>443.1</ele></trkpt>
      <trkpt lat="42.444480" lon="-2.513270"><ele>443.8</ele></trkpt>
      <trkpt lat="42.444130" lon="-2.512180"><ele>440.7</ele></trkpt>
      <trkpt lat="42.443980" lon="-2.512070"><ele>440.1</ele></trkpt>
      <trkpt lat="42.443260" lon="-2.513140"><ele>444.3</ele></trkpt>
      <trkpt lat="42.442130" lon="-2.513160"><ele>444.9</ele></trkpt>
      <trkpt lat="42.441720" lon="-2.513360"><ele>444.1</ele></trkpt>
      <trkpt lat="42.441400" lon="-2.513340"><ele>443.5</ele></trkpt>
      <trkpt lat="42.441330" lon="-2.513690"><ele>443.8</ele></trkpt>
      <trkpt lat="42.441490" lon="-2.514730"><ele>445.9</ele></trkpt>
      <trkpt lat="42.440140" lon="-2.514860"><ele>446.6</ele></trkpt>
      <trkpt lat="42.439110" lon="-2.515290"><ele>449.5</ele></trkpt>
      <trkpt lat="42.438730" lon="-2.515080"><ele>449.8</ele></trkpt>
      <trkpt lat="42.438500" lon="-2.514700"><ele>449.6</ele></trkpt>
      <trkpt lat="42.437840" lon="-2.514420"><ele>453.5</ele></trkpt>
      <trkpt lat="42.436600" lon="-2.516140"><ele>477.2</ele></trkpt>
      <trkpt lat="42.436830" lon="-2.516770"><ele>480.2</ele></trkpt>
      <trkpt lat="42.437680" lon="-2.517970"><ele>483.5</ele></trkpt>
      <trkpt lat="42.438000" lon="-2.518990"><ele>488.3</ele></trkpt>
      <trkpt lat="42.439200" lon="-2.521330"><ele>500.3</ele></trkpt>
      <trkpt lat="42.439510" lon="-2.522540"><ele>507.2</ele></trkpt>
      <trkpt lat="42.439970" lon="-2.523390"><ele>511.3</ele></trkpt>
      <trkpt lat="42.440100" lon="-2.524000"><ele>515.2</ele></trkpt>
      <trkpt lat="42.439570" lon="-2.529150"><ele>512.6</ele></trkpt>
      <trkpt lat="42.438920" lon="-2.531860"><ele>505.2</ele></trkpt>
      <trkpt lat="42.438540" lon="-2.535370"><ele>502.0</ele></trkpt>
      <trkpt lat="42.438010" lon="-2.536920"><ele>496.8</ele></trkpt>
      <trkpt lat="42.437490" lon="-2.539460"><ele>495.4</ele></trkpt>
      <trkpt lat="42.437070" lon="-2.540180"><ele>492.8</ele></trkpt>
      <trkpt lat="42.436350" lon="-2.542860"><ele>476.3</ele></trkpt>
      <trkpt lat="42.435560" lon="-2.548230"><ele>467.0</ele></trkpt>
      <trkpt lat="42.435560" lon="-2.548600"><ele>466.6</ele></trkpt>
      <trkpt lat="42.435920" lon="-2.549660"><ele>466.5</ele></trkpt>
      <trkpt lat="42.434920" lon="-2.551100"><ele>467.0</ele></trkpt>
      <trkpt lat="42.432610" lon="-2.559280"><ele>488.7</ele></trkpt>
      <trkpt lat="42.431850" lon="-2.559210"><ele>495.7</ele></trkpt>
      <trkpt lat="42.431480" lon="-2.559440"><ele>502.9</ele></trkpt>
      <trkpt lat="42.430950" lon="-2.559400"><ele>505.7</ele></trkpt>
      <trkpt lat="42.430140" lon="-2.559650"><ele>511.6</ele></trkpt>
      <trkpt lat="42.429600" lon="-2.560480"><ele>514.3</ele></trkpt>
      <trkpt lat="42.429460" lon="-2.562030"><ele>515.3</ele></trkpt>
      <trkpt lat="42.429750" lon="-2.562420"><ele>518.4</ele></trkpt>
      <trkpt lat="42.430820" lon="-2.563110"><ele>520.0</ele></trkpt>
    </trkseg></trk>
</gpx>
