<?xml version="1.0" encoding="UTF-8"?>
<gpx version="1.1" creator="camino-2027 split of compostelle.fr CAMINO_FRANCES.gpx" xmlns="http://www.topografix.com/GPX/1/1">
  <metadata><name>도보 v2 DAY 2 수비리 → 에스테야</name><desc>compostelle.fr (VisuGPX) 도보 노선을 자전거 일정 경계로 잘라 낸 것 · 2026-09-12</desc></metadata>
  <trk><name>도보 v2 DAY 2 · 수비리 → 에스테야</name><trkseg>
      <trkpt lat="42.928220" lon="-1.502170"><ele>539.9</ele></trkpt>
      <trkpt lat="42.927300" lon="-1.502940"><ele>539.6</ele></trkpt>
      <trkpt lat="42.926430" lon="-1.504310"><ele>528.9</ele></trkpt>
      <trkpt lat="42.925200" lon="-1.504790"><ele>531.0</ele></trkpt>
      <trkpt lat="42.924880" lon="-1.504790"><ele>532.4</ele></trkpt>
      <trkpt lat="42.924310" lon="-1.504510"><ele>535.8</ele></trkpt>
      <trkpt lat="42.924060" lon="-1.504550"><ele>538.0</ele></trkpt>
      <trkpt lat="42.923820" lon="-1.504830"><ele>538.5</ele></trkpt>
      <trkpt lat="42.923370" lon="-1.506450"><ele>525.6</ele></trkpt>
      <trkpt lat="42.922990" lon="-1.506380"><ele>529.3</ele></trkpt>
      <trkpt lat="42.922510" lon="-1.506560"><ele>531.3</ele></trkpt>
      <trkpt lat="42.920460" lon="-1.507670"><ele>548.6</ele></trkpt>
      <trkpt lat="42.919460" lon="-1.509570"><ele>551.4</ele></trkpt>
      <trkpt lat="42.918680" lon="-1.510110"><ele>557.7</ele></trkpt>
      <trkpt lat="42.917760" lon="-1.511020"><ele>561.5</ele></trkpt>
      <trkpt lat="42.915990" lon="-1.512130"><ele>572.3</ele></trkpt>
      <trkpt lat="42.915100" lon="-1.513650"><ele>551.9</ele></trkpt>
      <trkpt lat="42.915170" lon="-1.513880"><ele>547.7</ele></trkpt>
      <trkpt lat="42.914520" lon="-1.515010"><ele>531.6</ele></trkpt>
      <trkpt lat="42.913190" lon="-1.516650"><ele>519.8</ele></trkpt>
      <trkpt lat="42.912750" lon="-1.516650"><ele>525.4</ele></trkpt>
      <trkpt lat="42.912130" lon="-1.516880"><ele>532.7</ele></trkpt>
      <trkpt lat="42.911240" lon="-1.517500"><ele>542.3</ele></trkpt>
      <trkpt lat="42.911030" lon="-1.517180"><ele>549.6</ele></trkpt>
      <trkpt lat="42.910540" lon="-1.517220"><ele>555.5</ele></trkpt>
      <trkpt lat="42.910210" lon="-1.519440"><ele>538.7</ele></trkpt>
      <trkpt lat="42.909200" lon="-1.522230"><ele>529.0</ele></trkpt>
      <trkpt lat="42.909060" lon="-1.522970"><ele>525.9</ele></trkpt>
      <trkpt lat="42.909140" lon="-1.523250"><ele>522.4</ele></trkpt>
      <trkpt lat="42.907980" lon="-1.524710"><ele>530.4</ele></trkpt>
      <trkpt lat="42.907790" lon="-1.525140"><ele>528.8</ele></trkpt>
      <trkpt lat="42.907030" lon="-1.525060"><ele>529.7</ele></trkpt>
      <trkpt lat="42.906500" lon="-1.525430"><ele>530.1</ele></trkpt>
      <trkpt lat="42.906510" lon="-1.525880"><ele>532.7</ele></trkpt>
      <trkpt lat="42.907050" lon="-1.526840"><ele>531.5</ele></trkpt>
      <trkpt lat="42.907610" lon="-1.528300"><ele>522.8</ele></trkpt>
      <trkpt lat="42.907560" lon="-1.529370"><ele>519.6</ele></trkpt>
      <trkpt lat="42.907100" lon="-1.530710"><ele>514.4</ele></trkpt>
      <trkpt lat="42.905780" lon="-1.533150"><ele>512.1</ele></trkpt>
      <trkpt lat="42.904320" lon="-1.534400"><ele>512.0</ele></trkpt>
      <trkpt lat="42.903790" lon="-1.535050"><ele>511.4</ele></trkpt>
      <trkpt lat="42.903150" lon="-1.535330"><ele>515.2</ele></trkpt>
      <trkpt lat="42.903150" lon="-1.536060"><ele>511.6</ele></trkpt>
      <trkpt lat="42.901920" lon="-1.538560"><ele>504.5</ele></trkpt>
      <trkpt lat="42.901640" lon="-1.538950"><ele>504.6</ele></trkpt>
      <trkpt lat="42.901120" lon="-1.538910"><ele>509.1</ele></trkpt>
      <trkpt lat="42.901060" lon="-1.539750"><ele>505.0</ele></trkpt>
      <trkpt lat="42.900660" lon="-1.540560"><ele>501.9</ele></trkpt>
      <trkpt lat="42.901090" lon="-1.540400"><ele>501.3</ele></trkpt>
      <trkpt lat="42.901470" lon="-1.540820"><ele>499.8</ele></trkpt>
      <trkpt lat="42.901630" lon="-1.541240"><ele>499.9</ele></trkpt>
      <trkpt lat="42.901300" lon="-1.542010"><ele>498.3</ele></trkpt>
      <trkpt lat="42.901200" lon="-1.541990"><ele>497.9</ele></trkpt>
      <trkpt lat="42.901640" lon="-1.541240"><ele>499.9</ele></trkpt>
      <trkpt lat="42.901380" lon="-1.540720"><ele>499.9</ele></trkpt>
      <trkpt lat="42.900990" lon="-1.540410"><ele>501.6</ele></trkpt>
      <trkpt lat="42.898380" lon="-1.541940"><ele>519.0</ele></trkpt>
      <trkpt lat="42.898000" lon="-1.542010"><ele>520.8</ele></trkpt>
      <trkpt lat="42.897290" lon="-1.541820"><ele>526.0</ele></trkpt>
      <trkpt lat="42.896930" lon="-1.541910"><ele>527.6</ele></trkpt>
      <trkpt lat="42.896700" lon="-1.542510"><ele>529.6</ele></trkpt>
      <trkpt lat="42.896980" lon="-1.543130"><ele>528.2</ele></trkpt>
      <trkpt lat="42.896470" lon="-1.543730"><ele>533.8</ele></trkpt>
      <trkpt lat="42.896420" lon="-1.544430"><ele>525.2</ele></trkpt>
      <trkpt lat="42.896170" lon="-1.545180"><ele>518.3</ele></trkpt>
      <trkpt lat="42.895010" lon="-1.546930"><ele>520.5</ele></trkpt>
      <trkpt lat="42.894890" lon="-1.547550"><ele>516.1</ele></trkpt>
      <trkpt lat="42.895050" lon="-1.548480"><ele>507.2</ele></trkpt>
      <trkpt lat="42.894940" lon="-1.549510"><ele>504.7</ele></trkpt>
      <trkpt lat="42.893900" lon="-1.550580"><ele>515.6</ele></trkpt>
      <trkpt lat="42.892920" lon="-1.552370"><ele>515.7</ele></trkpt>
      <trkpt lat="42.892070" lon="-1.552910"><ele>524.5</ele></trkpt>
      <trkpt lat="42.891340" lon="-1.554330"><ele>519.7</ele></trkpt>
      <trkpt lat="42.890600" lon="-1.554760"><ele>526.7</ele></trkpt>
      <trkpt lat="42.889980" lon="-1.555470"><ele>528.1</ele></trkpt>
      <trkpt lat="42.889370" lon="-1.556930"><ele>517.2</ele></trkpt>
      <trkpt lat="42.889470" lon="-1.558550"><ele>490.0</ele></trkpt>
      <trkpt lat="42.887840" lon="-1.559610"><ele>499.2</ele></trkpt>
      <trkpt lat="42.886990" lon="-1.560870"><ele>497.6</ele></trkpt>
      <trkpt lat="42.886740" lon="-1.561780"><ele>491.0</ele></trkpt>
      <trkpt lat="42.886150" lon="-1.562500"><ele>491.0</ele></trkpt>
      <trkpt lat="42.885080" lon="-1.562770"><ele>489.5</ele></trkpt>
      <trkpt lat="42.884150" lon="-1.562330"><ele>492.7</ele></trkpt>
      <trkpt lat="42.883340" lon="-1.562250"><ele>492.2</ele></trkpt>
      <trkpt lat="42.882440" lon="-1.562430"><ele>493.6</ele></trkpt>
      <trkpt lat="42.881900" lon="-1.562700"><ele>493.7</ele></trkpt>
      <trkpt lat="42.880780" lon="-1.564120"><ele>482.3</ele></trkpt>
      <trkpt lat="42.880020" lon="-1.564430"><ele>479.2</ele></trkpt>
      <trkpt lat="42.878580" lon="-1.565370"><ele>475.2</ele></trkpt>
      <trkpt lat="42.878570" lon="-1.566160"><ele>479.4</ele></trkpt>
      <trkpt lat="42.874310" lon="-1.568820"><ele>475.4</ele></trkpt>
      <trkpt lat="42.873700" lon="-1.569330"><ele>478.2</ele></trkpt>
      <trkpt lat="42.873430" lon="-1.569160"><ele>475.9</ele></trkpt>
      <trkpt lat="42.872980" lon="-1.569460"><ele>477.5</ele></trkpt>
      <trkpt lat="42.872680" lon="-1.569480"><ele>476.6</ele></trkpt>
      <trkpt lat="42.871260" lon="-1.569120"><ele>470.1</ele></trkpt>
      <trkpt lat="42.870260" lon="-1.569270"><ele>469.4</ele></trkpt>
      <trkpt lat="42.869740" lon="-1.568950"><ele>473.2</ele></trkpt>
      <trkpt lat="42.869040" lon="-1.568980"><ele>478.7</ele></trkpt>
      <trkpt lat="42.868860" lon="-1.568820"><ele>482.4</ele></trkpt>
      <trkpt lat="42.868000" lon="-1.568760"><ele>487.9</ele></trkpt>
      <trkpt lat="42.865920" lon="-1.569550"><ele>485.0</ele></trkpt>
      <trkpt lat="42.865500" lon="-1.569950"><ele>481.1</ele></trkpt>
      <trkpt lat="42.865370" lon="-1.569800"><ele>486.0</ele></trkpt>
      <trkpt lat="42.865050" lon="-1.570610"><ele>474.8</ele></trkpt>
      <trkpt lat="42.864650" lon="-1.570910"><ele>473.1</ele></trkpt>
      <trkpt lat="42.862680" lon="-1.571310"><ele>471.3</ele></trkpt>
      <trkpt lat="42.861990" lon="-1.570790"><ele>478.0</ele></trkpt>
      <trkpt lat="42.861680" lon="-1.570860"><ele>477.9</ele></trkpt>
      <trkpt lat="42.861330" lon="-1.571440"><ele>474.7</ele></trkpt>
      <trkpt lat="42.860250" lon="-1.572430"><ele>473.4</ele></trkpt>
      <trkpt lat="42.859850" lon="-1.573150"><ele>468.6</ele></trkpt>
      <trkpt lat="42.859740" lon="-1.573600"><ele>464.7</ele></trkpt>
      <trkpt lat="42.860050" lon="-1.574690"><ele>467.2</ele></trkpt>
      <trkpt lat="42.857230" lon="-1.578130"><ele>471.1</ele></trkpt>
      <trkpt lat="42.856420" lon="-1.578700"><ele>469.1</ele></trkpt>
      <trkpt lat="42.855670" lon="-1.579760"><ele>472.0</ele></trkpt>
      <trkpt lat="42.855470" lon="-1.579760"><ele>469.4</ele></trkpt>
      <trkpt lat="42.854640" lon="-1.578910"><ele>457.4</ele></trkpt>
      <trkpt lat="42.853950" lon="-1.579090"><ele>456.6</ele></trkpt>
      <trkpt lat="42.852860" lon="-1.579750"><ele>459.9</ele></trkpt>
      <trkpt lat="42.852260" lon="-1.581580"><ele>455.3</ele></trkpt>
      <trkpt lat="42.852140" lon="-1.582550"><ele>453.1</ele></trkpt>
      <trkpt lat="42.852210" lon="-1.583410"><ele>455.2</ele></trkpt>
      <trkpt lat="42.852630" lon="-1.584050"><ele>466.7</ele></trkpt>
      <trkpt lat="42.851850" lon="-1.585470"><ele>481.2</ele></trkpt>
      <trkpt lat="42.851350" lon="-1.585770"><ele>481.0</ele></trkpt>
      <trkpt lat="42.851100" lon="-1.586130"><ele>486.5</ele></trkpt>
      <trkpt lat="42.850900" lon="-1.585700"><ele>473.1</ele></trkpt>
      <trkpt lat="42.849820" lon="-1.585600"><ele>466.2</ele></trkpt>
      <trkpt lat="42.849560" lon="-1.585730"><ele>466.3</ele></trkpt>
      <trkpt lat="42.847860" lon="-1.587100"><ele>465.2</ele></trkpt>
      <trkpt lat="42.844120" lon="-1.589310"><ele>463.9</ele></trkpt>
      <trkpt lat="42.843720" lon="-1.589920"><ele>471.4</ele></trkpt>
      <trkpt lat="42.842960" lon="-1.590000"><ele>465.3</ele></trkpt>
      <trkpt lat="42.842410" lon="-1.590230"><ele>464.6</ele></trkpt>
      <trkpt lat="42.841170" lon="-1.591270"><ele>470.7</ele></trkpt>
      <trkpt lat="42.840820" lon="-1.592090"><ele>476.3</ele></trkpt>
      <trkpt lat="42.839780" lon="-1.592150"><ele>475.0</ele></trkpt>
      <trkpt lat="42.839230" lon="-1.591760"><ele>469.4</ele></trkpt>
      <trkpt lat="42.838910" lon="-1.591740"><ele>469.1</ele></trkpt>
      <trkpt lat="42.838340" lon="-1.594450"><ele>492.8</ele></trkpt>
      <trkpt lat="42.838330" lon="-1.599030"><ele>479.2</ele></trkpt>
      <trkpt lat="42.837980" lon="-1.600340"><ele>468.9</ele></trkpt>
      <trkpt lat="42.837390" lon="-1.601780"><ele>456.3</ele></trkpt>
      <trkpt lat="42.836840" lon="-1.602770"><ele>446.9</ele></trkpt>
      <trkpt lat="42.836150" lon="-1.603460"><ele>440.2</ele></trkpt>
      <trkpt lat="42.836160" lon="-1.604250"><ele>436.7</ele></trkpt>
      <trkpt lat="42.835680" lon="-1.604450"><ele>437.0</ele></trkpt>
      <trkpt lat="42.834170" lon="-1.605590"><ele>434.3</ele></trkpt>
      <trkpt lat="42.831160" lon="-1.608520"><ele>434.1</ele></trkpt>
      <trkpt lat="42.830420" lon="-1.609610"><ele>433.4</ele></trkpt>
      <trkpt lat="42.829640" lon="-1.610410"><ele>433.1</ele></trkpt>
      <trkpt lat="42.828280" lon="-1.612510"><ele>430.6</ele></trkpt>
      <trkpt lat="42.828000" lon="-1.612680"><ele>430.6</ele></trkpt>
      <trkpt lat="42.827970" lon="-1.613000"><ele>431.0</ele></trkpt>
      <trkpt lat="42.825670" lon="-1.616330"><ele>437.3</ele></trkpt>
      <trkpt lat="42.823320" lon="-1.619200"><ele>428.0</ele></trkpt>
      <trkpt lat="42.823270" lon="-1.620920"><ele>423.2</ele></trkpt>
      <trkpt lat="42.822890" lon="-1.621700"><ele>421.9</ele></trkpt>
      <trkpt lat="42.823300" lon="-1.622140"><ele>420.5</ele></trkpt>
      <trkpt lat="42.823220" lon="-1.622710"><ele>419.4</ele></trkpt>
      <trkpt lat="42.821160" lon="-1.629770"><ele>419.3</ele></trkpt>
      <trkpt lat="42.821370" lon="-1.631300"><ele>419.3</ele></trkpt>
      <trkpt lat="42.821510" lon="-1.634210"><ele>419.4</ele></trkpt>
      <trkpt lat="42.820740" lon="-1.637140"><ele>418.7</ele></trkpt>
      <trkpt lat="42.820750" lon="-1.637460"><ele>418.3</ele></trkpt>
      <trkpt lat="42.821130" lon="-1.637660"><ele>418.9</ele></trkpt>
      <trkpt lat="42.820800" lon="-1.638530"><ele>422.3</ele></trkpt>
      <trkpt lat="42.820780" lon="-1.639390"><ele>428.5</ele></trkpt>
      <trkpt lat="42.821360" lon="-1.640070"><ele>429.2</ele></trkpt>
      <trkpt lat="42.821850" lon="-1.640310"><ele>426.4</ele></trkpt>
      <trkpt lat="42.821890" lon="-1.640490"><ele>426.0</ele></trkpt>
      <trkpt lat="42.821590" lon="-1.641710"><ele>427.4</ele></trkpt>
      <trkpt lat="42.821130" lon="-1.642590"><ele>439.9</ele></trkpt>
      <trkpt lat="42.821080" lon="-1.643300"><ele>438.9</ele></trkpt>
      <trkpt lat="42.819420" lon="-1.643070"><ele>453.3</ele></trkpt>
      <trkpt lat="42.819610" lon="-1.642260"><ele>456.2</ele></trkpt>
      <trkpt lat="42.819540" lon="-1.641320"><ele>457.0</ele></trkpt>
      <trkpt lat="42.819450" lon="-1.641780"><ele>456.9</ele></trkpt>
      <trkpt lat="42.818510" lon="-1.643110"><ele>457.1</ele></trkpt>
      <trkpt lat="42.818320" lon="-1.643650"><ele>458.8</ele></trkpt>
      <trkpt lat="42.818180" lon="-1.644240"><ele>459.3</ele></trkpt>
      <trkpt lat="42.818320" lon="-1.645160"><ele>460.6</ele></trkpt>
      <trkpt lat="42.817010" lon="-1.649210"><ele>452.0</ele></trkpt>
      <trkpt lat="42.815410" lon="-1.651640"><ele>449.0</ele></trkpt>
      <trkpt lat="42.815120" lon="-1.651640"><ele>450.7</ele></trkpt>
      <trkpt lat="42.814710" lon="-1.652210"><ele>452.6</ele></trkpt>
      <trkpt lat="42.814180" lon="-1.652380"><ele>455.4</ele></trkpt>
      <trkpt lat="42.813140" lon="-1.653700"><ele>450.0</ele></trkpt>
      <trkpt lat="42.812490" lon="-1.654300"><ele>452.6</ele></trkpt>
      <trkpt lat="42.812100" lon="-1.654310"><ele>454.5</ele></trkpt>
      <trkpt lat="42.810060" lon="-1.653000"><ele>452.3</ele></trkpt>
      <trkpt lat="42.809280" lon="-1.653250"><ele>456.1</ele></trkpt>
      <trkpt lat="42.809250" lon="-1.653820"><ele>455.3</ele></trkpt>
      <trkpt lat="42.808810" lon="-1.653930"><ele>455.4</ele></trkpt>
      <trkpt lat="42.808630" lon="-1.654140"><ele>455.0</ele></trkpt>
      <trkpt lat="42.807130" lon="-1.656670"><ele>451.4</ele></trkpt>
      <trkpt lat="42.806330" lon="-1.658370"><ele>446.7</ele></trkpt>
      <trkpt lat="42.805670" lon="-1.659230"><ele>443.5</ele></trkpt>
      <trkpt lat="42.804900" lon="-1.660040"><ele>439.2</ele></trkpt>
      <trkpt lat="42.804520" lon="-1.660110"><ele>436.0</ele></trkpt>
      <trkpt lat="42.804230" lon="-1.660590"><ele>434.9</ele></trkpt>
      <trkpt lat="42.802950" lon="-1.661660"><ele>426.5</ele></trkpt>
      <trkpt lat="42.801510" lon="-1.663270"><ele>417.2</ele></trkpt>
      <trkpt lat="42.801510" lon="-1.663950"><ele>416.7</ele></trkpt>
      <trkpt lat="42.801200" lon="-1.665080"><ele>414.6</ele></trkpt>
      <trkpt lat="42.800310" lon="-1.665520"><ele>413.6</ele></trkpt>
      <trkpt lat="42.799830" lon="-1.665920"><ele>413.0</ele></trkpt>
      <trkpt lat="42.799550" lon="-1.665910"><ele>412.7</ele></trkpt>
      <trkpt lat="42.798010" lon="-1.666970"><ele>411.3</ele></trkpt>
      <trkpt lat="42.797090" lon="-1.668390"><ele>412.4</ele></trkpt>
      <trkpt lat="42.795890" lon="-1.669470"><ele>411.6</ele></trkpt>
      <trkpt lat="42.795070" lon="-1.671600"><ele>416.4</ele></trkpt>
      <trkpt lat="42.794000" lon="-1.673130"><ele>418.3</ele></trkpt>
      <trkpt lat="42.793690" lon="-1.673130"><ele>419.2</ele></trkpt>
      <trkpt lat="42.792300" lon="-1.673800"><ele>429.5</ele></trkpt>
      <trkpt lat="42.790950" lon="-1.674720"><ele>436.4</ele></trkpt>
      <trkpt lat="42.790400" lon="-1.674940"><ele>441.9</ele></trkpt>
      <trkpt lat="42.788420" lon="-1.675240"><ele>463.8</ele></trkpt>
      <trkpt lat="42.787980" lon="-1.675890"><ele>465.8</ele></trkpt>
      <trkpt lat="42.787950" lon="-1.676260"><ele>466.3</ele></trkpt>
      <trkpt lat="42.786370" lon="-1.677080"><ele>460.8</ele></trkpt>
      <trkpt lat="42.785870" lon="-1.678450"><ele>456.7</ele></trkpt>
      <trkpt lat="42.784040" lon="-1.680430"><ele>440.6</ele></trkpt>
      <trkpt lat="42.782650" lon="-1.681560"><ele>434.1</ele></trkpt>
      <trkpt lat="42.781910" lon="-1.682650"><ele>434.4</ele></trkpt>
      <trkpt lat="42.780120" lon="-1.685920"><ele>438.4</ele></trkpt>
      <trkpt lat="42.778140" lon="-1.688360"><ele>443.1</ele></trkpt>
      <trkpt lat="42.778000" lon="-1.688730"><ele>443.1</ele></trkpt>
      <trkpt lat="42.778060" lon="-1.689870"><ele>443.5</ele></trkpt>
      <trkpt lat="42.775500" lon="-1.691150"><ele>454.9</ele></trkpt>
      <trkpt lat="42.775060" lon="-1.691490"><ele>458.4</ele></trkpt>
      <trkpt lat="42.773460" lon="-1.693540"><ele>472.8</ele></trkpt>
      <trkpt lat="42.772780" lon="-1.694150"><ele>475.6</ele></trkpt>
      <trkpt lat="42.772040" lon="-1.695320"><ele>484.1</ele></trkpt>
      <trkpt lat="42.771390" lon="-1.696750"><ele>493.1</ele></trkpt>
      <trkpt lat="42.771190" lon="-1.697910"><ele>495.4</ele></trkpt>
      <trkpt lat="42.770620" lon="-1.698910"><ele>492.4</ele></trkpt>
      <trkpt lat="42.769120" lon="-1.700510"><ele>488.5</ele></trkpt>
      <trkpt lat="42.767390" lon="-1.701630"><ele>492.3</ele></trkpt>
      <trkpt lat="42.766930" lon="-1.702170"><ele>491.6</ele></trkpt>
      <trkpt lat="42.765280" lon="-1.705200"><ele>491.4</ele></trkpt>
      <trkpt lat="42.764900" lon="-1.706880"><ele>496.1</ele></trkpt>
      <trkpt lat="42.764520" lon="-1.707800"><ele>499.5</ele></trkpt>
      <trkpt lat="42.763140" lon="-1.709260"><ele>502.2</ele></trkpt>
      <trkpt lat="42.762990" lon="-1.710110"><ele>505.8</ele></trkpt>
      <trkpt lat="42.761860" lon="-1.711510"><ele>515.1</ele></trkpt>
      <trkpt lat="42.761450" lon="-1.712450"><ele>518.1</ele></trkpt>
      <trkpt lat="42.760540" lon="-1.713100"><ele>521.4</ele></trkpt>
      <trkpt lat="42.756960" lon="-1.714990"><ele>546.1</ele></trkpt>
      <trkpt lat="42.753360" lon="-1.718080"><ele>585.3</ele></trkpt>
      <trkpt lat="42.752410" lon="-1.718500"><ele>597.1</ele></trkpt>
      <trkpt lat="42.751360" lon="-1.719600"><ele>602.1</ele></trkpt>
      <trkpt lat="42.750550" lon="-1.719870"><ele>602.5</ele></trkpt>
      <trkpt lat="42.750140" lon="-1.719760"><ele>604.9</ele></trkpt>
      <trkpt lat="42.749870" lon="-1.719870"><ele>605.0</ele></trkpt>
      <trkpt lat="42.748110" lon="-1.722920"><ele>623.3</ele></trkpt>
      <trkpt lat="42.747540" lon="-1.723280"><ele>625.8</ele></trkpt>
      <trkpt lat="42.746300" lon="-1.723490"><ele>632.3</ele></trkpt>
      <trkpt lat="42.745210" lon="-1.724610"><ele>628.2</ele></trkpt>
      <trkpt lat="42.743430" lon="-1.725910"><ele>630.7</ele></trkpt>
      <trkpt lat="42.742770" lon="-1.726890"><ele>640.1</ele></trkpt>
      <trkpt lat="42.742060" lon="-1.727380"><ele>655.6</ele></trkpt>
      <trkpt lat="42.741900" lon="-1.728460"><ele>662.7</ele></trkpt>
      <trkpt lat="42.741260" lon="-1.729290"><ele>669.9</ele></trkpt>
      <trkpt lat="42.740490" lon="-1.729700"><ele>685.6</ele></trkpt>
      <trkpt lat="42.740430" lon="-1.730970"><ele>687.8</ele></trkpt>
      <trkpt lat="42.739650" lon="-1.732080"><ele>700.4</ele></trkpt>
      <trkpt lat="42.739350" lon="-1.732990"><ele>702.4</ele></trkpt>
      <trkpt lat="42.738790" lon="-1.733870"><ele>709.4</ele></trkpt>
      <trkpt lat="42.738080" lon="-1.735550"><ele>714.4</ele></trkpt>
      <trkpt lat="42.737200" lon="-1.738890"><ele>728.0</ele></trkpt>
      <trkpt lat="42.736420" lon="-1.739920"><ele>745.0</ele></trkpt>
      <trkpt lat="42.736100" lon="-1.740870"><ele>752.7</ele></trkpt>
      <trkpt lat="42.735730" lon="-1.742810"><ele>748.3</ele></trkpt>
      <trkpt lat="42.735410" lon="-1.742880"><ele>748.9</ele></trkpt>
      <trkpt lat="42.735250" lon="-1.743220"><ele>745.3</ele></trkpt>
      <trkpt lat="42.735050" lon="-1.744000"><ele>735.4</ele></trkpt>
      <trkpt lat="42.734920" lon="-1.745740"><ele>718.6</ele></trkpt>
      <trkpt lat="42.734520" lon="-1.746860"><ele>700.8</ele></trkpt>
      <trkpt lat="42.732710" lon="-1.748840"><ele>650.5</ele></trkpt>
      <trkpt lat="42.731100" lon="-1.749190"><ele>617.5</ele></trkpt>
      <trkpt lat="42.730310" lon="-1.749090"><ele>603.4</ele></trkpt>
      <trkpt lat="42.729910" lon="-1.748850"><ele>597.4</ele></trkpt>
      <trkpt lat="42.729060" lon="-1.748810"><ele>583.5</ele></trkpt>
      <trkpt lat="42.726210" lon="-1.749670"><ele>561.2</ele></trkpt>
      <trkpt lat="42.724450" lon="-1.749500"><ele>547.7</ele></trkpt>
      <trkpt lat="42.723320" lon="-1.749600"><ele>535.6</ele></trkpt>
      <trkpt lat="42.721940" lon="-1.750830"><ele>525.7</ele></trkpt>
      <trkpt lat="42.720590" lon="-1.752660"><ele>512.0</ele></trkpt>
      <trkpt lat="42.719600" lon="-1.753460"><ele>508.6</ele></trkpt>
      <trkpt lat="42.718950" lon="-1.753640"><ele>505.0</ele></trkpt>
      <trkpt lat="42.716980" lon="-1.753660"><ele>499.0</ele></trkpt>
      <trkpt lat="42.715840" lon="-1.754490"><ele>503.5</ele></trkpt>
      <trkpt lat="42.715110" lon="-1.755770"><ele>504.1</ele></trkpt>
      <trkpt lat="42.713860" lon="-1.756810"><ele>499.9</ele></trkpt>
      <trkpt lat="42.710840" lon="-1.758130"><ele>498.3</ele></trkpt>
      <trkpt lat="42.708720" lon="-1.761330"><ele>484.9</ele></trkpt>
      <trkpt lat="42.708180" lon="-1.761230"><ele>486.9</ele></trkpt>
      <trkpt lat="42.707820" lon="-1.760790"><ele>487.8</ele></trkpt>
      <trkpt lat="42.705980" lon="-1.760950"><ele>478.9</ele></trkpt>
      <trkpt lat="42.705320" lon="-1.759590"><ele>468.7</ele></trkpt>
      <trkpt lat="42.704700" lon="-1.760210"><ele>464.7</ele></trkpt>
      <trkpt lat="42.703230" lon="-1.760480"><ele>468.1</ele></trkpt>
      <trkpt lat="42.702410" lon="-1.761060"><ele>470.1</ele></trkpt>
      <trkpt lat="42.701500" lon="-1.761230"><ele>472.1</ele></trkpt>
      <trkpt lat="42.700760" lon="-1.761950"><ele>469.8</ele></trkpt>
      <trkpt lat="42.700340" lon="-1.762810"><ele>465.7</ele></trkpt>
      <trkpt lat="42.699180" lon="-1.763240"><ele>463.8</ele></trkpt>
      <trkpt lat="42.698570" lon="-1.763670"><ele>461.1</ele></trkpt>
      <trkpt lat="42.697870" lon="-1.764680"><ele>456.7</ele></trkpt>
      <trkpt lat="42.695140" lon="-1.767620"><ele>447.6</ele></trkpt>
      <trkpt lat="42.691710" lon="-1.769310"><ele>444.7</ele></trkpt>
      <trkpt lat="42.690350" lon="-1.770680"><ele>439.2</ele></trkpt>
      <trkpt lat="42.689560" lon="-1.771210"><ele>439.9</ele></trkpt>
      <trkpt lat="42.689560" lon="-1.771270"><ele>439.7</ele></trkpt>
      <trkpt lat="42.689410" lon="-1.771390"><ele>439.7</ele></trkpt>
      <trkpt lat="42.689310" lon="-1.771490"><ele>439.7</ele></trkpt>
      <trkpt lat="42.689130" lon="-1.771670"><ele>439.3</ele></trkpt>
      <trkpt lat="42.688940" lon="-1.771790"><ele>437.0</ele></trkpt>
      <trkpt lat="42.688810" lon="-1.771870"><ele>436.4</ele></trkpt>
      <trkpt lat="42.688720" lon="-1.771920"><ele>436.3</ele></trkpt>
      <trkpt lat="42.688190" lon="-1.772230"><ele>436.4</ele></trkpt>
      <trkpt lat="42.687970" lon="-1.772370"><ele>436.2</ele></trkpt>
      <trkpt lat="42.687800" lon="-1.772540"><ele>430.4</ele></trkpt>
      <trkpt lat="42.687780" lon="-1.772650"><ele>429.9</ele></trkpt>
      <trkpt lat="42.687730" lon="-1.772950"><ele>427.4</ele></trkpt>
      <trkpt lat="42.687670" lon="-1.773150"><ele>425.5</ele></trkpt>
      <trkpt lat="42.687460" lon="-1.773490"><ele>420.2</ele></trkpt>
      <trkpt lat="42.687170" lon="-1.773860"><ele>417.6</ele></trkpt>
      <trkpt lat="42.686830" lon="-1.774360"><ele>410.9</ele></trkpt>
      <trkpt lat="42.686650" lon="-1.774630"><ele>410.7</ele></trkpt>
      <trkpt lat="42.686440" lon="-1.774870"><ele>409.6</ele></trkpt>
      <trkpt lat="42.686120" lon="-1.775180"><ele>404.5</ele></trkpt>
      <trkpt lat="42.685520" lon="-1.775650"><ele>402.0</ele></trkpt>
      <trkpt lat="42.685290" lon="-1.775860"><ele>396.9</ele></trkpt>
      <trkpt lat="42.685060" lon="-1.776120"><ele>396.3</ele></trkpt>
      <trkpt lat="42.684670" lon="-1.776650"><ele>395.2</ele></trkpt>
      <trkpt lat="42.684430" lon="-1.777010"><ele>393.9</ele></trkpt>
      <trkpt lat="42.684210" lon="-1.776340"><ele>395.8</ele></trkpt>
      <trkpt lat="42.683930" lon="-1.776540"><ele>396.8</ele></trkpt>
      <trkpt lat="42.683380" lon="-1.776860"><ele>393.4</ele></trkpt>
      <trkpt lat="42.683310" lon="-1.776910"><ele>394.4</ele></trkpt>
      <trkpt lat="42.683160" lon="-1.777000"><ele>394.5</ele></trkpt>
      <trkpt lat="42.683060" lon="-1.777090"><ele>394.5</ele></trkpt>
      <trkpt lat="42.682660" lon="-1.777330"><ele>393.7</ele></trkpt>
      <trkpt lat="42.682380" lon="-1.777510"><ele>391.0</ele></trkpt>
      <trkpt lat="42.681990" lon="-1.777810"><ele>391.1</ele></trkpt>
      <trkpt lat="42.680730" lon="-1.778750"><ele>388.0</ele></trkpt>
      <trkpt lat="42.680170" lon="-1.779180"><ele>385.1</ele></trkpt>
      <trkpt lat="42.680150" lon="-1.779190"><ele>385.1</ele></trkpt>
      <trkpt lat="42.679910" lon="-1.780450"><ele>386.7</ele></trkpt>
      <trkpt lat="42.679830" lon="-1.780950"><ele>389.1</ele></trkpt>
      <trkpt lat="42.679050" lon="-1.782840"><ele>405.5</ele></trkpt>
      <trkpt lat="42.679360" lon="-1.783720"><ele>413.8</ele></trkpt>
      <trkpt lat="42.679460" lon="-1.784660"><ele>415.3</ele></trkpt>
      <trkpt lat="42.679690" lon="-1.784920"><ele>415.6</ele></trkpt>
      <trkpt lat="42.679910" lon="-1.785750"><ele>414.4</ele></trkpt>
      <trkpt lat="42.679370" lon="-1.786300"><ele>412.9</ele></trkpt>
      <trkpt lat="42.679280" lon="-1.786990"><ele>410.9</ele></trkpt>
      <trkpt lat="42.678940" lon="-1.787660"><ele>406.8</ele></trkpt>
      <trkpt lat="42.679360" lon="-1.789960"><ele>404.2</ele></trkpt>
      <trkpt lat="42.679380" lon="-1.791040"><ele>401.0</ele></trkpt>
      <trkpt lat="42.679130" lon="-1.791930"><ele>398.8</ele></trkpt>
      <trkpt lat="42.678440" lon="-1.793230"><ele>389.6</ele></trkpt>
      <trkpt lat="42.677630" lon="-1.798610"><ele>358.9</ele></trkpt>
      <trkpt lat="42.676880" lon="-1.800320"><ele>354.7</ele></trkpt>
      <trkpt lat="42.676850" lon="-1.800900"><ele>353.1</ele></trkpt>
      <trkpt lat="42.677110" lon="-1.801950"><ele>354.4</ele></trkpt>
      <trkpt lat="42.676440" lon="-1.806290"><ele>355.9</ele></trkpt>
      <trkpt lat="42.673580" lon="-1.810370"><ele>354.4</ele></trkpt>
      <trkpt lat="42.673330" lon="-1.810430"><ele>353.0</ele></trkpt>
      <trkpt lat="42.672980" lon="-1.810820"><ele>351.9</ele></trkpt>
      <trkpt lat="42.672380" lon="-1.813190"><ele>348.6</ele></trkpt>
      <trkpt lat="42.671490" lon="-1.817940"><ele>344.2</ele></trkpt>
      <trkpt lat="42.670960" lon="-1.819180"><ele>342.8</ele></trkpt>
      <trkpt lat="42.670730" lon="-1.819340"><ele>345.2</ele></trkpt>
      <trkpt lat="42.669780" lon="-1.819000"><ele>342.3</ele></trkpt>
      <trkpt lat="42.669120" lon="-1.819840"><ele>344.4</ele></trkpt>
      <trkpt lat="42.667800" lon="-1.824250"><ele>341.6</ele></trkpt>
      <trkpt lat="42.666780" lon="-1.826750"><ele>336.4</ele></trkpt>
      <trkpt lat="42.666350" lon="-1.828880"><ele>342.2</ele></trkpt>
      <trkpt lat="42.665810" lon="-1.829970"><ele>341.9</ele></trkpt>
      <trkpt lat="42.665430" lon="-1.831510"><ele>345.2</ele></trkpt>
      <trkpt lat="42.664360" lon="-1.834000"><ele>342.1</ele></trkpt>
      <trkpt lat="42.663970" lon="-1.837560"><ele>345.9</ele></trkpt>
      <trkpt lat="42.663640" lon="-1.838640"><ele>345.9</ele></trkpt>
      <trkpt lat="42.663530" lon="-1.839870"><ele>349.8</ele></trkpt>
      <trkpt lat="42.661950" lon="-1.842090"><ele>340.7</ele></trkpt>
      <trkpt lat="42.661320" lon="-1.844790"><ele>342.1</ele></trkpt>
      <trkpt lat="42.661520" lon="-1.845360"><ele>345.1</ele></trkpt>
      <trkpt lat="42.662190" lon="-1.846170"><ele>358.2</ele></trkpt>
      <trkpt lat="42.662750" lon="-1.846680"><ele>366.8</ele></trkpt>
      <trkpt lat="42.663980" lon="-1.847190"><ele>379.4</ele></trkpt>
      <trkpt lat="42.665710" lon="-1.848860"><ele>402.8</ele></trkpt>
      <trkpt lat="42.666030" lon="-1.850730"><ele>423.2</ele></trkpt>
      <trkpt lat="42.667180" lon="-1.853560"><ele>468.0</ele></trkpt>
      <trkpt lat="42.668090" lon="-1.857420"><ele>471.2</ele></trkpt>
      <trkpt lat="42.668970" lon="-1.859150"><ele>469.5</ele></trkpt>
      <trkpt lat="42.669210" lon="-1.859320"><ele>469.1</ele></trkpt>
      <trkpt lat="42.669170" lon="-1.861550"><ele>454.5</ele></trkpt>
      <trkpt lat="42.668940" lon="-1.862070"><ele>451.4</ele></trkpt>
      <trkpt lat="42.668910" lon="-1.863630"><ele>452.0</ele></trkpt>
      <trkpt lat="42.668710" lon="-1.864100"><ele>450.0</ele></trkpt>
      <trkpt lat="42.668780" lon="-1.865540"><ele>448.5</ele></trkpt>
      <trkpt lat="42.669130" lon="-1.867940"><ele>455.5</ele></trkpt>
      <trkpt lat="42.669430" lon="-1.868990"><ele>453.3</ele></trkpt>
      <trkpt lat="42.669380" lon="-1.870260"><ele>453.5</ele></trkpt>
      <trkpt lat="42.669990" lon="-1.871660"><ele>452.3</ele></trkpt>
      <trkpt lat="42.670260" lon="-1.873010"><ele>452.6</ele></trkpt>
      <trkpt lat="42.670560" lon="-1.873470"><ele>452.8</ele></trkpt>
      <trkpt lat="42.671220" lon="-1.876640"><ele>443.2</ele></trkpt>
      <trkpt lat="42.670950" lon="-1.878100"><ele>442.0</ele></trkpt>
      <trkpt lat="42.671140" lon="-1.879380"><ele>437.6</ele></trkpt>
      <trkpt lat="42.671990" lon="-1.880990"><ele>440.7</ele></trkpt>
      <trkpt lat="42.674150" lon="-1.883660"><ele>453.6</ele></trkpt>
      <trkpt lat="42.674890" lon="-1.885680"><ele>463.5</ele></trkpt>
      <trkpt lat="42.675580" lon="-1.888930"><ele>466.9</ele></trkpt>
      <trkpt lat="42.675960" lon="-1.889650"><ele>473.6</ele></trkpt>
      <trkpt lat="42.676090" lon="-1.890460"><ele>484.1</ele></trkpt>
      <trkpt lat="42.675750" lon="-1.891180"><ele>492.2</ele></trkpt>
      <trkpt lat="42.675520" lon="-1.891130"><ele>490.1</ele></trkpt>
      <trkpt lat="42.675390" lon="-1.891520"><ele>489.7</ele></trkpt>
      <trkpt lat="42.675170" lon="-1.891560"><ele>486.4</ele></trkpt>
      <trkpt lat="42.675370" lon="-1.892230"><ele>485.6</ele></trkpt>
      <trkpt lat="42.675270" lon="-1.892960"><ele>474.6</ele></trkpt>
      <trkpt lat="42.675970" lon="-1.894010"><ele>465.7</ele></trkpt>
      <trkpt lat="42.677590" lon="-1.895300"><ele>447.9</ele></trkpt>
      <trkpt lat="42.677670" lon="-1.895580"><ele>449.4</ele></trkpt>
      <trkpt lat="42.677250" lon="-1.895850"><ele>444.9</ele></trkpt>
      <trkpt lat="42.677180" lon="-1.896400"><ele>448.5</ele></trkpt>
      <trkpt lat="42.677360" lon="-1.896650"><ele>450.6</ele></trkpt>
      <trkpt lat="42.678160" lon="-1.896950"><ele>458.3</ele></trkpt>
      <trkpt lat="42.678160" lon="-1.897330"><ele>459.0</ele></trkpt>
      <trkpt lat="42.677810" lon="-1.898250"><ele>454.9</ele></trkpt>
      <trkpt lat="42.677810" lon="-1.900560"><ele>455.3</ele></trkpt>
      <trkpt lat="42.678150" lon="-1.902340"><ele>448.9</ele></trkpt>
      <trkpt lat="42.678200" lon="-1.904000"><ele>438.5</ele></trkpt>
      <trkpt lat="42.678420" lon="-1.904760"><ele>435.9</ele></trkpt>
      <trkpt lat="42.679060" lon="-1.905730"><ele>432.9</ele></trkpt>
      <trkpt lat="42.679230" lon="-1.906250"><ele>429.0</ele></trkpt>
      <trkpt lat="42.679100" lon="-1.908940"><ele>436.4</ele></trkpt>
      <trkpt lat="42.679300" lon="-1.910690"><ele>441.6</ele></trkpt>
      <trkpt lat="42.679210" lon="-1.912580"><ele>440.5</ele></trkpt>
      <trkpt lat="42.679530" lon="-1.913190"><ele>437.4</ele></trkpt>
      <trkpt lat="42.679710" lon="-1.914260"><ele>433.9</ele></trkpt>
      <trkpt lat="42.679570" lon="-1.915990"><ele>426.4</ele></trkpt>
      <trkpt lat="42.679090" lon="-1.916950"><ele>427.6</ele></trkpt>
      <trkpt lat="42.679230" lon="-1.918460"><ele>431.3</ele></trkpt>
      <trkpt lat="42.679100" lon="-1.919220"><ele>422.7</ele></trkpt>
      <trkpt lat="42.679380" lon="-1.919490"><ele>416.7</ele></trkpt>
      <trkpt lat="42.679340" lon="-1.921930"><ele>402.7</ele></trkpt>
      <trkpt lat="42.680300" lon="-1.926410"><ele>384.0</ele></trkpt>
      <trkpt lat="42.679960" lon="-1.927200"><ele>380.7</ele></trkpt>
      <trkpt lat="42.679960" lon="-1.928380"><ele>386.1</ele></trkpt>
      <trkpt lat="42.679290" lon="-1.928840"><ele>382.5</ele></trkpt>
      <trkpt lat="42.678900" lon="-1.930780"><ele>391.5</ele></trkpt>
      <trkpt lat="42.679230" lon="-1.931610"><ele>390.9</ele></trkpt>
      <trkpt lat="42.680570" lon="-1.933050"><ele>388.4</ele></trkpt>
      <trkpt lat="42.680770" lon="-1.934850"><ele>389.1</ele></trkpt>
      <trkpt lat="42.681250" lon="-1.936220"><ele>388.4</ele></trkpt>
      <trkpt lat="42.680930" lon="-1.937190"><ele>390.7</ele></trkpt>
      <trkpt lat="42.679600" lon="-1.937780"><ele>399.8</ele></trkpt>
      <trkpt lat="42.678860" lon="-1.938370"><ele>408.4</ele></trkpt>
      <trkpt lat="42.678280" lon="-1.938370"><ele>408.8</ele></trkpt>
      <trkpt lat="42.678040" lon="-1.938700"><ele>412.4</ele></trkpt>
      <trkpt lat="42.677800" lon="-1.938610"><ele>410.4</ele></trkpt>
      <trkpt lat="42.676260" lon="-1.940280"><ele>421.6</ele></trkpt>
      <trkpt lat="42.675520" lon="-1.940840"><ele>423.7</ele></trkpt>
      <trkpt lat="42.674810" lon="-1.942540"><ele>436.2</ele></trkpt>
      <trkpt lat="42.673650" lon="-1.943610"><ele>455.0</ele></trkpt>
      <trkpt lat="42.671350" lon="-1.947180"><ele>455.0</ele></trkpt>
      <trkpt lat="42.670810" lon="-1.948610"><ele>459.6</ele></trkpt>
      <trkpt lat="42.669630" lon="-1.950570"><ele>473.0</ele></trkpt>
      <trkpt lat="42.669320" lon="-1.951350"><ele>475.1</ele></trkpt>
      <trkpt lat="42.667900" lon="-1.955470"><ele>478.8</ele></trkpt>
      <trkpt lat="42.667490" lon="-1.957710"><ele>479.5</ele></trkpt>
      <trkpt lat="42.666600" lon="-1.960930"><ele>489.1</ele></trkpt>
      <trkpt lat="42.666430" lon="-1.961000"><ele>489.3</ele></trkpt>
      <trkpt lat="42.666000" lon="-1.960820"><ele>488.7</ele></trkpt>
      <trkpt lat="42.665730" lon="-1.960990"><ele>488.6</ele></trkpt>
      <trkpt lat="42.664630" lon="-1.963450"><ele>481.7</ele></trkpt>
      <trkpt lat="42.664620" lon="-1.966860"><ele>473.4</ele></trkpt>
      <trkpt lat="42.664400" lon="-1.969320"><ele>465.0</ele></trkpt>
      <trkpt lat="42.663950" lon="-1.970640"><ele>457.2</ele></trkpt>
      <trkpt lat="42.663770" lon="-1.975390"><ele>448.8</ele></trkpt>
      <trkpt lat="42.663570" lon="-1.975640"><ele>447.8</ele></trkpt>
      <trkpt lat="42.663270" lon="-1.975610"><ele>446.7</ele></trkpt>
      <trkpt lat="42.663010" lon="-1.976270"><ele>444.8</ele></trkpt>
      <trkpt lat="42.663740" lon="-1.979560"><ele>439.8</ele></trkpt>
      <trkpt lat="42.663730" lon="-1.980500"><ele>437.6</ele></trkpt>
      <trkpt lat="42.663510" lon="-1.981360"><ele>435.4</ele></trkpt>
      <trkpt lat="42.663600" lon="-1.986630"><ele>428.9</ele></trkpt>
      <trkpt lat="42.662950" lon="-1.987510"><ele>427.6</ele></trkpt>
      <trkpt lat="42.662270" lon="-1.989010"><ele>426.3</ele></trkpt>
      <trkpt lat="42.661620" lon="-1.989750"><ele>425.3</ele></trkpt>
      <trkpt lat="42.661310" lon="-1.989910"><ele>425.0</ele></trkpt>
      <trkpt lat="42.661400" lon="-1.990570"><ele>425.2</ele></trkpt>
      <trkpt lat="42.660620" lon="-1.990900"><ele>423.2</ele></trkpt>
      <trkpt lat="42.660100" lon="-1.991410"><ele>422.5</ele></trkpt>
      <trkpt lat="42.659400" lon="-1.991650"><ele>422.0</ele></trkpt>
      <trkpt lat="42.659320" lon="-1.992150"><ele>423.8</ele></trkpt>
      <trkpt lat="42.659090" lon="-1.992190"><ele>423.4</ele></trkpt>
      <trkpt lat="42.658710" lon="-1.992560"><ele>424.5</ele></trkpt>
      <trkpt lat="42.658220" lon="-1.994030"><ele>436.4</ele></trkpt>
      <trkpt lat="42.658470" lon="-1.994720"><ele>440.0</ele></trkpt>
      <trkpt lat="42.659300" lon="-1.995460"><ele>441.0</ele></trkpt>
      <trkpt lat="42.659670" lon="-1.996230"><ele>439.8</ele></trkpt>
      <trkpt lat="42.660610" lon="-1.999180"><ele>439.1</ele></trkpt>
      <trkpt lat="42.661010" lon="-2.002070"><ele>446.4</ele></trkpt>
      <trkpt lat="42.661440" lon="-2.002920"><ele>447.9</ele></trkpt>
      <trkpt lat="42.661230" lon="-2.005470"><ele>445.3</ele></trkpt>
      <trkpt lat="42.661500" lon="-2.006530"><ele>434.5</ele></trkpt>
      <trkpt lat="42.661290" lon="-2.006790"><ele>432.9</ele></trkpt>
      <trkpt lat="42.661270" lon="-2.007440"><ele>423.4</ele></trkpt>
      <trkpt lat="42.661030" lon="-2.007780"><ele>419.0</ele></trkpt>
      <trkpt lat="42.660130" lon="-2.008080"><ele>418.8</ele></trkpt>
      <trkpt lat="42.659920" lon="-2.008360"><ele>417.0</ele></trkpt>
      <trkpt lat="42.660330" lon="-2.008690"><ele>411.6</ele></trkpt>
      <trkpt lat="42.660630" lon="-2.009190"><ele>409.4</ele></trkpt>
      <trkpt lat="42.660850" lon="-2.010360"><ele>412.6</ele></trkpt>
      <trkpt lat="42.661320" lon="-2.011290"><ele>421.1</ele></trkpt>
      <trkpt lat="42.662410" lon="-2.012090"><ele>427.9</ele></trkpt>
      <trkpt lat="42.663370" lon="-2.013510"><ele>427.5</ele></trkpt>
      <trkpt lat="42.663380" lon="-2.014970"><ele>426.5</ele></trkpt>
      <trkpt lat="42.663010" lon="-2.016320"><ele>431.4</ele></trkpt>
      <trkpt lat="42.662970" lon="-2.017200"><ele>425.1</ele></trkpt>
      <trkpt lat="42.662570" lon="-2.018200"><ele>422.9</ele></trkpt>
      <trkpt lat="42.662590" lon="-2.018930"><ele>425.1</ele></trkpt>
      <trkpt lat="42.663570" lon="-2.021150"><ele>425.9</ele></trkpt>
      <trkpt lat="42.663950" lon="-2.021470"><ele>424.8</ele></trkpt>
      <trkpt lat="42.664810" lon="-2.021960"><ele>424.3</ele></trkpt>
      <trkpt lat="42.665720" lon="-2.022000"><ele>426.8</ele></trkpt>
      <trkpt lat="42.666340" lon="-2.022230"><ele>428.1</ele></trkpt>
      <trkpt lat="42.666960" lon="-2.022680"><ele>432.0</ele></trkpt>
      <trkpt lat="42.668330" lon="-2.023210"><ele>424.5</ele></trkpt>
      <trkpt lat="42.668840" lon="-2.023660"><ele>426.6</ele></trkpt>
      <trkpt lat="42.669360" lon="-2.023810"><ele>422.8</ele></trkpt>
      <trkpt lat="42.669760" lon="-2.024290"><ele>421.9</ele></trkpt>
      <trkpt lat="42.669890" lon="-2.027340"><ele>424.1</ele></trkpt>
    </trkseg></trk>
</gpx>
