<?xml version='1.0' encoding='utf-8'?>
<gpx version="1.1" creator="split_camino_gpx.py" xmlns="http://www.topografix.com/GPX/1/1">
  <metadata>
    <name>Camino day11</name>
  </metadata>
  <wpt lat="42.6640879" lon="-6.9454043">
    <name>Stop 1</name>
  </wpt>
  <wpt lat="42.7078162" lon="-7.0436270">
    <name>Stop 2</name>
  </wpt>
  <wpt lat="42.7566197" lon="-7.2396223">
    <name>Stop 3</name>
  </wpt>
  <wpt lat="42.7600365" lon="-7.4165053">
    <name>Stop 4</name>
  </wpt>
  <trk>
    <name>Camino day11</name>
    <trkseg>
      <trkpt lat="42.6649300" lon="-6.9451100">
        <ele>635.9</ele>
      </trkpt>
      <trkpt lat="42.6650400" lon="-6.9458800">
        <ele>636.6</ele>
      </trkpt>
      <trkpt lat="42.6652900" lon="-6.9465900">
        <ele>636.9</ele>
      </trkpt>
      <trkpt lat="42.6652600" lon="-6.9476400">
        <ele>637.8</ele>
      </trkpt>
      <trkpt lat="42.6650700" lon="-6.9484800">
        <ele>640.2</ele>
      </trkpt>
      <trkpt lat="42.6649900" lon="-6.9492700">
        <ele>642.7</ele>
      </trkpt>
      <trkpt lat="42.6649000" lon="-6.9500700">
        <ele>645.5</ele>
      </trkpt>
      <trkpt lat="42.6648200" lon="-6.9508600">
        <ele>649.2</ele>
      </trkpt>
      <trkpt lat="42.6646800" lon="-6.9517000">
        <ele>652.3</ele>
      </trkpt>
      <trkpt lat="42.6645400" lon="-6.9525400">
        <ele>653.5</ele>
      </trkpt>
      <trkpt lat="42.6645100" lon="-6.9534400">
        <ele>653.4</ele>
      </trkpt>
      <trkpt lat="42.6643900" lon="-6.9541300">
        <ele>652.8</ele>
      </trkpt>
      <trkpt lat="42.6643900" lon="-6.9544300">
        <ele>651.5</ele>
      </trkpt>
      <trkpt lat="42.6645400" lon="-6.9546900">
        <ele>649.9</ele>
      </trkpt>
      <trkpt lat="42.6649600" lon="-6.9550900">
        <ele>649.5</ele>
      </trkpt>
      <trkpt lat="42.6653700" lon="-6.9554400">
        <ele>649.6</ele>
      </trkpt>
      <trkpt lat="42.6657800" lon="-6.9557900">
        <ele>648.9</ele>
      </trkpt>
      <trkpt lat="42.6661900" lon="-6.9561500">
        <ele>647.7</ele>
      </trkpt>
      <trkpt lat="42.6666000" lon="-6.9565000">
        <ele>647.1</ele>
      </trkpt>
      <trkpt lat="42.6670100" lon="-6.9568500">
        <ele>646.4</ele>
      </trkpt>
      <trkpt lat="42.6674100" lon="-6.9572000">
        <ele>645.3</ele>
      </trkpt>
      <trkpt lat="42.6678200" lon="-6.9575500">
        <ele>645.7</ele>
      </trkpt>
      <trkpt lat="42.6682300" lon="-6.9579000">
        <ele>647.0</ele>
      </trkpt>
      <trkpt lat="42.6686400" lon="-6.9582600">
        <ele>648.3</ele>
      </trkpt>
      <trkpt lat="42.6690500" lon="-6.9586100">
        <ele>649.7</ele>
      </trkpt>
      <trkpt lat="42.6694600" lon="-6.9589600">
        <ele>650.6</ele>
      </trkpt>
      <trkpt lat="42.6696200" lon="-6.9591500">
        <ele>650.8</ele>
      </trkpt>
      <trkpt lat="42.6699800" lon="-6.9598700">
        <ele>651.1</ele>
      </trkpt>
      <trkpt lat="42.6703400" lon="-6.9605800">
        <ele>651.2</ele>
      </trkpt>
      <trkpt lat="42.6705500" lon="-6.9611900">
        <ele>651.2</ele>
      </trkpt>
      <trkpt lat="42.6707700" lon="-6.9618100">
        <ele>651.7</ele>
      </trkpt>
      <trkpt lat="42.6709800" lon="-6.9624200">
        <ele>652.7</ele>
      </trkpt>
      <trkpt lat="42.6712000" lon="-6.9630400">
        <ele>653.4</ele>
      </trkpt>
      <trkpt lat="42.6714100" lon="-6.9636500">
        <ele>654.6</ele>
      </trkpt>
      <trkpt lat="42.6717200" lon="-6.9643400">
        <ele>656.0</ele>
      </trkpt>
      <trkpt lat="42.6720200" lon="-6.9650200">
        <ele>657.4</ele>
      </trkpt>
      <trkpt lat="42.6723000" lon="-6.9655600">
        <ele>658.2</ele>
      </trkpt>
      <trkpt lat="42.6725800" lon="-6.9660900">
        <ele>659.2</ele>
      </trkpt>
      <trkpt lat="42.6728600" lon="-6.9666300">
        <ele>660.2</ele>
      </trkpt>
      <trkpt lat="42.6729300" lon="-6.9670700">
        <ele>661.3</ele>
      </trkpt>
      <trkpt lat="42.6729200" lon="-6.9673000">
        <ele>662.2</ele>
      </trkpt>
      <trkpt lat="42.6728200" lon="-6.9676100">
        <ele>661.6</ele>
      </trkpt>
      <trkpt lat="42.6723800" lon="-6.9683300">
        <ele>660.5</ele>
      </trkpt>
      <trkpt lat="42.6717700" lon="-6.9688200">
        <ele>659.3</ele>
      </trkpt>
      <trkpt lat="42.6716600" lon="-6.9690800">
        <ele>658.8</ele>
      </trkpt>
      <trkpt lat="42.6717400" lon="-6.9692900">
        <ele>661.0</ele>
      </trkpt>
      <trkpt lat="42.6721600" lon="-6.9697600">
        <ele>665.9</ele>
      </trkpt>
      <trkpt lat="42.6725700" lon="-6.9702200">
        <ele>669.3</ele>
      </trkpt>
      <trkpt lat="42.6727000" lon="-6.9705600">
        <ele>673.7</ele>
      </trkpt>
      <trkpt lat="42.6725300" lon="-6.9714500">
        <ele>678.2</ele>
      </trkpt>
      <trkpt lat="42.6725600" lon="-6.9721300">
        <ele>679.3</ele>
      </trkpt>
      <trkpt lat="42.6725800" lon="-6.9728100">
        <ele>679.8</ele>
      </trkpt>
      <trkpt lat="42.6724400" lon="-6.9737500">
        <ele>682.2</ele>
      </trkpt>
      <trkpt lat="42.6724600" lon="-6.9743700">
        <ele>684.0</ele>
      </trkpt>
      <trkpt lat="42.6724900" lon="-6.9749800">
        <ele>685.9</ele>
      </trkpt>
      <trkpt lat="42.6725100" lon="-6.9756000">
        <ele>688.1</ele>
      </trkpt>
      <trkpt lat="42.6725300" lon="-6.9762100">
        <ele>689.7</ele>
      </trkpt>
      <trkpt lat="42.6723900" lon="-6.9771700">
        <ele>691.4</ele>
      </trkpt>
      <trkpt lat="42.6723500" lon="-6.9778100">
        <ele>692.4</ele>
      </trkpt>
      <trkpt lat="42.6723100" lon="-6.9784400">
        <ele>692.2</ele>
      </trkpt>
      <trkpt lat="42.6722900" lon="-6.9785400">
        <ele>691.1</ele>
      </trkpt>
      <trkpt lat="42.6722000" lon="-6.9786100">
        <ele>687.8</ele>
      </trkpt>
      <trkpt lat="42.6719200" lon="-6.9786000">
        <ele>683.9</ele>
      </trkpt>
      <trkpt lat="42.6711600" lon="-6.9789100">
        <ele>679.6</ele>
      </trkpt>
      <trkpt lat="42.6711000" lon="-6.9789800">
        <ele>676.3</ele>
      </trkpt>
      <trkpt lat="42.6708900" lon="-6.9797400">
        <ele>674.8</ele>
      </trkpt>
      <trkpt lat="42.6709200" lon="-6.9805900">
        <ele>676.0</ele>
      </trkpt>
      <trkpt lat="42.6708300" lon="-6.9809900">
        <ele>678.0</ele>
      </trkpt>
      <trkpt lat="42.6705500" lon="-6.9815000">
        <ele>679.4</ele>
      </trkpt>
      <trkpt lat="42.6705000" lon="-6.9822200">
        <ele>679.7</ele>
      </trkpt>
      <trkpt lat="42.6707500" lon="-6.9828400">
        <ele>679.6</ele>
      </trkpt>
      <trkpt lat="42.6710100" lon="-6.9834600">
        <ele>679.0</ele>
      </trkpt>
      <trkpt lat="42.6712600" lon="-6.9840800">
        <ele>677.8</ele>
      </trkpt>
      <trkpt lat="42.6714500" lon="-6.9846600">
        <ele>677.5</ele>
      </trkpt>
      <trkpt lat="42.6716400" lon="-6.9852300">
        <ele>678.6</ele>
      </trkpt>
      <trkpt lat="42.6718000" lon="-6.9859300">
        <ele>680.2</ele>
      </trkpt>
      <trkpt lat="42.6721300" lon="-6.9864000">
        <ele>681.8</ele>
      </trkpt>
      <trkpt lat="42.6723100" lon="-6.9868600">
        <ele>683.2</ele>
      </trkpt>
      <trkpt lat="42.6725600" lon="-6.9872300">
        <ele>684.5</ele>
      </trkpt>
      <trkpt lat="42.6729100" lon="-6.9881900">
        <ele>685.6</ele>
      </trkpt>
      <trkpt lat="42.6729400" lon="-6.9888900">
        <ele>686.3</ele>
      </trkpt>
      <trkpt lat="42.6727400" lon="-6.9899100">
        <ele>687.3</ele>
      </trkpt>
      <trkpt lat="42.6727500" lon="-6.9901700">
        <ele>688.4</ele>
      </trkpt>
      <trkpt lat="42.6728000" lon="-6.9904900">
        <ele>689.6</ele>
      </trkpt>
      <trkpt lat="42.6729900" lon="-6.9906900">
        <ele>690.6</ele>
      </trkpt>
      <trkpt lat="42.6730300" lon="-6.9909800">
        <ele>691.9</ele>
      </trkpt>
      <trkpt lat="42.6731600" lon="-6.9910600">
        <ele>693.3</ele>
      </trkpt>
      <trkpt lat="42.6731900" lon="-6.9911600">
        <ele>695.6</ele>
      </trkpt>
      <trkpt lat="42.6730700" lon="-6.9923400">
        <ele>697.6</ele>
      </trkpt>
      <trkpt lat="42.6732200" lon="-6.9929900">
        <ele>699.3</ele>
      </trkpt>
      <trkpt lat="42.6733300" lon="-6.9932300">
        <ele>700.5</ele>
      </trkpt>
      <trkpt lat="42.6735000" lon="-6.9934200">
        <ele>701.1</ele>
      </trkpt>
      <trkpt lat="42.6736600" lon="-6.9935600">
        <ele>701.8</ele>
      </trkpt>
      <trkpt lat="42.6739500" lon="-6.9936700">
        <ele>703.4</ele>
      </trkpt>
      <trkpt lat="42.6745600" lon="-6.9943200">
        <ele>706.0</ele>
      </trkpt>
      <trkpt lat="42.6749400" lon="-6.9950900">
        <ele>711.8</ele>
      </trkpt>
      <trkpt lat="42.6753200" lon="-6.9953200">
        <ele>720.9</ele>
      </trkpt>
      <trkpt lat="42.6758700" lon="-6.9958400">
        <ele>729.3</ele>
      </trkpt>
      <trkpt lat="42.6761000" lon="-6.9967900">
        <ele>736.4</ele>
      </trkpt>
      <trkpt lat="42.6760900" lon="-6.9969500">
        <ele>740.4</ele>
      </trkpt>
      <trkpt lat="42.6759000" lon="-6.9975900">
        <ele>741.5</ele>
      </trkpt>
      <trkpt lat="42.6756200" lon="-6.9980300">
        <ele>742.1</ele>
      </trkpt>
      <trkpt lat="42.6756400" lon="-6.9981700">
        <ele>742.7</ele>
      </trkpt>
      <trkpt lat="42.6760200" lon="-6.9988200">
        <ele>742.8</ele>
      </trkpt>
      <trkpt lat="42.6762300" lon="-6.9994000">
        <ele>744.9</ele>
      </trkpt>
      <trkpt lat="42.6764400" lon="-6.9999700">
        <ele>747.5</ele>
      </trkpt>
      <trkpt lat="42.6766100" lon="-7.0001500">
        <ele>749.0</ele>
      </trkpt>
      <trkpt lat="42.6767800" lon="-7.0002100">
        <ele>751.1</ele>
      </trkpt>
      <trkpt lat="42.6773300" lon="-7.0001600">
        <ele>755.3</ele>
      </trkpt>
      <trkpt lat="42.6775100" lon="-7.0002300">
        <ele>760.9</ele>
      </trkpt>
      <trkpt lat="42.6780900" lon="-7.0007900">
        <ele>767.0</ele>
      </trkpt>
      <trkpt lat="42.6784500" lon="-7.0010300">
        <ele>771.6</ele>
      </trkpt>
      <trkpt lat="42.6787300" lon="-7.0013300">
        <ele>775.5</ele>
      </trkpt>
      <trkpt lat="42.6792900" lon="-7.0022000">
        <ele>778.5</ele>
      </trkpt>
      <trkpt lat="42.6797300" lon="-7.0027300">
        <ele>779.9</ele>
      </trkpt>
      <trkpt lat="42.6799000" lon="-7.0028200">
        <ele>781.6</ele>
      </trkpt>
      <trkpt lat="42.6800800" lon="-7.0030900">
        <ele>782.7</ele>
      </trkpt>
      <trkpt lat="42.6802300" lon="-7.0036300">
        <ele>784.6</ele>
      </trkpt>
      <trkpt lat="42.6799300" lon="-7.0034500">
        <ele>786.8</ele>
      </trkpt>
      <trkpt lat="42.6797500" lon="-7.0034600">
        <ele>792.1</ele>
      </trkpt>
      <trkpt lat="42.6797500" lon="-7.0036200">
        <ele>797.0</ele>
      </trkpt>
      <trkpt lat="42.6800100" lon="-7.0041000">
        <ele>805.1</ele>
      </trkpt>
      <trkpt lat="42.6803600" lon="-7.0043500">
        <ele>813.0</ele>
      </trkpt>
      <trkpt lat="42.6807700" lon="-7.0048800">
        <ele>822.6</ele>
      </trkpt>
      <trkpt lat="42.6810300" lon="-7.0050900">
        <ele>830.9</ele>
      </trkpt>
      <trkpt lat="42.6814400" lon="-7.0057200">
        <ele>838.3</ele>
      </trkpt>
      <trkpt lat="42.6816600" lon="-7.0063000">
        <ele>842.7</ele>
      </trkpt>
      <trkpt lat="42.6817400" lon="-7.0063700">
        <ele>846.1</ele>
      </trkpt>
      <trkpt lat="42.6818700" lon="-7.0062900">
        <ele>847.4</ele>
      </trkpt>
      <trkpt lat="42.6818300" lon="-7.0059700">
        <ele>849.0</ele>
      </trkpt>
      <trkpt lat="42.6819100" lon="-7.0058900">
        <ele>851.1</ele>
      </trkpt>
      <trkpt lat="42.6822700" lon="-7.0063000">
        <ele>856.2</ele>
      </trkpt>
      <trkpt lat="42.6823900" lon="-7.0066400">
        <ele>863.6</ele>
      </trkpt>
      <trkpt lat="42.6828200" lon="-7.0072800">
        <ele>871.9</ele>
      </trkpt>
      <trkpt lat="42.6831300" lon="-7.0076300">
        <ele>878.3</ele>
      </trkpt>
      <trkpt lat="42.6833800" lon="-7.0077900">
        <ele>883.3</ele>
      </trkpt>
      <trkpt lat="42.6834300" lon="-7.0076900">
        <ele>885.6</ele>
      </trkpt>
      <trkpt lat="42.6834000" lon="-7.0074500">
        <ele>887.7</ele>
      </trkpt>
      <trkpt lat="42.6835000" lon="-7.0073200">
        <ele>889.2</ele>
      </trkpt>
      <trkpt lat="42.6839670" lon="-7.0077040">
        <ele>891.6</ele>
      </trkpt>
      <trkpt lat="42.6840920" lon="-7.0078780">
        <ele>895.3</ele>
      </trkpt>
      <trkpt lat="42.6842110" lon="-7.0081430">
        <ele>899.1</ele>
      </trkpt>
      <trkpt lat="42.6843030" lon="-7.0086780">
        <ele>901.7</ele>
      </trkpt>
      <trkpt lat="42.6843200" lon="-7.0087270">
        <ele>903.9</ele>
      </trkpt>
      <trkpt lat="42.6846380" lon="-7.0089130">
        <ele>906.0</ele>
      </trkpt>
      <trkpt lat="42.6846400" lon="-7.0090700">
        <ele>907.4</ele>
      </trkpt>
      <trkpt lat="42.6847100" lon="-7.0094800">
        <ele>908.9</ele>
      </trkpt>
      <trkpt lat="42.6850190" lon="-7.0096740">
        <ele>910.3</ele>
      </trkpt>
      <trkpt lat="42.6851540" lon="-7.0098160">
        <ele>911.7</ele>
      </trkpt>
      <trkpt lat="42.6853670" lon="-7.0099820">
        <ele>913.7</ele>
      </trkpt>
      <trkpt lat="42.6854220" lon="-7.0100340">
        <ele>916.7</ele>
      </trkpt>
      <trkpt lat="42.6857070" lon="-7.0103660">
        <ele>920.1</ele>
      </trkpt>
      <trkpt lat="42.6859640" lon="-7.0105020">
        <ele>924.1</ele>
      </trkpt>
      <trkpt lat="42.6860400" lon="-7.0105800">
        <ele>930.1</ele>
      </trkpt>
      <trkpt lat="42.6862400" lon="-7.0106200">
        <ele>936.9</ele>
      </trkpt>
      <trkpt lat="42.6865800" lon="-7.0109800">
        <ele>942.7</ele>
      </trkpt>
      <trkpt lat="42.6868800" lon="-7.0115500">
        <ele>948.2</ele>
      </trkpt>
      <trkpt lat="42.6869120" lon="-7.0117210">
        <ele>951.7</ele>
      </trkpt>
      <trkpt lat="42.6868700" lon="-7.0118740">
        <ele>952.5</ele>
      </trkpt>
      <trkpt lat="42.6865400" lon="-7.0124900">
        <ele>951.4</ele>
      </trkpt>
      <trkpt lat="42.6869400" lon="-7.0129500">
        <ele>950.6</ele>
      </trkpt>
      <trkpt lat="42.6870600" lon="-7.0130200">
        <ele>951.2</ele>
      </trkpt>
      <trkpt lat="42.6873500" lon="-7.0130300">
        <ele>953.4</ele>
      </trkpt>
      <trkpt lat="42.6876500" lon="-7.0127100">
        <ele>957.2</ele>
      </trkpt>
      <trkpt lat="42.6878600" lon="-7.0126100">
        <ele>962.3</ele>
      </trkpt>
      <trkpt lat="42.6884500" lon="-7.0127800">
        <ele>967.3</ele>
      </trkpt>
      <trkpt lat="42.6890300" lon="-7.0129400">
        <ele>972.8</ele>
      </trkpt>
      <trkpt lat="42.6891900" lon="-7.0131200">
        <ele>979.7</ele>
      </trkpt>
      <trkpt lat="42.6894100" lon="-7.0137700">
        <ele>985.8</ele>
      </trkpt>
      <trkpt lat="42.6897800" lon="-7.0145100">
        <ele>991.5</ele>
      </trkpt>
      <trkpt lat="42.6900400" lon="-7.0148900">
        <ele>999.0</ele>
      </trkpt>
      <trkpt lat="42.6903500" lon="-7.0150200">
        <ele>1007.2</ele>
      </trkpt>
      <trkpt lat="42.6908900" lon="-7.0151100">
        <ele>1015.1</ele>
      </trkpt>
      <trkpt lat="42.6914200" lon="-7.0152000">
        <ele>1024.0</ele>
      </trkpt>
      <trkpt lat="42.6917600" lon="-7.0153200">
        <ele>1033.3</ele>
      </trkpt>
      <trkpt lat="42.6919900" lon="-7.0154900">
        <ele>1041.5</ele>
      </trkpt>
      <trkpt lat="42.6922600" lon="-7.0160400">
        <ele>1047.4</ele>
      </trkpt>
      <trkpt lat="42.6925300" lon="-7.0165800">
        <ele>1052.3</ele>
      </trkpt>
      <trkpt lat="42.6926300" lon="-7.0169400">
        <ele>1056.4</ele>
      </trkpt>
      <trkpt lat="42.6930200" lon="-7.0174900">
        <ele>1059.6</ele>
      </trkpt>
      <trkpt lat="42.6934400" lon="-7.0179200">
        <ele>1061.8</ele>
      </trkpt>
      <trkpt lat="42.6936200" lon="-7.0180300">
        <ele>1061.7</ele>
      </trkpt>
      <trkpt lat="42.6940700" lon="-7.0182100">
        <ele>1061.3</ele>
      </trkpt>
      <trkpt lat="42.6945200" lon="-7.0183900">
        <ele>1060.6</ele>
      </trkpt>
      <trkpt lat="42.6949700" lon="-7.0185700">
        <ele>1061.2</ele>
      </trkpt>
      <trkpt lat="42.6952100" lon="-7.0185900">
        <ele>1062.6</ele>
      </trkpt>
      <trkpt lat="42.6956400" lon="-7.0184300">
        <ele>1068.5</ele>
      </trkpt>
      <trkpt lat="42.6964400" lon="-7.0184600">
        <ele>1075.5</ele>
      </trkpt>
      <trkpt lat="42.6969100" lon="-7.0189200">
        <ele>1083.5</ele>
      </trkpt>
      <trkpt lat="42.6971700" lon="-7.0193300">
        <ele>1090.5</ele>
      </trkpt>
      <trkpt lat="42.6975900" lon="-7.0197800">
        <ele>1097.8</ele>
      </trkpt>
      <trkpt lat="42.6979600" lon="-7.0200300">
        <ele>1104.5</ele>
      </trkpt>
      <trkpt lat="42.6984500" lon="-7.0200900">
        <ele>1111.3</ele>
      </trkpt>
      <trkpt lat="42.6989800" lon="-7.0197900">
        <ele>1119.4</ele>
      </trkpt>
      <trkpt lat="42.6993100" lon="-7.0198400">
        <ele>1127.9</ele>
      </trkpt>
      <trkpt lat="42.6998100" lon="-7.0203100">
        <ele>1134.7</ele>
      </trkpt>
      <trkpt lat="42.7001300" lon="-7.0204800">
        <ele>1140.5</ele>
      </trkpt>
      <trkpt lat="42.7005700" lon="-7.0208200">
        <ele>1145.8</ele>
      </trkpt>
      <trkpt lat="42.7010100" lon="-7.0211500">
        <ele>1149.5</ele>
      </trkpt>
      <trkpt lat="42.7013200" lon="-7.0221000">
        <ele>1152.8</ele>
      </trkpt>
      <trkpt lat="42.7017300" lon="-7.0224300">
        <ele>1157.4</ele>
      </trkpt>
      <trkpt lat="42.7021300" lon="-7.0227500">
        <ele>1161.5</ele>
      </trkpt>
      <trkpt lat="42.7025600" lon="-7.0232700">
        <ele>1164.2</ele>
      </trkpt>
      <trkpt lat="42.7027500" lon="-7.0233700">
        <ele>1167.9</ele>
      </trkpt>
      <trkpt lat="42.7031300" lon="-7.0237800">
        <ele>1171.6</ele>
      </trkpt>
      <trkpt lat="42.7038100" lon="-7.0242100">
        <ele>1175.6</ele>
      </trkpt>
      <trkpt lat="42.7042100" lon="-7.0246800">
        <ele>1181.2</ele>
      </trkpt>
      <trkpt lat="42.7046000" lon="-7.0251400">
        <ele>1190.4</ele>
      </trkpt>
      <trkpt lat="42.7050000" lon="-7.0256100">
        <ele>1199.4</ele>
      </trkpt>
      <trkpt lat="42.7055200" lon="-7.0260700">
        <ele>1206.6</ele>
      </trkpt>
      <trkpt lat="42.7058700" lon="-7.0264800">
        <ele>1211.9</ele>
      </trkpt>
      <trkpt lat="42.7058000" lon="-7.0269700">
        <ele>1216.2</ele>
      </trkpt>
      <trkpt lat="42.7058600" lon="-7.0275800">
        <ele>1220.3</ele>
      </trkpt>
      <trkpt lat="42.7061200" lon="-7.0284500">
        <ele>1226.3</ele>
      </trkpt>
      <trkpt lat="42.7063600" lon="-7.0290400">
        <ele>1233.0</ele>
      </trkpt>
      <trkpt lat="42.7065900" lon="-7.0296200">
        <ele>1238.4</ele>
      </trkpt>
      <trkpt lat="42.7064700" lon="-7.0298700">
        <ele>1241.5</ele>
      </trkpt>
      <trkpt lat="42.7061600" lon="-7.0301200">
        <ele>1241.8</ele>
      </trkpt>
      <trkpt lat="42.7057800" lon="-7.0306600">
        <ele>1239.4</ele>
      </trkpt>
      <trkpt lat="42.7057800" lon="-7.0308800">
        <ele>1237.8</ele>
      </trkpt>
      <trkpt lat="42.7059300" lon="-7.0314800">
        <ele>1238.3</ele>
      </trkpt>
      <trkpt lat="42.7060700" lon="-7.0318000">
        <ele>1240.8</ele>
      </trkpt>
      <trkpt lat="42.7064300" lon="-7.0322900">
        <ele>1244.2</ele>
      </trkpt>
      <trkpt lat="42.7068500" lon="-7.0327200">
        <ele>1247.5</ele>
      </trkpt>
      <trkpt lat="42.7072700" lon="-7.0331400">
        <ele>1251.9</ele>
      </trkpt>
      <trkpt lat="42.7076000" lon="-7.0338800">
        <ele>1258.6</ele>
      </trkpt>
      <trkpt lat="42.7077800" lon="-7.0345800">
        <ele>1265.4</ele>
      </trkpt>
      <trkpt lat="42.7079600" lon="-7.0352800">
        <ele>1271.5</ele>
      </trkpt>
      <trkpt lat="42.7079700" lon="-7.0356100">
        <ele>1276.6</ele>
      </trkpt>
      <trkpt lat="42.7079000" lon="-7.0359000">
        <ele>1278.6</ele>
      </trkpt>
      <trkpt lat="42.7077000" lon="-7.0363600">
        <ele>1278.8</ele>
      </trkpt>
      <trkpt lat="42.7072700" lon="-7.0367500">
        <ele>1279.3</ele>
      </trkpt>
      <trkpt lat="42.7071900" lon="-7.0374200">
        <ele>1280.3</ele>
      </trkpt>
      <trkpt lat="42.7072100" lon="-7.0381500">
        <ele>1282.8</ele>
      </trkpt>
      <trkpt lat="42.7072200" lon="-7.0388800">
        <ele>1287.5</ele>
      </trkpt>
      <trkpt lat="42.7073900" lon="-7.0395700">
        <ele>1291.0</ele>
      </trkpt>
      <trkpt lat="42.7075600" lon="-7.0402700">
        <ele>1293.3</ele>
      </trkpt>
      <trkpt lat="42.7076400" lon="-7.0409300">
        <ele>1294.3</ele>
      </trkpt>
      <trkpt lat="42.7077100" lon="-7.0416000">
        <ele>1293.4</ele>
      </trkpt>
      <trkpt lat="42.7076500" lon="-7.0425100">
        <ele>1292.0</ele>
      </trkpt>
      <trkpt lat="42.7074800" lon="-7.0429100">
        <ele>1291.0</ele>
      </trkpt>
      <trkpt lat="42.7074400" lon="-7.0432400">
        <ele>1289.1</ele>
      </trkpt>
      <trkpt lat="42.7078500" lon="-7.0437800">
        <ele>1288.3</ele>
      </trkpt>
      <trkpt lat="42.7076800" lon="-7.0444400">
        <ele>1289.4</ele>
      </trkpt>
      <trkpt lat="42.7076700" lon="-7.0455400">
        <ele>1292.4</ele>
      </trkpt>
      <trkpt lat="42.7074100" lon="-7.0464700">
        <ele>1296.5</ele>
      </trkpt>
      <trkpt lat="42.7069300" lon="-7.0469200">
        <ele>1303.3</ele>
      </trkpt>
      <trkpt lat="42.7065800" lon="-7.0473900">
        <ele>1311.6</ele>
      </trkpt>
      <trkpt lat="42.7062200" lon="-7.0478500">
        <ele>1318.8</ele>
      </trkpt>
      <trkpt lat="42.7057700" lon="-7.0485200">
        <ele>1325.1</ele>
      </trkpt>
      <trkpt lat="42.7055900" lon="-7.0488900">
        <ele>1330.9</ele>
      </trkpt>
      <trkpt lat="42.7049300" lon="-7.0494200">
        <ele>1335.4</ele>
      </trkpt>
      <trkpt lat="42.7045800" lon="-7.0497900">
        <ele>1338.2</ele>
      </trkpt>
      <trkpt lat="42.7044000" lon="-7.0501300">
        <ele>1342.1</ele>
      </trkpt>
      <trkpt lat="42.7042400" lon="-7.0508600">
        <ele>1346.9</ele>
      </trkpt>
      <trkpt lat="42.7040100" lon="-7.0512300">
        <ele>1351.8</ele>
      </trkpt>
      <trkpt lat="42.7035100" lon="-7.0516300">
        <ele>1357.4</ele>
      </trkpt>
      <trkpt lat="42.7030000" lon="-7.0520200">
        <ele>1362.4</ele>
      </trkpt>
      <trkpt lat="42.7025000" lon="-7.0524200">
        <ele>1364.3</ele>
      </trkpt>
      <trkpt lat="42.7021300" lon="-7.0530300">
        <ele>1364.4</ele>
      </trkpt>
      <trkpt lat="42.7019200" lon="-7.0536900">
        <ele>1363.6</ele>
      </trkpt>
      <trkpt lat="42.7017100" lon="-7.0543400">
        <ele>1359.7</ele>
      </trkpt>
      <trkpt lat="42.7013500" lon="-7.0550000">
        <ele>1354.8</ele>
      </trkpt>
      <trkpt lat="42.7010900" lon="-7.0556500">
        <ele>1350.5</ele>
      </trkpt>
      <trkpt lat="42.7010100" lon="-7.0563400">
        <ele>1345.8</ele>
      </trkpt>
      <trkpt lat="42.7011800" lon="-7.0570700">
        <ele>1339.8</ele>
      </trkpt>
      <trkpt lat="42.7008900" lon="-7.0574500">
        <ele>1335.3</ele>
      </trkpt>
      <trkpt lat="42.7004300" lon="-7.0577100">
        <ele>1331.7</ele>
      </trkpt>
      <trkpt lat="42.7006000" lon="-7.0581400">
        <ele>1329.0</ele>
      </trkpt>
      <trkpt lat="42.7006200" lon="-7.0585800">
        <ele>1327.3</ele>
      </trkpt>
      <trkpt lat="42.7007900" lon="-7.0592600">
        <ele>1326.4</ele>
      </trkpt>
      <trkpt lat="42.7009600" lon="-7.0599300">
        <ele>1325.4</ele>
      </trkpt>
      <trkpt lat="42.7011400" lon="-7.0606100">
        <ele>1325.3</ele>
      </trkpt>
      <trkpt lat="42.7013100" lon="-7.0612800">
        <ele>1325.1</ele>
      </trkpt>
      <trkpt lat="42.7014800" lon="-7.0619600">
        <ele>1323.8</ele>
      </trkpt>
      <trkpt lat="42.7014600" lon="-7.0622200">
        <ele>1321.7</ele>
      </trkpt>
      <trkpt lat="42.7012700" lon="-7.0629100">
        <ele>1318.7</ele>
      </trkpt>
      <trkpt lat="42.7010100" lon="-7.0636300">
        <ele>1314.4</ele>
      </trkpt>
      <trkpt lat="42.7007500" lon="-7.0643500">
        <ele>1309.0</ele>
      </trkpt>
      <trkpt lat="42.7006000" lon="-7.0652800">
        <ele>1302.6</ele>
      </trkpt>
      <trkpt lat="42.7003600" lon="-7.0660900">
        <ele>1296.9</ele>
      </trkpt>
      <trkpt lat="42.7001100" lon="-7.0669000">
        <ele>1291.4</ele>
      </trkpt>
      <trkpt lat="42.7001100" lon="-7.0671700">
        <ele>1284.9</ele>
      </trkpt>
      <trkpt lat="42.7003100" lon="-7.0679800">
        <ele>1278.7</ele>
      </trkpt>
      <trkpt lat="42.7005100" lon="-7.0687900">
        <ele>1272.7</ele>
      </trkpt>
      <trkpt lat="42.7008000" lon="-7.0693000">
        <ele>1266.5</ele>
      </trkpt>
      <trkpt lat="42.7010800" lon="-7.0698100">
        <ele>1261.2</ele>
      </trkpt>
      <trkpt lat="42.7013300" lon="-7.0700100">
        <ele>1257.2</ele>
      </trkpt>
      <trkpt lat="42.7019700" lon="-7.0700800">
        <ele>1253.6</ele>
      </trkpt>
      <trkpt lat="42.7020400" lon="-7.0702200">
        <ele>1250.3</ele>
      </trkpt>
      <trkpt lat="42.7019400" lon="-7.0704600">
        <ele>1247.1</ele>
      </trkpt>
      <trkpt lat="42.7012200" lon="-7.0709700">
        <ele>1242.2</ele>
      </trkpt>
      <trkpt lat="42.7010300" lon="-7.0711800">
        <ele>1236.3</ele>
      </trkpt>
      <trkpt lat="42.7004000" lon="-7.0720100">
        <ele>1230.4</ele>
      </trkpt>
      <trkpt lat="42.6999400" lon="-7.0724800">
        <ele>1226.0</ele>
      </trkpt>
      <trkpt lat="42.6994700" lon="-7.0729500">
        <ele>1222.4</ele>
      </trkpt>
      <trkpt lat="42.6991500" lon="-7.0735900">
        <ele>1221.0</ele>
      </trkpt>
      <trkpt lat="42.6987700" lon="-7.0738200">
        <ele>1221.3</ele>
      </trkpt>
      <trkpt lat="42.6985300" lon="-7.0741200">
        <ele>1222.1</ele>
      </trkpt>
      <trkpt lat="42.6982800" lon="-7.0749500">
        <ele>1223.3</ele>
      </trkpt>
      <trkpt lat="42.6983000" lon="-7.0752000">
        <ele>1224.6</ele>
      </trkpt>
      <trkpt lat="42.6980920" lon="-7.0756510">
        <ele>1225.8</ele>
      </trkpt>
      <trkpt lat="42.6980420" lon="-7.0758400">
        <ele>1227.1</ele>
      </trkpt>
      <trkpt lat="42.6981000" lon="-7.0760460">
        <ele>1228.7</ele>
      </trkpt>
      <trkpt lat="42.6985220" lon="-7.0771850">
        <ele>1229.9</ele>
      </trkpt>
      <trkpt lat="42.6985070" lon="-7.0772600">
        <ele>1230.6</ele>
      </trkpt>
      <trkpt lat="42.6985050" lon="-7.0773300">
        <ele>1229.6</ele>
      </trkpt>
      <trkpt lat="42.6985280" lon="-7.0774190">
        <ele>1228.0</ele>
      </trkpt>
      <trkpt lat="42.6988480" lon="-7.0779530">
        <ele>1227.3</ele>
      </trkpt>
      <trkpt lat="42.6989300" lon="-7.0782420">
        <ele>1230.2</ele>
      </trkpt>
      <trkpt lat="42.6989700" lon="-7.0793060">
        <ele>1234.0</ele>
      </trkpt>
      <trkpt lat="42.6987180" lon="-7.0798440">
        <ele>1239.5</ele>
      </trkpt>
      <trkpt lat="42.6987020" lon="-7.0802020">
        <ele>1243.9</ele>
      </trkpt>
      <trkpt lat="42.6987690" lon="-7.0808300">
        <ele>1248.3</ele>
      </trkpt>
      <trkpt lat="42.6988770" lon="-7.0811280">
        <ele>1253.5</ele>
      </trkpt>
      <trkpt lat="42.6987750" lon="-7.0825550">
        <ele>1258.1</ele>
      </trkpt>
      <trkpt lat="42.6987300" lon="-7.0843700">
        <ele>1262.3</ele>
      </trkpt>
      <trkpt lat="42.6988300" lon="-7.0850500">
        <ele>1267.2</ele>
      </trkpt>
      <trkpt lat="42.6989300" lon="-7.0857300">
        <ele>1270.2</ele>
      </trkpt>
      <trkpt lat="42.6990300" lon="-7.0864200">
        <ele>1268.5</ele>
      </trkpt>
      <trkpt lat="42.6991400" lon="-7.0871000">
        <ele>1266.1</ele>
      </trkpt>
      <trkpt lat="42.6992400" lon="-7.0877800">
        <ele>1262.5</ele>
      </trkpt>
      <trkpt lat="42.6993400" lon="-7.0884600">
        <ele>1258.1</ele>
      </trkpt>
      <trkpt lat="42.6996100" lon="-7.0892900">
        <ele>1253.1</ele>
      </trkpt>
      <trkpt lat="42.6996400" lon="-7.0899100">
        <ele>1247.4</ele>
      </trkpt>
      <trkpt lat="42.6996700" lon="-7.0905300">
        <ele>1239.8</ele>
      </trkpt>
      <trkpt lat="42.6998800" lon="-7.0908500">
        <ele>1232.6</ele>
      </trkpt>
      <trkpt lat="42.7001700" lon="-7.0918300">
        <ele>1225.5</ele>
      </trkpt>
      <trkpt lat="42.7005900" lon="-7.0924400">
        <ele>1218.0</ele>
      </trkpt>
      <trkpt lat="42.7010000" lon="-7.0930400">
        <ele>1211.1</ele>
      </trkpt>
      <trkpt lat="42.7012500" lon="-7.0939800">
        <ele>1207.4</ele>
      </trkpt>
      <trkpt lat="42.7015800" lon="-7.0944500">
        <ele>1205.5</ele>
      </trkpt>
      <trkpt lat="42.7022340" lon="-7.0953950">
        <ele>1206.2</ele>
      </trkpt>
      <trkpt lat="42.7026990" lon="-7.0960760">
        <ele>1210.0</ele>
      </trkpt>
      <trkpt lat="42.7036200" lon="-7.0972000">
        <ele>1215.3</ele>
      </trkpt>
      <trkpt lat="42.7039900" lon="-7.0976300">
        <ele>1220.2</ele>
      </trkpt>
      <trkpt lat="42.7041600" lon="-7.0979300">
        <ele>1224.9</ele>
      </trkpt>
      <trkpt lat="42.7042600" lon="-7.0982900">
        <ele>1229.7</ele>
      </trkpt>
      <trkpt lat="42.7043500" lon="-7.0990600">
        <ele>1233.4</ele>
      </trkpt>
      <trkpt lat="42.7046800" lon="-7.0993900">
        <ele>1236.3</ele>
      </trkpt>
      <trkpt lat="42.7048200" lon="-7.0996400">
        <ele>1238.5</ele>
      </trkpt>
      <trkpt lat="42.7050500" lon="-7.1004600">
        <ele>1240.2</ele>
      </trkpt>
      <trkpt lat="42.7051100" lon="-7.1012100">
        <ele>1240.8</ele>
      </trkpt>
      <trkpt lat="42.7051000" lon="-7.1019000">
        <ele>1240.7</ele>
      </trkpt>
      <trkpt lat="42.7050800" lon="-7.1025900">
        <ele>1239.7</ele>
      </trkpt>
      <trkpt lat="42.7051600" lon="-7.1030600">
        <ele>1238.4</ele>
      </trkpt>
      <trkpt lat="42.7053900" lon="-7.1037200">
        <ele>1236.6</ele>
      </trkpt>
      <trkpt lat="42.7054400" lon="-7.1040200">
        <ele>1235.4</ele>
      </trkpt>
      <trkpt lat="42.7054300" lon="-7.1043900">
        <ele>1235.0</ele>
      </trkpt>
      <trkpt lat="42.7051700" lon="-7.1051200">
        <ele>1235.2</ele>
      </trkpt>
      <trkpt lat="42.7051300" lon="-7.1056700">
        <ele>1236.0</ele>
      </trkpt>
      <trkpt lat="42.7053800" lon="-7.1062300">
        <ele>1238.9</ele>
      </trkpt>
      <trkpt lat="42.7056300" lon="-7.1067800">
        <ele>1241.9</ele>
      </trkpt>
      <trkpt lat="42.7058500" lon="-7.1078900">
        <ele>1244.4</ele>
      </trkpt>
      <trkpt lat="42.7059800" lon="-7.1081300">
        <ele>1246.4</ele>
      </trkpt>
      <trkpt lat="42.7062900" lon="-7.1083500">
        <ele>1245.6</ele>
      </trkpt>
      <trkpt lat="42.7065200" lon="-7.1083700">
        <ele>1242.5</ele>
      </trkpt>
      <trkpt lat="42.7071200" lon="-7.1082600">
        <ele>1238.4</ele>
      </trkpt>
      <trkpt lat="42.7075000" lon="-7.1084300">
        <ele>1234.3</ele>
      </trkpt>
      <trkpt lat="42.7077200" lon="-7.1086700">
        <ele>1231.1</ele>
      </trkpt>
      <trkpt lat="42.7077900" lon="-7.1088100">
        <ele>1232.5</ele>
      </trkpt>
      <trkpt lat="42.7078300" lon="-7.1091900">
        <ele>1234.9</ele>
      </trkpt>
      <trkpt lat="42.7074800" lon="-7.1102400">
        <ele>1237.4</ele>
      </trkpt>
      <trkpt lat="42.7074800" lon="-7.1105800">
        <ele>1240.1</ele>
      </trkpt>
      <trkpt lat="42.7079400" lon="-7.1113500">
        <ele>1242.0</ele>
      </trkpt>
      <trkpt lat="42.7080100" lon="-7.1113900">
        <ele>1240.9</ele>
      </trkpt>
      <trkpt lat="42.7085100" lon="-7.1113900">
        <ele>1238.9</ele>
      </trkpt>
      <trkpt lat="42.7090000" lon="-7.1113900">
        <ele>1236.4</ele>
      </trkpt>
      <trkpt lat="42.7093500" lon="-7.1113700">
        <ele>1233.6</ele>
      </trkpt>
      <trkpt lat="42.7095800" lon="-7.1112600">
        <ele>1230.9</ele>
      </trkpt>
      <trkpt lat="42.7098100" lon="-7.1113400">
        <ele>1229.0</ele>
      </trkpt>
      <trkpt lat="42.7099900" lon="-7.1115200">
        <ele>1229.8</ele>
      </trkpt>
      <trkpt lat="42.7100100" lon="-7.1117400">
        <ele>1232.1</ele>
      </trkpt>
      <trkpt lat="42.7099000" lon="-7.1124000">
        <ele>1234.0</ele>
      </trkpt>
      <trkpt lat="42.7100100" lon="-7.1129800">
        <ele>1234.8</ele>
      </trkpt>
      <trkpt lat="42.7102400" lon="-7.1134700">
        <ele>1235.2</ele>
      </trkpt>
      <trkpt lat="42.7105700" lon="-7.1139700">
        <ele>1233.9</ele>
      </trkpt>
      <trkpt lat="42.7106200" lon="-7.1141800">
        <ele>1232.2</ele>
      </trkpt>
      <trkpt lat="42.7105700" lon="-7.1145100">
        <ele>1232.9</ele>
      </trkpt>
      <trkpt lat="42.7103400" lon="-7.1151900">
        <ele>1236.8</ele>
      </trkpt>
      <trkpt lat="42.7098500" lon="-7.1161900">
        <ele>1242.4</ele>
      </trkpt>
      <trkpt lat="42.7096200" lon="-7.1171900">
        <ele>1247.0</ele>
      </trkpt>
      <trkpt lat="42.7096300" lon="-7.1178100">
        <ele>1249.3</ele>
      </trkpt>
      <trkpt lat="42.7098000" lon="-7.1179500">
        <ele>1250.1</ele>
      </trkpt>
      <trkpt lat="42.7104600" lon="-7.1182500">
        <ele>1251.2</ele>
      </trkpt>
      <trkpt lat="42.7105400" lon="-7.1184200">
        <ele>1252.3</ele>
      </trkpt>
      <trkpt lat="42.7105300" lon="-7.1189900">
        <ele>1255.8</ele>
      </trkpt>
      <trkpt lat="42.7106800" lon="-7.1196000">
        <ele>1261.5</ele>
      </trkpt>
      <trkpt lat="42.7106800" lon="-7.1203600">
        <ele>1267.0</ele>
      </trkpt>
      <trkpt lat="42.7107300" lon="-7.1206200">
        <ele>1271.7</ele>
      </trkpt>
      <trkpt lat="42.7110400" lon="-7.1211700">
        <ele>1275.9</ele>
      </trkpt>
      <trkpt lat="42.7112000" lon="-7.1216500">
        <ele>1277.8</ele>
      </trkpt>
      <trkpt lat="42.7115300" lon="-7.1223500">
        <ele>1279.3</ele>
      </trkpt>
      <trkpt lat="42.7118100" lon="-7.1227200">
        <ele>1284.7</ele>
      </trkpt>
      <trkpt lat="42.7122500" lon="-7.1235200">
        <ele>1290.7</ele>
      </trkpt>
      <trkpt lat="42.7123100" lon="-7.1242400">
        <ele>1298.6</ele>
      </trkpt>
      <trkpt lat="42.7122500" lon="-7.1244900">
        <ele>1307.1</ele>
      </trkpt>
      <trkpt lat="42.7123400" lon="-7.1252900">
        <ele>1315.9</ele>
      </trkpt>
      <trkpt lat="42.7124400" lon="-7.1253500">
        <ele>1321.3</ele>
      </trkpt>
      <trkpt lat="42.7126700" lon="-7.1252500">
        <ele>1325.7</ele>
      </trkpt>
      <trkpt lat="42.7127500" lon="-7.1253300">
        <ele>1327.3</ele>
      </trkpt>
      <trkpt lat="42.7127200" lon="-7.1256800">
        <ele>1328.8</ele>
      </trkpt>
      <trkpt lat="42.7124900" lon="-7.1261000">
        <ele>1330.1</ele>
      </trkpt>
      <trkpt lat="42.7127900" lon="-7.1265900">
        <ele>1330.6</ele>
      </trkpt>
      <trkpt lat="42.7131000" lon="-7.1270800">
        <ele>1329.5</ele>
      </trkpt>
      <trkpt lat="42.7134000" lon="-7.1275800">
        <ele>1327.3</ele>
      </trkpt>
      <trkpt lat="42.7137100" lon="-7.1280700">
        <ele>1325.3</ele>
      </trkpt>
      <trkpt lat="42.7140100" lon="-7.1285600">
        <ele>1323.5</ele>
      </trkpt>
      <trkpt lat="42.7144000" lon="-7.1289900">
        <ele>1321.9</ele>
      </trkpt>
      <trkpt lat="42.7148300" lon="-7.1292100">
        <ele>1320.9</ele>
      </trkpt>
      <trkpt lat="42.7151100" lon="-7.1294600">
        <ele>1321.5</ele>
      </trkpt>
      <trkpt lat="42.7154200" lon="-7.1299500">
        <ele>1322.7</ele>
      </trkpt>
      <trkpt lat="42.7157300" lon="-7.1304300">
        <ele>1324.2</ele>
      </trkpt>
      <trkpt lat="42.7160400" lon="-7.1309200">
        <ele>1324.1</ele>
      </trkpt>
      <trkpt lat="42.7163100" lon="-7.1316900">
        <ele>1322.8</ele>
      </trkpt>
      <trkpt lat="42.7164700" lon="-7.1328400">
        <ele>1320.9</ele>
      </trkpt>
      <trkpt lat="42.7166900" lon="-7.1335800">
        <ele>1317.4</ele>
      </trkpt>
      <trkpt lat="42.7170400" lon="-7.1341700">
        <ele>1312.6</ele>
      </trkpt>
      <trkpt lat="42.7173900" lon="-7.1347700">
        <ele>1309.3</ele>
      </trkpt>
      <trkpt lat="42.7177400" lon="-7.1353600">
        <ele>1307.4</ele>
      </trkpt>
      <trkpt lat="42.7180900" lon="-7.1359500">
        <ele>1304.9</ele>
      </trkpt>
      <trkpt lat="42.7183600" lon="-7.1365900">
        <ele>1303.1</ele>
      </trkpt>
      <trkpt lat="42.7185600" lon="-7.1372900">
        <ele>1301.1</ele>
      </trkpt>
      <trkpt lat="42.7187600" lon="-7.1379900">
        <ele>1298.8</ele>
      </trkpt>
      <trkpt lat="42.7189600" lon="-7.1386900">
        <ele>1296.4</ele>
      </trkpt>
      <trkpt lat="42.7191600" lon="-7.1393900">
        <ele>1294.4</ele>
      </trkpt>
      <trkpt lat="42.7193100" lon="-7.1396400">
        <ele>1292.6</ele>
      </trkpt>
      <trkpt lat="42.7196100" lon="-7.1399600">
        <ele>1292.0</ele>
      </trkpt>
      <trkpt lat="42.7200700" lon="-7.1403000">
        <ele>1291.7</ele>
      </trkpt>
      <trkpt lat="42.7205300" lon="-7.1406300">
        <ele>1290.6</ele>
      </trkpt>
      <trkpt lat="42.7210600" lon="-7.1411900">
        <ele>1288.8</ele>
      </trkpt>
      <trkpt lat="42.7213700" lon="-7.1417400">
        <ele>1287.1</ele>
      </trkpt>
      <trkpt lat="42.7216800" lon="-7.1422800">
        <ele>1286.3</ele>
      </trkpt>
      <trkpt lat="42.7219900" lon="-7.1428300">
        <ele>1285.5</ele>
      </trkpt>
      <trkpt lat="42.7223000" lon="-7.1433800">
        <ele>1286.3</ele>
      </trkpt>
      <trkpt lat="42.7224800" lon="-7.1439800">
        <ele>1288.7</ele>
      </trkpt>
      <trkpt lat="42.7226600" lon="-7.1445800">
        <ele>1290.7</ele>
      </trkpt>
      <trkpt lat="42.7228300" lon="-7.1451800">
        <ele>1291.0</ele>
      </trkpt>
      <trkpt lat="42.7230100" lon="-7.1457800">
        <ele>1291.0</ele>
      </trkpt>
      <trkpt lat="42.7233900" lon="-7.1467300">
        <ele>1289.8</ele>
      </trkpt>
      <trkpt lat="42.7238100" lon="-7.1474300">
        <ele>1288.1</ele>
      </trkpt>
      <trkpt lat="42.7243200" lon="-7.1480200">
        <ele>1286.4</ele>
      </trkpt>
      <trkpt lat="42.7248200" lon="-7.1486100">
        <ele>1284.9</ele>
      </trkpt>
      <trkpt lat="42.7251200" lon="-7.1491000">
        <ele>1284.1</ele>
      </trkpt>
      <trkpt lat="42.7254200" lon="-7.1496000">
        <ele>1284.5</ele>
      </trkpt>
      <trkpt lat="42.7257100" lon="-7.1500900">
        <ele>1284.6</ele>
      </trkpt>
      <trkpt lat="42.7260100" lon="-7.1505800">
        <ele>1284.3</ele>
      </trkpt>
      <trkpt lat="42.7264800" lon="-7.1512200">
        <ele>1284.9</ele>
      </trkpt>
      <trkpt lat="42.7268300" lon="-7.1519600">
        <ele>1285.6</ele>
      </trkpt>
      <trkpt lat="42.7269900" lon="-7.1525500">
        <ele>1286.3</ele>
      </trkpt>
      <trkpt lat="42.7274900" lon="-7.1535000">
        <ele>1286.8</ele>
      </trkpt>
      <trkpt lat="42.7279200" lon="-7.1539700">
        <ele>1286.8</ele>
      </trkpt>
      <trkpt lat="42.7283500" lon="-7.1543700">
        <ele>1285.8</ele>
      </trkpt>
      <trkpt lat="42.7287900" lon="-7.1547600">
        <ele>1284.1</ele>
      </trkpt>
      <trkpt lat="42.7290200" lon="-7.1550500">
        <ele>1282.2</ele>
      </trkpt>
      <trkpt lat="42.7292200" lon="-7.1552200">
        <ele>1280.5</ele>
      </trkpt>
      <trkpt lat="42.7295500" lon="-7.1553500">
        <ele>1280.3</ele>
      </trkpt>
      <trkpt lat="42.7299800" lon="-7.1557100">
        <ele>1281.1</ele>
      </trkpt>
      <trkpt lat="42.7303300" lon="-7.1558900">
        <ele>1283.0</ele>
      </trkpt>
      <trkpt lat="42.7306400" lon="-7.1562700">
        <ele>1284.9</ele>
      </trkpt>
      <trkpt lat="42.7310200" lon="-7.1565500">
        <ele>1285.7</ele>
      </trkpt>
      <trkpt lat="42.7313400" lon="-7.1571400">
        <ele>1285.6</ele>
      </trkpt>
      <trkpt lat="42.7316600" lon="-7.1577200">
        <ele>1285.0</ele>
      </trkpt>
      <trkpt lat="42.7319800" lon="-7.1583100">
        <ele>1283.5</ele>
      </trkpt>
      <trkpt lat="42.7323000" lon="-7.1588900">
        <ele>1282.0</ele>
      </trkpt>
      <trkpt lat="42.7326500" lon="-7.1592900">
        <ele>1281.4</ele>
      </trkpt>
      <trkpt lat="42.7329900" lon="-7.1596800">
        <ele>1281.3</ele>
      </trkpt>
      <trkpt lat="42.7332000" lon="-7.1600200">
        <ele>1281.9</ele>
      </trkpt>
      <trkpt lat="42.7334800" lon="-7.1606600">
        <ele>1282.6</ele>
      </trkpt>
      <trkpt lat="42.7337600" lon="-7.1613000">
        <ele>1283.1</ele>
      </trkpt>
      <trkpt lat="42.7340400" lon="-7.1619400">
        <ele>1284.0</ele>
      </trkpt>
      <trkpt lat="42.7343200" lon="-7.1625800">
        <ele>1283.5</ele>
      </trkpt>
      <trkpt lat="42.7345500" lon="-7.1634200">
        <ele>1281.3</ele>
      </trkpt>
      <trkpt lat="42.7347800" lon="-7.1642600">
        <ele>1278.6</ele>
      </trkpt>
      <trkpt lat="42.7350000" lon="-7.1649600">
        <ele>1275.0</ele>
      </trkpt>
      <trkpt lat="42.7352200" lon="-7.1656500">
        <ele>1270.4</ele>
      </trkpt>
      <trkpt lat="42.7354300" lon="-7.1663500">
        <ele>1266.9</ele>
      </trkpt>
      <trkpt lat="42.7356500" lon="-7.1670400">
        <ele>1264.7</ele>
      </trkpt>
      <trkpt lat="42.7359000" lon="-7.1675600">
        <ele>1262.7</ele>
      </trkpt>
      <trkpt lat="42.7361400" lon="-7.1680900">
        <ele>1260.3</ele>
      </trkpt>
      <trkpt lat="42.7363900" lon="-7.1686100">
        <ele>1258.8</ele>
      </trkpt>
      <trkpt lat="42.7366300" lon="-7.1692200">
        <ele>1257.3</ele>
      </trkpt>
      <trkpt lat="42.7368800" lon="-7.1698300">
        <ele>1254.6</ele>
      </trkpt>
      <trkpt lat="42.7371200" lon="-7.1704400">
        <ele>1251.4</ele>
      </trkpt>
      <trkpt lat="42.7372300" lon="-7.1709900">
        <ele>1249.4</ele>
      </trkpt>
      <trkpt lat="42.7368800" lon="-7.1718700">
        <ele>1248.1</ele>
      </trkpt>
      <trkpt lat="42.7368800" lon="-7.1722200">
        <ele>1246.1</ele>
      </trkpt>
      <trkpt lat="42.7370300" lon="-7.1733600">
        <ele>1244.4</ele>
      </trkpt>
      <trkpt lat="42.7371300" lon="-7.1735500">
        <ele>1241.8</ele>
      </trkpt>
      <trkpt lat="42.7372800" lon="-7.1737800">
        <ele>1239.5</ele>
      </trkpt>
      <trkpt lat="42.7377400" lon="-7.1740000">
        <ele>1236.3</ele>
      </trkpt>
      <trkpt lat="42.7379800" lon="-7.1742400">
        <ele>1233.1</ele>
      </trkpt>
      <trkpt lat="42.7384200" lon="-7.1743200">
        <ele>1231.1</ele>
      </trkpt>
      <trkpt lat="42.7386500" lon="-7.1742600">
        <ele>1231.7</ele>
      </trkpt>
      <trkpt lat="42.7388800" lon="-7.1743800">
        <ele>1231.2</ele>
      </trkpt>
      <trkpt lat="42.7393300" lon="-7.1748800">
        <ele>1230.8</ele>
      </trkpt>
      <trkpt lat="42.7397600" lon="-7.1751500">
        <ele>1230.3</ele>
      </trkpt>
      <trkpt lat="42.7403600" lon="-7.1757900">
        <ele>1228.0</ele>
      </trkpt>
      <trkpt lat="42.7407000" lon="-7.1762100">
        <ele>1223.4</ele>
      </trkpt>
      <trkpt lat="42.7410400" lon="-7.1766300">
        <ele>1218.6</ele>
      </trkpt>
      <trkpt lat="42.7413700" lon="-7.1770600">
        <ele>1214.0</ele>
      </trkpt>
      <trkpt lat="42.7417100" lon="-7.1774800">
        <ele>1209.8</ele>
      </trkpt>
      <trkpt lat="42.7420500" lon="-7.1779000">
        <ele>1204.8</ele>
      </trkpt>
      <trkpt lat="42.7422900" lon="-7.1779900">
        <ele>1199.5</ele>
      </trkpt>
      <trkpt lat="42.7430200" lon="-7.1780300">
        <ele>1194.5</ele>
      </trkpt>
      <trkpt lat="42.7436300" lon="-7.1779900">
        <ele>1189.7</ele>
      </trkpt>
      <trkpt lat="42.7441800" lon="-7.1782900">
        <ele>1185.0</ele>
      </trkpt>
      <trkpt lat="42.7442300" lon="-7.1784000">
        <ele>1182.3</ele>
      </trkpt>
      <trkpt lat="42.7441500" lon="-7.1790000">
        <ele>1181.1</ele>
      </trkpt>
      <trkpt lat="42.7440800" lon="-7.1796100">
        <ele>1179.8</ele>
      </trkpt>
      <trkpt lat="42.7440000" lon="-7.1802100">
        <ele>1178.0</ele>
      </trkpt>
      <trkpt lat="42.7439200" lon="-7.1808100">
        <ele>1176.1</ele>
      </trkpt>
      <trkpt lat="42.7436000" lon="-7.1818700">
        <ele>1173.7</ele>
      </trkpt>
      <trkpt lat="42.7435900" lon="-7.1821000">
        <ele>1171.4</ele>
      </trkpt>
      <trkpt lat="42.7437100" lon="-7.1828100">
        <ele>1168.8</ele>
      </trkpt>
      <trkpt lat="42.7438400" lon="-7.1835200">
        <ele>1164.6</ele>
      </trkpt>
      <trkpt lat="42.7439800" lon="-7.1837900">
        <ele>1160.1</ele>
      </trkpt>
      <trkpt lat="42.7442500" lon="-7.1840300">
        <ele>1157.1</ele>
      </trkpt>
      <trkpt lat="42.7442700" lon="-7.1843100">
        <ele>1158.1</ele>
      </trkpt>
      <trkpt lat="42.7441200" lon="-7.1848400">
        <ele>1160.5</ele>
      </trkpt>
      <trkpt lat="42.7437400" lon="-7.1857000">
        <ele>1165.2</ele>
      </trkpt>
      <trkpt lat="42.7437100" lon="-7.1861000">
        <ele>1169.7</ele>
      </trkpt>
      <trkpt lat="42.7437400" lon="-7.1865600">
        <ele>1169.5</ele>
      </trkpt>
      <trkpt lat="42.7438700" lon="-7.1870300">
        <ele>1164.6</ele>
      </trkpt>
      <trkpt lat="42.7445800" lon="-7.1876300">
        <ele>1159.0</ele>
      </trkpt>
      <trkpt lat="42.7447500" lon="-7.1878500">
        <ele>1153.2</ele>
      </trkpt>
      <trkpt lat="42.7447900" lon="-7.1880200">
        <ele>1147.5</ele>
      </trkpt>
      <trkpt lat="42.7447300" lon="-7.1885300">
        <ele>1145.9</ele>
      </trkpt>
      <trkpt lat="42.7446100" lon="-7.1889100">
        <ele>1144.9</ele>
      </trkpt>
      <trkpt lat="42.7444700" lon="-7.1891500">
        <ele>1144.7</ele>
      </trkpt>
      <trkpt lat="42.7439900" lon="-7.1895400">
        <ele>1145.0</ele>
      </trkpt>
      <trkpt lat="42.7435500" lon="-7.1897300">
        <ele>1146.1</ele>
      </trkpt>
      <trkpt lat="42.7431200" lon="-7.1899200">
        <ele>1147.1</ele>
      </trkpt>
      <trkpt lat="42.7426800" lon="-7.1901000">
        <ele>1146.2</ele>
      </trkpt>
      <trkpt lat="42.7422400" lon="-7.1902900">
        <ele>1143.3</ele>
      </trkpt>
      <trkpt lat="42.7418000" lon="-7.1905700">
        <ele>1140.0</ele>
      </trkpt>
      <trkpt lat="42.7413700" lon="-7.1908400">
        <ele>1136.4</ele>
      </trkpt>
      <trkpt lat="42.7409300" lon="-7.1911200">
        <ele>1132.6</ele>
      </trkpt>
      <trkpt lat="42.7403700" lon="-7.1917000">
        <ele>1129.6</ele>
      </trkpt>
      <trkpt lat="42.7401900" lon="-7.1920000">
        <ele>1124.0</ele>
      </trkpt>
      <trkpt lat="42.7401200" lon="-7.1924400">
        <ele>1117.4</ele>
      </trkpt>
      <trkpt lat="42.7405900" lon="-7.1931700">
        <ele>1110.0</ele>
      </trkpt>
      <trkpt lat="42.7406000" lon="-7.1938500">
        <ele>1102.5</ele>
      </trkpt>
      <trkpt lat="42.7406200" lon="-7.1945400">
        <ele>1095.1</ele>
      </trkpt>
      <trkpt lat="42.7406300" lon="-7.1952200">
        <ele>1088.8</ele>
      </trkpt>
      <trkpt lat="42.7409400" lon="-7.1955900">
        <ele>1082.0</ele>
      </trkpt>
      <trkpt lat="42.7413400" lon="-7.1966500">
        <ele>1074.6</ele>
      </trkpt>
      <trkpt lat="42.7416000" lon="-7.1971700">
        <ele>1066.6</ele>
      </trkpt>
      <trkpt lat="42.7418700" lon="-7.1976800">
        <ele>1058.9</ele>
      </trkpt>
      <trkpt lat="42.7421300" lon="-7.1982000">
        <ele>1053.4</ele>
      </trkpt>
      <trkpt lat="42.7424000" lon="-7.1987100">
        <ele>1048.6</ele>
      </trkpt>
      <trkpt lat="42.7426600" lon="-7.1992300">
        <ele>1044.1</ele>
      </trkpt>
      <trkpt lat="42.7429300" lon="-7.1997400">
        <ele>1038.8</ele>
      </trkpt>
      <trkpt lat="42.7431900" lon="-7.2002600">
        <ele>1032.7</ele>
      </trkpt>
      <trkpt lat="42.7434700" lon="-7.2009500">
        <ele>1026.5</ele>
      </trkpt>
      <trkpt lat="42.7435600" lon="-7.2015400">
        <ele>1019.8</ele>
      </trkpt>
      <trkpt lat="42.7434900" lon="-7.2020300">
        <ele>1012.2</ele>
      </trkpt>
      <trkpt lat="42.7431400" lon="-7.2030200">
        <ele>1005.0</ele>
      </trkpt>
      <trkpt lat="42.7429900" lon="-7.2036300">
        <ele>997.6</ele>
      </trkpt>
      <trkpt lat="42.7427100" lon="-7.2041600">
        <ele>990.5</ele>
      </trkpt>
      <trkpt lat="42.7424300" lon="-7.2046900">
        <ele>984.0</ele>
      </trkpt>
      <trkpt lat="42.7425000" lon="-7.2047600">
        <ele>978.6</ele>
      </trkpt>
      <trkpt lat="42.7429400" lon="-7.2048200">
        <ele>973.2</ele>
      </trkpt>
      <trkpt lat="42.7435000" lon="-7.2047700">
        <ele>969.1</ele>
      </trkpt>
      <trkpt lat="42.7440600" lon="-7.2047100">
        <ele>963.0</ele>
      </trkpt>
      <trkpt lat="42.7437100" lon="-7.2054100">
        <ele>957.4</ele>
      </trkpt>
      <trkpt lat="42.7433500" lon="-7.2061000">
        <ele>951.6</ele>
      </trkpt>
      <trkpt lat="42.7434900" lon="-7.2061500">
        <ele>945.8</ele>
      </trkpt>
      <trkpt lat="42.7438100" lon="-7.2065000">
        <ele>938.2</ele>
      </trkpt>
      <trkpt lat="42.7440200" lon="-7.2071100">
        <ele>930.7</ele>
      </trkpt>
      <trkpt lat="42.7442300" lon="-7.2077200">
        <ele>923.2</ele>
      </trkpt>
      <trkpt lat="42.7443400" lon="-7.2083400">
        <ele>915.5</ele>
      </trkpt>
      <trkpt lat="42.7447500" lon="-7.2090300">
        <ele>907.0</ele>
      </trkpt>
      <trkpt lat="42.7449200" lon="-7.2096900">
        <ele>899.5</ele>
      </trkpt>
      <trkpt lat="42.7449600" lon="-7.2104000">
        <ele>892.4</ele>
      </trkpt>
      <trkpt lat="42.7451600" lon="-7.2111200">
        <ele>884.0</ele>
      </trkpt>
      <trkpt lat="42.7453600" lon="-7.2118400">
        <ele>876.1</ele>
      </trkpt>
      <trkpt lat="42.7457700" lon="-7.2125300">
        <ele>870.4</ele>
      </trkpt>
      <trkpt lat="42.7461200" lon="-7.2129500">
        <ele>865.8</ele>
      </trkpt>
      <trkpt lat="42.7464700" lon="-7.2133700">
        <ele>862.0</ele>
      </trkpt>
      <trkpt lat="42.7467100" lon="-7.2137500">
        <ele>859.2</ele>
      </trkpt>
      <trkpt lat="42.7470000" lon="-7.2144600">
        <ele>856.2</ele>
      </trkpt>
      <trkpt lat="42.7472900" lon="-7.2151600">
        <ele>853.2</ele>
      </trkpt>
      <trkpt lat="42.7475400" lon="-7.2161100">
        <ele>849.3</ele>
      </trkpt>
      <trkpt lat="42.7475400" lon="-7.2162100">
        <ele>844.9</ele>
      </trkpt>
      <trkpt lat="42.7473600" lon="-7.2164100">
        <ele>839.8</ele>
      </trkpt>
      <trkpt lat="42.7474100" lon="-7.2169700">
        <ele>834.9</ele>
      </trkpt>
      <trkpt lat="42.7473600" lon="-7.2173800">
        <ele>829.5</ele>
      </trkpt>
      <trkpt lat="42.7474800" lon="-7.2177200">
        <ele>824.7</ele>
      </trkpt>
      <trkpt lat="42.7476500" lon="-7.2180700">
        <ele>820.8</ele>
      </trkpt>
      <trkpt lat="42.7481500" lon="-7.2183800">
        <ele>816.6</ele>
      </trkpt>
      <trkpt lat="42.7484600" lon="-7.2186900">
        <ele>812.6</ele>
      </trkpt>
      <trkpt lat="42.7488400" lon="-7.2196000">
        <ele>808.2</ele>
      </trkpt>
      <trkpt lat="42.7496700" lon="-7.2198700">
        <ele>803.7</ele>
      </trkpt>
      <trkpt lat="42.7501500" lon="-7.2202300">
        <ele>799.3</ele>
      </trkpt>
      <trkpt lat="42.7503900" lon="-7.2205100">
        <ele>796.2</ele>
      </trkpt>
      <trkpt lat="42.7504800" lon="-7.2207500">
        <ele>792.5</ele>
      </trkpt>
      <trkpt lat="42.7509200" lon="-7.2214700">
        <ele>789.0</ele>
      </trkpt>
      <trkpt lat="42.7508200" lon="-7.2222000">
        <ele>784.2</ele>
      </trkpt>
      <trkpt lat="42.7507200" lon="-7.2229200">
        <ele>779.2</ele>
      </trkpt>
      <trkpt lat="42.7507200" lon="-7.2238900">
        <ele>773.3</ele>
      </trkpt>
      <trkpt lat="42.7510000" lon="-7.2244400">
        <ele>767.3</ele>
      </trkpt>
      <trkpt lat="42.7512800" lon="-7.2249800">
        <ele>760.2</ele>
      </trkpt>
      <trkpt lat="42.7517300" lon="-7.2254400">
        <ele>754.6</ele>
      </trkpt>
      <trkpt lat="42.7523700" lon="-7.2259100">
        <ele>750.0</ele>
      </trkpt>
      <trkpt lat="42.7529800" lon="-7.2261100">
        <ele>744.8</ele>
      </trkpt>
      <trkpt lat="42.7535900" lon="-7.2263100">
        <ele>739.0</ele>
      </trkpt>
      <trkpt lat="42.7540400" lon="-7.2269900">
        <ele>732.8</ele>
      </trkpt>
      <trkpt lat="42.7542400" lon="-7.2274600">
        <ele>725.9</ele>
      </trkpt>
      <trkpt lat="42.7546100" lon="-7.2281000">
        <ele>716.0</ele>
      </trkpt>
      <trkpt lat="42.7550500" lon="-7.2284800">
        <ele>707.1</ele>
      </trkpt>
      <trkpt lat="42.7556200" lon="-7.2292900">
        <ele>701.0</ele>
      </trkpt>
      <trkpt lat="42.7556100" lon="-7.2299300">
        <ele>697.6</ele>
      </trkpt>
      <trkpt lat="42.7558300" lon="-7.2304500">
        <ele>695.9</ele>
      </trkpt>
      <trkpt lat="42.7558600" lon="-7.2306700">
        <ele>697.2</ele>
      </trkpt>
      <trkpt lat="42.7557900" lon="-7.2315600">
        <ele>699.6</ele>
      </trkpt>
      <trkpt lat="42.7559200" lon="-7.2319400">
        <ele>701.8</ele>
      </trkpt>
      <trkpt lat="42.7560200" lon="-7.2320700">
        <ele>703.0</ele>
      </trkpt>
      <trkpt lat="42.7561900" lon="-7.2321400">
        <ele>702.7</ele>
      </trkpt>
      <trkpt lat="42.7561100" lon="-7.2325000">
        <ele>701.9</ele>
      </trkpt>
      <trkpt lat="42.7560800" lon="-7.2333700">
        <ele>699.8</ele>
      </trkpt>
      <trkpt lat="42.7561600" lon="-7.2340100">
        <ele>696.1</ele>
      </trkpt>
      <trkpt lat="42.7560900" lon="-7.2347900">
        <ele>691.8</ele>
      </trkpt>
      <trkpt lat="42.7561000" lon="-7.2355600">
        <ele>687.9</ele>
      </trkpt>
      <trkpt lat="42.7561100" lon="-7.2363300">
        <ele>683.6</ele>
      </trkpt>
      <trkpt lat="42.7561200" lon="-7.2371000">
        <ele>679.6</ele>
      </trkpt>
      <trkpt lat="42.7560800" lon="-7.2377600">
        <ele>676.0</ele>
      </trkpt>
      <trkpt lat="42.7560500" lon="-7.2384100">
        <ele>672.9</ele>
      </trkpt>
      <trkpt lat="42.7560100" lon="-7.2390700">
        <ele>670.5</ele>
      </trkpt>
      <trkpt lat="42.7559700" lon="-7.2397200">
        <ele>668.6</ele>
      </trkpt>
      <trkpt lat="42.7559300" lon="-7.2403800">
        <ele>666.6</ele>
      </trkpt>
      <trkpt lat="42.7559000" lon="-7.2410300">
        <ele>664.9</ele>
      </trkpt>
      <trkpt lat="42.7558600" lon="-7.2416900">
        <ele>663.1</ele>
      </trkpt>
      <trkpt lat="42.7557700" lon="-7.2420200">
        <ele>661.4</ele>
      </trkpt>
      <trkpt lat="42.7554400" lon="-7.2428100">
        <ele>660.2</ele>
      </trkpt>
      <trkpt lat="42.7551100" lon="-7.2436000">
        <ele>659.1</ele>
      </trkpt>
      <trkpt lat="42.7554900" lon="-7.2438900">
        <ele>658.2</ele>
      </trkpt>
      <trkpt lat="42.7557700" lon="-7.2437800">
        <ele>657.4</ele>
      </trkpt>
      <trkpt lat="42.7558600" lon="-7.2436400">
        <ele>656.5</ele>
      </trkpt>
      <trkpt lat="42.7564300" lon="-7.2438600">
        <ele>656.5</ele>
      </trkpt>
      <trkpt lat="42.7570000" lon="-7.2440700">
        <ele>658.5</ele>
      </trkpt>
      <trkpt lat="42.7575700" lon="-7.2442900">
        <ele>661.2</ele>
      </trkpt>
      <trkpt lat="42.7580100" lon="-7.2446900">
        <ele>664.8</ele>
      </trkpt>
      <trkpt lat="42.7584600" lon="-7.2450900">
        <ele>669.2</ele>
      </trkpt>
      <trkpt lat="42.7589000" lon="-7.2454900">
        <ele>672.5</ele>
      </trkpt>
      <trkpt lat="42.7593400" lon="-7.2458900">
        <ele>674.6</ele>
      </trkpt>
      <trkpt lat="42.7599000" lon="-7.2461600">
        <ele>677.5</ele>
      </trkpt>
      <trkpt lat="42.7601400" lon="-7.2463700">
        <ele>681.6</ele>
      </trkpt>
      <trkpt lat="42.7603600" lon="-7.2467000">
        <ele>686.2</ele>
      </trkpt>
      <trkpt lat="42.7605900" lon="-7.2473200">
        <ele>691.9</ele>
      </trkpt>
      <trkpt lat="42.7608200" lon="-7.2479400">
        <ele>697.1</ele>
      </trkpt>
      <trkpt lat="42.7614300" lon="-7.2486100">
        <ele>699.1</ele>
      </trkpt>
      <trkpt lat="42.7620200" lon="-7.2488600">
        <ele>699.3</ele>
      </trkpt>
      <trkpt lat="42.7628000" lon="-7.2489900">
        <ele>698.1</ele>
      </trkpt>
      <trkpt lat="42.7634600" lon="-7.2492800">
        <ele>697.4</ele>
      </trkpt>
      <trkpt lat="42.7639100" lon="-7.2496300">
        <ele>697.7</ele>
      </trkpt>
      <trkpt lat="42.7644000" lon="-7.2497000">
        <ele>699.6</ele>
      </trkpt>
      <trkpt lat="42.7647700" lon="-7.2503500">
        <ele>702.1</ele>
      </trkpt>
      <trkpt lat="42.7650800" lon="-7.2510800">
        <ele>705.3</ele>
      </trkpt>
      <trkpt lat="42.7653800" lon="-7.2518100">
        <ele>708.4</ele>
      </trkpt>
      <trkpt lat="42.7655700" lon="-7.2520100">
        <ele>710.2</ele>
      </trkpt>
      <trkpt lat="42.7658200" lon="-7.2525100">
        <ele>712.6</ele>
      </trkpt>
      <trkpt lat="42.7659700" lon="-7.2536400">
        <ele>716.4</ele>
      </trkpt>
      <trkpt lat="42.7661100" lon="-7.2538100">
        <ele>719.6</ele>
      </trkpt>
      <trkpt lat="42.7667000" lon="-7.2540500">
        <ele>722.1</ele>
      </trkpt>
      <trkpt lat="42.7668900" lon="-7.2546500">
        <ele>725.4</ele>
      </trkpt>
      <trkpt lat="42.7675200" lon="-7.2550300">
        <ele>728.6</ele>
      </trkpt>
      <trkpt lat="42.7678200" lon="-7.2554400">
        <ele>730.2</ele>
      </trkpt>
      <trkpt lat="42.7682000" lon="-7.2556100">
        <ele>732.2</ele>
      </trkpt>
      <trkpt lat="42.7683700" lon="-7.2558200">
        <ele>733.3</ele>
      </trkpt>
      <trkpt lat="42.7684000" lon="-7.2562200">
        <ele>734.2</ele>
      </trkpt>
      <trkpt lat="42.7687300" lon="-7.2565500">
        <ele>736.4</ele>
      </trkpt>
      <trkpt lat="42.7688000" lon="-7.2566900">
        <ele>740.5</ele>
      </trkpt>
      <trkpt lat="42.7687800" lon="-7.2571300">
        <ele>744.4</ele>
      </trkpt>
      <trkpt lat="42.7690800" lon="-7.2579100">
        <ele>749.7</ele>
      </trkpt>
      <trkpt lat="42.7693200" lon="-7.2581300">
        <ele>755.2</ele>
      </trkpt>
      <trkpt lat="42.7696700" lon="-7.2586900">
        <ele>759.9</ele>
      </trkpt>
      <trkpt lat="42.7700100" lon="-7.2592400">
        <ele>763.3</ele>
      </trkpt>
      <trkpt lat="42.7702800" lon="-7.2599500">
        <ele>767.2</ele>
      </trkpt>
      <trkpt lat="42.7705400" lon="-7.2606600">
        <ele>770.8</ele>
      </trkpt>
      <trkpt lat="42.7705900" lon="-7.2610100">
        <ele>775.8</ele>
      </trkpt>
      <trkpt lat="42.7705500" lon="-7.2614200">
        <ele>782.4</ele>
      </trkpt>
      <trkpt lat="42.7703400" lon="-7.2620100">
        <ele>788.5</ele>
      </trkpt>
      <trkpt lat="42.7698200" lon="-7.2627100">
        <ele>795.1</ele>
      </trkpt>
      <trkpt lat="42.7696900" lon="-7.2630700">
        <ele>801.0</ele>
      </trkpt>
      <trkpt lat="42.7695800" lon="-7.2638500">
        <ele>806.0</ele>
      </trkpt>
      <trkpt lat="42.7694500" lon="-7.2641800">
        <ele>809.6</ele>
      </trkpt>
      <trkpt lat="42.7690900" lon="-7.2647000">
        <ele>812.9</ele>
      </trkpt>
      <trkpt lat="42.7689200" lon="-7.2647500">
        <ele>815.8</ele>
      </trkpt>
      <trkpt lat="42.7688800" lon="-7.2648400">
        <ele>819.1</ele>
      </trkpt>
      <trkpt lat="42.7687800" lon="-7.2655500">
        <ele>823.0</ele>
      </trkpt>
      <trkpt lat="42.7686800" lon="-7.2662500">
        <ele>827.8</ele>
      </trkpt>
      <trkpt lat="42.7685800" lon="-7.2669600">
        <ele>833.8</ele>
      </trkpt>
      <trkpt lat="42.7684800" lon="-7.2676600">
        <ele>840.0</ele>
      </trkpt>
      <trkpt lat="42.7686200" lon="-7.2680800">
        <ele>845.9</ele>
      </trkpt>
      <trkpt lat="42.7683800" lon="-7.2686400">
        <ele>851.1</ele>
      </trkpt>
      <trkpt lat="42.7681400" lon="-7.2692100">
        <ele>855.1</ele>
      </trkpt>
      <trkpt lat="42.7679000" lon="-7.2697700">
        <ele>858.3</ele>
      </trkpt>
      <trkpt lat="42.7676600" lon="-7.2703300">
        <ele>861.3</ele>
      </trkpt>
      <trkpt lat="42.7676100" lon="-7.2707600">
        <ele>863.0</ele>
      </trkpt>
      <trkpt lat="42.7674600" lon="-7.2711900">
        <ele>863.6</ele>
      </trkpt>
      <trkpt lat="42.7670400" lon="-7.2714600">
        <ele>863.3</ele>
      </trkpt>
      <trkpt lat="42.7666500" lon="-7.2719200">
        <ele>862.6</ele>
      </trkpt>
      <trkpt lat="42.7664000" lon="-7.2720700">
        <ele>861.9</ele>
      </trkpt>
      <trkpt lat="42.7663000" lon="-7.2722600">
        <ele>861.1</ele>
      </trkpt>
      <trkpt lat="42.7659200" lon="-7.2733600">
        <ele>860.6</ele>
      </trkpt>
      <trkpt lat="42.7657300" lon="-7.2743500">
        <ele>862.1</ele>
      </trkpt>
      <trkpt lat="42.7657200" lon="-7.2746700">
        <ele>864.0</ele>
      </trkpt>
      <trkpt lat="42.7658500" lon="-7.2752500">
        <ele>864.3</ele>
      </trkpt>
      <trkpt lat="42.7658400" lon="-7.2755100">
        <ele>865.2</ele>
      </trkpt>
      <trkpt lat="42.7654700" lon="-7.2758700">
        <ele>867.3</ele>
      </trkpt>
      <trkpt lat="42.7651100" lon="-7.2762400">
        <ele>867.2</ele>
      </trkpt>
      <trkpt lat="42.7648200" lon="-7.2767400">
        <ele>866.3</ele>
      </trkpt>
      <trkpt lat="42.7644200" lon="-7.2777500">
        <ele>866.5</ele>
      </trkpt>
      <trkpt lat="42.7642900" lon="-7.2788300">
        <ele>867.3</ele>
      </trkpt>
      <trkpt lat="42.7643100" lon="-7.2795100">
        <ele>866.2</ele>
      </trkpt>
      <trkpt lat="42.7643300" lon="-7.2801800">
        <ele>865.6</ele>
      </trkpt>
      <trkpt lat="42.7645100" lon="-7.2808400">
        <ele>865.1</ele>
      </trkpt>
      <trkpt lat="42.7646400" lon="-7.2810700">
        <ele>864.3</ele>
      </trkpt>
      <trkpt lat="42.7649700" lon="-7.2815600">
        <ele>862.7</ele>
      </trkpt>
      <trkpt lat="42.7653000" lon="-7.2820400">
        <ele>861.2</ele>
      </trkpt>
      <trkpt lat="42.7657000" lon="-7.2825400">
        <ele>860.5</ele>
      </trkpt>
      <trkpt lat="42.7659000" lon="-7.2827000">
        <ele>861.0</ele>
      </trkpt>
      <trkpt lat="42.7663300" lon="-7.2828800">
        <ele>863.0</ele>
      </trkpt>
      <trkpt lat="42.7667200" lon="-7.2829200">
        <ele>865.9</ele>
      </trkpt>
      <trkpt lat="42.7672600" lon="-7.2829000">
        <ele>870.4</ele>
      </trkpt>
      <trkpt lat="42.7674200" lon="-7.2828700">
        <ele>874.5</ele>
      </trkpt>
      <trkpt lat="42.7678300" lon="-7.2826500">
        <ele>877.8</ele>
      </trkpt>
      <trkpt lat="42.7679300" lon="-7.2827000">
        <ele>879.7</ele>
      </trkpt>
      <trkpt lat="42.7680600" lon="-7.2831400">
        <ele>881.5</ele>
      </trkpt>
      <trkpt lat="42.7680500" lon="-7.2835900">
        <ele>882.9</ele>
      </trkpt>
      <trkpt lat="42.7679400" lon="-7.2841900">
        <ele>884.8</ele>
      </trkpt>
      <trkpt lat="42.7678200" lon="-7.2847900">
        <ele>886.5</ele>
      </trkpt>
      <trkpt lat="42.7674900" lon="-7.2855200">
        <ele>888.4</ele>
      </trkpt>
      <trkpt lat="42.7674700" lon="-7.2855100">
        <ele>890.5</ele>
      </trkpt>
      <trkpt lat="42.7674400" lon="-7.2856300">
        <ele>892.3</ele>
      </trkpt>
      <trkpt lat="42.7674100" lon="-7.2858300">
        <ele>893.4</ele>
      </trkpt>
      <trkpt lat="42.7674300" lon="-7.2861100">
        <ele>894.8</ele>
      </trkpt>
      <trkpt lat="42.7674500" lon="-7.2862800">
        <ele>896.0</ele>
      </trkpt>
      <trkpt lat="42.7675300" lon="-7.2867500">
        <ele>896.6</ele>
      </trkpt>
      <trkpt lat="42.7675900" lon="-7.2870500">
        <ele>896.6</ele>
      </trkpt>
      <trkpt lat="42.7676300" lon="-7.2872500">
        <ele>896.3</ele>
      </trkpt>
      <trkpt lat="42.7676700" lon="-7.2873000">
        <ele>893.5</ele>
      </trkpt>
      <trkpt lat="42.7677000" lon="-7.2873800">
        <ele>889.9</ele>
      </trkpt>
      <trkpt lat="42.7677700" lon="-7.2882800">
        <ele>885.9</ele>
      </trkpt>
      <trkpt lat="42.7677800" lon="-7.2884500">
        <ele>881.2</ele>
      </trkpt>
      <trkpt lat="42.7676400" lon="-7.2888600">
        <ele>875.9</ele>
      </trkpt>
      <trkpt lat="42.7675200" lon="-7.2892300">
        <ele>872.6</ele>
      </trkpt>
      <trkpt lat="42.7673500" lon="-7.2896500">
        <ele>869.1</ele>
      </trkpt>
      <trkpt lat="42.7672600" lon="-7.2898500">
        <ele>864.9</ele>
      </trkpt>
      <trkpt lat="42.7671700" lon="-7.2901600">
        <ele>859.8</ele>
      </trkpt>
      <trkpt lat="42.7670100" lon="-7.2906900">
        <ele>853.3</ele>
      </trkpt>
      <trkpt lat="42.7668800" lon="-7.2912500">
        <ele>846.4</ele>
      </trkpt>
      <trkpt lat="42.7666700" lon="-7.2919100">
        <ele>839.5</ele>
      </trkpt>
      <trkpt lat="42.7666000" lon="-7.2921600">
        <ele>832.5</ele>
      </trkpt>
      <trkpt lat="42.7665400" lon="-7.2924100">
        <ele>826.2</ele>
      </trkpt>
      <trkpt lat="42.7664500" lon="-7.2929500">
        <ele>821.0</ele>
      </trkpt>
      <trkpt lat="42.7664600" lon="-7.2932100">
        <ele>816.2</ele>
      </trkpt>
      <trkpt lat="42.7664100" lon="-7.2935600">
        <ele>812.0</ele>
      </trkpt>
      <trkpt lat="42.7663600" lon="-7.2937400">
        <ele>809.1</ele>
      </trkpt>
      <trkpt lat="42.7662700" lon="-7.2939300">
        <ele>807.1</ele>
      </trkpt>
      <trkpt lat="42.7662600" lon="-7.2939700">
        <ele>805.9</ele>
      </trkpt>
      <trkpt lat="42.7662600" lon="-7.2940300">
        <ele>805.0</ele>
      </trkpt>
      <trkpt lat="42.7662500" lon="-7.2940900">
        <ele>804.3</ele>
      </trkpt>
      <trkpt lat="42.7662400" lon="-7.2941400">
        <ele>803.6</ele>
      </trkpt>
      <trkpt lat="42.7662300" lon="-7.2941800">
        <ele>802.4</ele>
      </trkpt>
      <trkpt lat="42.7662300" lon="-7.2942100">
        <ele>801.2</ele>
      </trkpt>
      <trkpt lat="42.7661700" lon="-7.2944600">
        <ele>799.7</ele>
      </trkpt>
      <trkpt lat="42.7661600" lon="-7.2945600">
        <ele>797.5</ele>
      </trkpt>
      <trkpt lat="42.7661500" lon="-7.2946600">
        <ele>793.4</ele>
      </trkpt>
      <trkpt lat="42.7661300" lon="-7.2949300">
        <ele>788.4</ele>
      </trkpt>
      <trkpt lat="42.7660800" lon="-7.2954600">
        <ele>782.1</ele>
      </trkpt>
      <trkpt lat="42.7660000" lon="-7.2959200">
        <ele>775.8</ele>
      </trkpt>
      <trkpt lat="42.7660200" lon="-7.2963000">
        <ele>770.1</ele>
      </trkpt>
      <trkpt lat="42.7660300" lon="-7.2963500">
        <ele>766.1</ele>
      </trkpt>
      <trkpt lat="42.7660800" lon="-7.2963900">
        <ele>763.1</ele>
      </trkpt>
      <trkpt lat="42.7661700" lon="-7.2963900">
        <ele>761.5</ele>
      </trkpt>
      <trkpt lat="42.7663700" lon="-7.2964000">
        <ele>759.3</ele>
      </trkpt>
      <trkpt lat="42.7664000" lon="-7.2964200">
        <ele>757.0</ele>
      </trkpt>
      <trkpt lat="42.7664800" lon="-7.2968200">
        <ele>754.7</ele>
      </trkpt>
      <trkpt lat="42.7665500" lon="-7.2970800">
        <ele>753.0</ele>
      </trkpt>
      <trkpt lat="42.7665600" lon="-7.2974000">
        <ele>751.6</ele>
      </trkpt>
      <trkpt lat="42.7666300" lon="-7.2974300">
        <ele>751.2</ele>
      </trkpt>
      <trkpt lat="42.7666600" lon="-7.2974500">
        <ele>751.2</ele>
      </trkpt>
      <trkpt lat="42.7666900" lon="-7.2974800">
        <ele>751.6</ele>
      </trkpt>
      <trkpt lat="42.7667200" lon="-7.2975500">
        <ele>751.8</ele>
      </trkpt>
      <trkpt lat="42.7667400" lon="-7.2976200">
        <ele>751.8</ele>
      </trkpt>
      <trkpt lat="42.7667400" lon="-7.2976900">
        <ele>751.7</ele>
      </trkpt>
      <trkpt lat="42.7667100" lon="-7.2978700">
        <ele>751.5</ele>
      </trkpt>
      <trkpt lat="42.7666900" lon="-7.2979600">
        <ele>751.0</ele>
      </trkpt>
      <trkpt lat="42.7666600" lon="-7.2981200">
        <ele>750.9</ele>
      </trkpt>
      <trkpt lat="42.7665600" lon="-7.2986300">
        <ele>751.1</ele>
      </trkpt>
      <trkpt lat="42.7666600" lon="-7.2987300">
        <ele>751.5</ele>
      </trkpt>
      <trkpt lat="42.7666800" lon="-7.2988100">
        <ele>752.1</ele>
      </trkpt>
      <trkpt lat="42.7667000" lon="-7.2990600">
        <ele>753.7</ele>
      </trkpt>
      <trkpt lat="42.7667100" lon="-7.2991800">
        <ele>754.8</ele>
      </trkpt>
      <trkpt lat="42.7667600" lon="-7.2996100">
        <ele>755.9</ele>
      </trkpt>
      <trkpt lat="42.7667700" lon="-7.2997100">
        <ele>756.7</ele>
      </trkpt>
      <trkpt lat="42.7667600" lon="-7.2997900">
        <ele>757.2</ele>
      </trkpt>
      <trkpt lat="42.7667400" lon="-7.2998700">
        <ele>757.4</ele>
      </trkpt>
      <trkpt lat="42.7667000" lon="-7.2999900">
        <ele>757.5</ele>
      </trkpt>
      <trkpt lat="42.7667300" lon="-7.3000900">
        <ele>757.5</ele>
      </trkpt>
      <trkpt lat="42.7667300" lon="-7.3001300">
        <ele>757.5</ele>
      </trkpt>
      <trkpt lat="42.7667100" lon="-7.3001800">
        <ele>757.6</ele>
      </trkpt>
      <trkpt lat="42.7666200" lon="-7.3006300">
        <ele>757.5</ele>
      </trkpt>
      <trkpt lat="42.7666000" lon="-7.3007000">
        <ele>757.4</ele>
      </trkpt>
      <trkpt lat="42.7665700" lon="-7.3007800">
        <ele>757.4</ele>
      </trkpt>
      <trkpt lat="42.7665700" lon="-7.3008600">
        <ele>757.4</ele>
      </trkpt>
      <trkpt lat="42.7665700" lon="-7.3009400">
        <ele>757.5</ele>
      </trkpt>
      <trkpt lat="42.7665800" lon="-7.3009800">
        <ele>758.2</ele>
      </trkpt>
      <trkpt lat="42.7664800" lon="-7.3016300">
        <ele>758.7</ele>
      </trkpt>
      <trkpt lat="42.7666000" lon="-7.3025700">
        <ele>759.1</ele>
      </trkpt>
      <trkpt lat="42.7666300" lon="-7.3026800">
        <ele>759.4</ele>
      </trkpt>
      <trkpt lat="42.7667200" lon="-7.3028600">
        <ele>759.6</ele>
      </trkpt>
      <trkpt lat="42.7667500" lon="-7.3029000">
        <ele>759.5</ele>
      </trkpt>
      <trkpt lat="42.7668600" lon="-7.3029300">
        <ele>759.7</ele>
      </trkpt>
      <trkpt lat="42.7669700" lon="-7.3029000">
        <ele>760.0</ele>
      </trkpt>
      <trkpt lat="42.7672000" lon="-7.3029000">
        <ele>760.3</ele>
      </trkpt>
      <trkpt lat="42.7672400" lon="-7.3029500">
        <ele>760.7</ele>
      </trkpt>
      <trkpt lat="42.7673600" lon="-7.3030100">
        <ele>761.0</ele>
      </trkpt>
      <trkpt lat="42.7674400" lon="-7.3030300">
        <ele>760.9</ele>
      </trkpt>
      <trkpt lat="42.7675000" lon="-7.3030800">
        <ele>760.6</ele>
      </trkpt>
      <trkpt lat="42.7675600" lon="-7.3031700">
        <ele>760.1</ele>
      </trkpt>
      <trkpt lat="42.7676500" lon="-7.3033200">
        <ele>759.3</ele>
      </trkpt>
      <trkpt lat="42.7677500" lon="-7.3035100">
        <ele>758.2</ele>
      </trkpt>
      <trkpt lat="42.7678710" lon="-7.3037190">
        <ele>757.9</ele>
      </trkpt>
      <trkpt lat="42.7681670" lon="-7.3043120">
        <ele>758.1</ele>
      </trkpt>
      <trkpt lat="42.7685000" lon="-7.3048600">
        <ele>758.5</ele>
      </trkpt>
      <trkpt lat="42.7686400" lon="-7.3053000">
        <ele>758.9</ele>
      </trkpt>
      <trkpt lat="42.7686400" lon="-7.3054600">
        <ele>758.7</ele>
      </trkpt>
      <trkpt lat="42.7685100" lon="-7.3057500">
        <ele>757.3</ele>
      </trkpt>
      <trkpt lat="42.7681900" lon="-7.3060800">
        <ele>754.8</ele>
      </trkpt>
      <trkpt lat="42.7678700" lon="-7.3066800">
        <ele>751.6</ele>
      </trkpt>
      <trkpt lat="42.7677800" lon="-7.3074200">
        <ele>748.6</ele>
      </trkpt>
      <trkpt lat="42.7678400" lon="-7.3079100">
        <ele>745.7</ele>
      </trkpt>
      <trkpt lat="42.7679300" lon="-7.3081000">
        <ele>741.0</ele>
      </trkpt>
      <trkpt lat="42.7684200" lon="-7.3086300">
        <ele>735.7</ele>
      </trkpt>
      <trkpt lat="42.7687600" lon="-7.3095300">
        <ele>729.3</ele>
      </trkpt>
      <trkpt lat="42.7692000" lon="-7.3099500">
        <ele>722.0</ele>
      </trkpt>
      <trkpt lat="42.7696300" lon="-7.3103600">
        <ele>713.8</ele>
      </trkpt>
      <trkpt lat="42.7699500" lon="-7.3104900">
        <ele>706.8</ele>
      </trkpt>
      <trkpt lat="42.7705800" lon="-7.3105800">
        <ele>701.7</ele>
      </trkpt>
      <trkpt lat="42.7712000" lon="-7.3106700">
        <ele>696.9</ele>
      </trkpt>
      <trkpt lat="42.7718200" lon="-7.3103700">
        <ele>693.2</ele>
      </trkpt>
      <trkpt lat="42.7723800" lon="-7.3101800">
        <ele>691.0</ele>
      </trkpt>
      <trkpt lat="42.7727100" lon="-7.3099900">
        <ele>690.0</ele>
      </trkpt>
      <trkpt lat="42.7729900" lon="-7.3097900">
        <ele>688.0</ele>
      </trkpt>
      <trkpt lat="42.7725900" lon="-7.3102600">
        <ele>686.7</ele>
      </trkpt>
      <trkpt lat="42.7721900" lon="-7.3107400">
        <ele>684.2</ele>
      </trkpt>
      <trkpt lat="42.7715100" lon="-7.3110600">
        <ele>681.3</ele>
      </trkpt>
      <trkpt lat="42.7711800" lon="-7.3113100">
        <ele>678.2</ele>
      </trkpt>
      <trkpt lat="42.7711700" lon="-7.3113800">
        <ele>674.8</ele>
      </trkpt>
      <trkpt lat="42.7714700" lon="-7.3114400">
        <ele>671.6</ele>
      </trkpt>
      <trkpt lat="42.7716300" lon="-7.3116200">
        <ele>669.1</ele>
      </trkpt>
      <trkpt lat="42.7716200" lon="-7.3117200">
        <ele>666.7</ele>
      </trkpt>
      <trkpt lat="42.7714900" lon="-7.3121700">
        <ele>664.8</ele>
      </trkpt>
      <trkpt lat="42.7711100" lon="-7.3126000">
        <ele>663.9</ele>
      </trkpt>
      <trkpt lat="42.7710000" lon="-7.3132700">
        <ele>664.0</ele>
      </trkpt>
      <trkpt lat="42.7708200" lon="-7.3139000">
        <ele>665.6</ele>
      </trkpt>
      <trkpt lat="42.7709100" lon="-7.3143000">
        <ele>668.0</ele>
      </trkpt>
      <trkpt lat="42.7712500" lon="-7.3146400">
        <ele>670.9</ele>
      </trkpt>
      <trkpt lat="42.7713700" lon="-7.3149400">
        <ele>673.4</ele>
      </trkpt>
      <trkpt lat="42.7713800" lon="-7.3155300">
        <ele>675.1</ele>
      </trkpt>
      <trkpt lat="42.7711600" lon="-7.3160400">
        <ele>675.3</ele>
      </trkpt>
      <trkpt lat="42.7713200" lon="-7.3167600">
        <ele>673.5</ele>
      </trkpt>
      <trkpt lat="42.7714800" lon="-7.3174800">
        <ele>671.1</ele>
      </trkpt>
      <trkpt lat="42.7718200" lon="-7.3182500">
        <ele>668.9</ele>
      </trkpt>
      <trkpt lat="42.7719200" lon="-7.3183300">
        <ele>667.2</ele>
      </trkpt>
      <trkpt lat="42.7721500" lon="-7.3183100">
        <ele>665.9</ele>
      </trkpt>
      <trkpt lat="42.7724200" lon="-7.3183700">
        <ele>665.5</ele>
      </trkpt>
      <trkpt lat="42.7724600" lon="-7.3185000">
        <ele>664.5</ele>
      </trkpt>
      <trkpt lat="42.7725800" lon="-7.3194700">
        <ele>663.1</ele>
      </trkpt>
      <trkpt lat="42.7725100" lon="-7.3206500">
        <ele>661.9</ele>
      </trkpt>
      <trkpt lat="42.7729000" lon="-7.3215600">
        <ele>661.2</ele>
      </trkpt>
      <trkpt lat="42.7731100" lon="-7.3224600">
        <ele>660.3</ele>
      </trkpt>
      <trkpt lat="42.7734800" lon="-7.3233100">
        <ele>659.7</ele>
      </trkpt>
      <trkpt lat="42.7736300" lon="-7.3239900">
        <ele>659.6</ele>
      </trkpt>
      <trkpt lat="42.7737900" lon="-7.3246600">
        <ele>659.4</ele>
      </trkpt>
      <trkpt lat="42.7739400" lon="-7.3253400">
        <ele>659.1</ele>
      </trkpt>
      <trkpt lat="42.7738500" lon="-7.3254700">
        <ele>660.6</ele>
      </trkpt>
      <trkpt lat="42.7738500" lon="-7.3258000">
        <ele>662.7</ele>
      </trkpt>
      <trkpt lat="42.7736700" lon="-7.3267700">
        <ele>664.7</ele>
      </trkpt>
      <trkpt lat="42.7732200" lon="-7.3270300">
        <ele>666.7</ele>
      </trkpt>
      <trkpt lat="42.7727600" lon="-7.3272800">
        <ele>668.7</ele>
      </trkpt>
      <trkpt lat="42.7726300" lon="-7.3275000">
        <ele>670.2</ele>
      </trkpt>
      <trkpt lat="42.7726300" lon="-7.3277100">
        <ele>671.6</ele>
      </trkpt>
      <trkpt lat="42.7729200" lon="-7.3285000">
        <ele>672.7</ele>
      </trkpt>
      <trkpt lat="42.7732100" lon="-7.3292900">
        <ele>673.2</ele>
      </trkpt>
      <trkpt lat="42.7731900" lon="-7.3301500">
        <ele>673.5</ele>
      </trkpt>
      <trkpt lat="42.7731700" lon="-7.3310000">
        <ele>673.3</ele>
      </trkpt>
      <trkpt lat="42.7730700" lon="-7.3316700">
        <ele>672.8</ele>
      </trkpt>
      <trkpt lat="42.7729800" lon="-7.3323500">
        <ele>672.1</ele>
      </trkpt>
      <trkpt lat="42.7728800" lon="-7.3330200">
        <ele>671.1</ele>
      </trkpt>
      <trkpt lat="42.7727800" lon="-7.3336900">
        <ele>669.4</ele>
      </trkpt>
      <trkpt lat="42.7728300" lon="-7.3344100">
        <ele>666.6</ele>
      </trkpt>
      <trkpt lat="42.7729300" lon="-7.3350200">
        <ele>663.2</ele>
      </trkpt>
      <trkpt lat="42.7730200" lon="-7.3356200">
        <ele>659.5</ele>
      </trkpt>
      <trkpt lat="42.7732700" lon="-7.3362100">
        <ele>655.2</ele>
      </trkpt>
      <trkpt lat="42.7735100" lon="-7.3368100">
        <ele>650.1</ele>
      </trkpt>
      <trkpt lat="42.7737600" lon="-7.3374100">
        <ele>645.1</ele>
      </trkpt>
      <trkpt lat="42.7740000" lon="-7.3380000">
        <ele>639.3</ele>
      </trkpt>
      <trkpt lat="42.7740400" lon="-7.3384100">
        <ele>633.6</ele>
      </trkpt>
      <trkpt lat="42.7738000" lon="-7.3392100">
        <ele>629.0</ele>
      </trkpt>
      <trkpt lat="42.7741200" lon="-7.3398600">
        <ele>625.5</ele>
      </trkpt>
      <trkpt lat="42.7743400" lon="-7.3399800">
        <ele>622.5</ele>
      </trkpt>
      <trkpt lat="42.7744600" lon="-7.3401200">
        <ele>620.7</ele>
      </trkpt>
      <trkpt lat="42.7746700" lon="-7.3408700">
        <ele>619.9</ele>
      </trkpt>
      <trkpt lat="42.7748700" lon="-7.3416200">
        <ele>618.8</ele>
      </trkpt>
      <trkpt lat="42.7748500" lon="-7.3423700">
        <ele>617.5</ele>
      </trkpt>
      <trkpt lat="42.7746800" lon="-7.3430600">
        <ele>616.3</ele>
      </trkpt>
      <trkpt lat="42.7745800" lon="-7.3436800">
        <ele>614.9</ele>
      </trkpt>
      <trkpt lat="42.7744700" lon="-7.3442900">
        <ele>612.8</ele>
      </trkpt>
      <trkpt lat="42.7743700" lon="-7.3449100">
        <ele>610.4</ele>
      </trkpt>
      <trkpt lat="42.7741900" lon="-7.3456000">
        <ele>607.3</ele>
      </trkpt>
      <trkpt lat="42.7740100" lon="-7.3462900">
        <ele>603.3</ele>
      </trkpt>
      <trkpt lat="42.7740100" lon="-7.3470500">
        <ele>598.5</ele>
      </trkpt>
      <trkpt lat="42.7740100" lon="-7.3478200">
        <ele>593.6</ele>
      </trkpt>
      <trkpt lat="42.7740100" lon="-7.3485800">
        <ele>588.5</ele>
      </trkpt>
      <trkpt lat="42.7739300" lon="-7.3492100">
        <ele>583.0</ele>
      </trkpt>
      <trkpt lat="42.7738400" lon="-7.3498400">
        <ele>577.1</ele>
      </trkpt>
      <trkpt lat="42.7738600" lon="-7.3505100">
        <ele>570.6</ele>
      </trkpt>
      <trkpt lat="42.7738700" lon="-7.3511700">
        <ele>563.6</ele>
      </trkpt>
      <trkpt lat="42.7737100" lon="-7.3519600">
        <ele>556.3</ele>
      </trkpt>
      <trkpt lat="42.7737500" lon="-7.3523400">
        <ele>549.2</ele>
      </trkpt>
      <trkpt lat="42.7734300" lon="-7.3532100">
        <ele>542.3</ele>
      </trkpt>
      <trkpt lat="42.7733500" lon="-7.3536500">
        <ele>535.9</ele>
      </trkpt>
      <trkpt lat="42.7733700" lon="-7.3541500">
        <ele>530.2</ele>
      </trkpt>
      <trkpt lat="42.7736000" lon="-7.3547600">
        <ele>525.1</ele>
      </trkpt>
      <trkpt lat="42.7738300" lon="-7.3553700">
        <ele>520.6</ele>
      </trkpt>
      <trkpt lat="42.7738300" lon="-7.3561500">
        <ele>517.1</ele>
      </trkpt>
      <trkpt lat="42.7738200" lon="-7.3569200">
        <ele>514.3</ele>
      </trkpt>
      <trkpt lat="42.7738200" lon="-7.3577000">
        <ele>511.5</ele>
      </trkpt>
      <trkpt lat="42.7737300" lon="-7.3583300">
        <ele>509.1</ele>
      </trkpt>
      <trkpt lat="42.7736300" lon="-7.3589500">
        <ele>506.7</ele>
      </trkpt>
      <trkpt lat="42.7737400" lon="-7.3595900">
        <ele>504.3</ele>
      </trkpt>
      <trkpt lat="42.7738500" lon="-7.3602200">
        <ele>502.0</ele>
      </trkpt>
      <trkpt lat="42.7737900" lon="-7.3609400">
        <ele>499.4</ele>
      </trkpt>
      <trkpt lat="42.7736300" lon="-7.3616100">
        <ele>496.5</ele>
      </trkpt>
      <trkpt lat="42.7736500" lon="-7.3624900">
        <ele>493.9</ele>
      </trkpt>
      <trkpt lat="42.7733800" lon="-7.3632400">
        <ele>491.6</ele>
      </trkpt>
      <trkpt lat="42.7731600" lon="-7.3643700">
        <ele>489.1</ele>
      </trkpt>
      <trkpt lat="42.7732300" lon="-7.3650800">
        <ele>487.5</ele>
      </trkpt>
      <trkpt lat="42.7734000" lon="-7.3656800">
        <ele>486.4</ele>
      </trkpt>
      <trkpt lat="42.7733600" lon="-7.3661400">
        <ele>485.3</ele>
      </trkpt>
      <trkpt lat="42.7731900" lon="-7.3669400">
        <ele>484.0</ele>
      </trkpt>
      <trkpt lat="42.7731600" lon="-7.3675900">
        <ele>482.8</ele>
      </trkpt>
      <trkpt lat="42.7731300" lon="-7.3682300">
        <ele>482.1</ele>
      </trkpt>
      <trkpt lat="42.7731700" lon="-7.3689200">
        <ele>482.4</ele>
      </trkpt>
      <trkpt lat="42.7732580" lon="-7.3702890">
        <ele>482.8</ele>
      </trkpt>
      <trkpt lat="42.7733210" lon="-7.3716630">
        <ele>483.5</ele>
      </trkpt>
      <trkpt lat="42.7734600" lon="-7.3723900">
        <ele>484.8</ele>
      </trkpt>
      <trkpt lat="42.7736000" lon="-7.3731000">
        <ele>485.8</ele>
      </trkpt>
      <trkpt lat="42.7735700" lon="-7.3737100">
        <ele>485.9</ele>
      </trkpt>
      <trkpt lat="42.7735400" lon="-7.3743200">
        <ele>486.4</ele>
      </trkpt>
      <trkpt lat="42.7737400" lon="-7.3750400">
        <ele>487.2</ele>
      </trkpt>
      <trkpt lat="42.7739400" lon="-7.3757600">
        <ele>488.3</ele>
      </trkpt>
      <trkpt lat="42.7740100" lon="-7.3764200">
        <ele>488.5</ele>
      </trkpt>
      <trkpt lat="42.7740800" lon="-7.3770900">
        <ele>487.7</ele>
      </trkpt>
      <trkpt lat="42.7741500" lon="-7.3777500">
        <ele>484.6</ele>
      </trkpt>
      <trkpt lat="42.7743500" lon="-7.3783100">
        <ele>480.5</ele>
      </trkpt>
      <trkpt lat="42.7747600" lon="-7.3794200">
        <ele>475.5</ele>
      </trkpt>
      <trkpt lat="42.7749600" lon="-7.3799800">
        <ele>470.9</ele>
      </trkpt>
      <trkpt lat="42.7752700" lon="-7.3811800">
        <ele>465.5</ele>
      </trkpt>
      <trkpt lat="42.7754300" lon="-7.3817800">
        <ele>461.5</ele>
      </trkpt>
      <trkpt lat="42.7757400" lon="-7.3829800">
        <ele>458.1</ele>
      </trkpt>
      <trkpt lat="42.7759000" lon="-7.3833100">
        <ele>454.8</ele>
      </trkpt>
      <trkpt lat="42.7763900" lon="-7.3838900">
        <ele>450.9</ele>
      </trkpt>
      <trkpt lat="42.7766500" lon="-7.3843600">
        <ele>448.5</ele>
      </trkpt>
      <trkpt lat="42.7764800" lon="-7.3851000">
        <ele>447.0</ele>
      </trkpt>
      <trkpt lat="42.7762700" lon="-7.3864900">
        <ele>445.9</ele>
      </trkpt>
      <trkpt lat="42.7762300" lon="-7.3871200">
        <ele>445.7</ele>
      </trkpt>
      <trkpt lat="42.7761800" lon="-7.3877600">
        <ele>446.6</ele>
      </trkpt>
      <trkpt lat="42.7761300" lon="-7.3884000">
        <ele>447.8</ele>
      </trkpt>
      <trkpt lat="42.7761300" lon="-7.3890300">
        <ele>448.4</ele>
      </trkpt>
      <trkpt lat="42.7761300" lon="-7.3896500">
        <ele>448.2</ele>
      </trkpt>
      <trkpt lat="42.7761800" lon="-7.3903400">
        <ele>446.0</ele>
      </trkpt>
      <trkpt lat="42.7762400" lon="-7.3910200">
        <ele>443.2</ele>
      </trkpt>
      <trkpt lat="42.7763500" lon="-7.3923900">
        <ele>440.4</ele>
      </trkpt>
      <trkpt lat="42.7764000" lon="-7.3930800">
        <ele>437.9</ele>
      </trkpt>
      <trkpt lat="42.7763600" lon="-7.3937800">
        <ele>435.6</ele>
      </trkpt>
      <trkpt lat="42.7763200" lon="-7.3944800">
        <ele>434.3</ele>
      </trkpt>
      <trkpt lat="42.7762700" lon="-7.3951800">
        <ele>433.0</ele>
      </trkpt>
      <trkpt lat="42.7762300" lon="-7.3958800">
        <ele>431.3</ele>
      </trkpt>
      <trkpt lat="42.7761900" lon="-7.3965800">
        <ele>429.2</ele>
      </trkpt>
      <trkpt lat="42.7762000" lon="-7.3972000">
        <ele>427.2</ele>
      </trkpt>
      <trkpt lat="42.7762100" lon="-7.3978100">
        <ele>425.9</ele>
      </trkpt>
      <trkpt lat="42.7761400" lon="-7.3985200">
        <ele>424.8</ele>
      </trkpt>
      <trkpt lat="42.7759700" lon="-7.3991200">
        <ele>423.9</ele>
      </trkpt>
      <trkpt lat="42.7757900" lon="-7.3997300">
        <ele>423.0</ele>
      </trkpt>
      <trkpt lat="42.7756200" lon="-7.4003300">
        <ele>422.2</ele>
      </trkpt>
      <trkpt lat="42.7756820" lon="-7.4010500">
        <ele>421.6</ele>
      </trkpt>
      <trkpt lat="42.7757430" lon="-7.4017480">
        <ele>421.1</ele>
      </trkpt>
      <trkpt lat="42.7758050" lon="-7.4026720">
        <ele>421.0</ele>
      </trkpt>
      <trkpt lat="42.7758140" lon="-7.4029730">
        <ele>421.2</ele>
      </trkpt>
      <trkpt lat="42.7757650" lon="-7.4032140">
        <ele>421.4</ele>
      </trkpt>
      <trkpt lat="42.7756310" lon="-7.4040720">
        <ele>421.4</ele>
      </trkpt>
      <trkpt lat="42.7757340" lon="-7.4044870">
        <ele>421.5</ele>
      </trkpt>
      <trkpt lat="42.7758360" lon="-7.4048290">
        <ele>421.7</ele>
      </trkpt>
      <trkpt lat="42.7758490" lon="-7.4050400">
        <ele>421.8</ele>
      </trkpt>
      <trkpt lat="42.7759340" lon="-7.4053550">
        <ele>422.1</ele>
      </trkpt>
      <trkpt lat="42.7759590" lon="-7.4054530">
        <ele>422.9</ele>
      </trkpt>
      <trkpt lat="42.7759450" lon="-7.4057420">
        <ele>423.2</ele>
      </trkpt>
      <trkpt lat="42.7757300" lon="-7.4065200">
        <ele>423.2</ele>
      </trkpt>
      <trkpt lat="42.7755300" lon="-7.4073200">
        <ele>423.1</ele>
      </trkpt>
      <trkpt lat="42.7752500" lon="-7.4075100">
        <ele>422.9</ele>
      </trkpt>
      <trkpt lat="42.7752100" lon="-7.4076300">
        <ele>422.0</ele>
      </trkpt>
      <trkpt lat="42.7751300" lon="-7.4076200">
        <ele>421.5</ele>
      </trkpt>
      <trkpt lat="42.7749300" lon="-7.4080400">
        <ele>421.3</ele>
      </trkpt>
      <trkpt lat="42.7748700" lon="-7.4086500">
        <ele>421.1</ele>
      </trkpt>
      <trkpt lat="42.7749000" lon="-7.4088500">
        <ele>420.9</ele>
      </trkpt>
    </trkseg>
  </trk>
</gpx>